{"type":"Feature","properties":{},"geometry":{"type":"LineString","coordinates":[[13.68673,55.5695],[13.68681,55.56939],[13.68705,55.56906],[13.68724,55.56878],[13.68754,55.56848],[13.68799,55.56829],[13.68831,55.56804],[13.68854,55.56776],[13.68878,55.56749],[13.68897,55.56721],[13.68925,55.56681],[13.68933,55.5666],[13.68928,55.56641],[13.68936,55.56596],[13.68935,55.56557],[13.68934,55.56518],[13.68916,55.56481],[13.68914,55.5645],[13.68888,55.5642],[13.68865,55.56391],[13.68853,55.56366],[13.6888,55.56368],[13.6892,55.56353],[13.68946,55.56324],[13.68931,55.563],[13.68881,55.56302],[13.6884,55.56283],[13.68827,55.56256],[13.68825,55.56221],[13.68796,55.56193],[13.68775,55.56159],[13.68767,55.56124],[13.68754,55.56093],[13.68748,55.5606],[13.68785,55.56042],[13.68837,55.5603],[13.68886,55.56016],[13.68928,55.56001],[13.6896,55.55993],[13.69004,55.56002],[13.69052,55.56011],[13.69107,55.55988],[13.69132,55.55972],[13.69125,55.55971],[13.69121,55.55972],[13.69127,55.55973],[13.69122,55.55967],[13.69121,55.55985],[13.69147,55.56007],[13.69168,55.56021],[13.69198,55.56035],[13.69248,55.56032],[13.69296,55.56018],[13.69361,55.5602],[13.69412,55.56014],[13.69468,55.56006],[13.69528,55.55993],[13.69575,55.55982],[13.69618,55.55986],[13.69659,55.56002],[13.69694,55.56031],[13.69736,55.56057],[13.6978,55.56075],[13.69763,55.56092],[13.69761,55.56114],[13.69747,55.56124],[13.69775,55.5613],[13.69764,55.56115],[13.69769,55.56084],[13.69821,55.56077],[13.69876,55.56072],[13.69933,55.56065],[13.69996,55.56074],[13.70053,55.56078],[13.70112,55.56082],[13.70172,55.56079],[13.70229,55.56077],[13.70284,55.5607],[13.70339,55.56059],[13.70398,55.56054],[13.70454,55.56052],[13.70515,55.56061],[13.70568,55.56076],[13.70616,55.5609],[13.70672,55.56103],[13.70705,55.56106],[13.7075,55.56118],[13.708,55.56132],[13.70859,55.56144],[13.70903,55.56159],[13.7097,55.56162],[13.71033,55.56159],[13.71082,55.56154],[13.71124,55.5615],[13.71128,55.5618],[13.71145,55.56208],[13.71165,55.56241],[13.71185,55.56273],[13.71209,55.56302],[13.71233,55.5633],[13.71274,55.56354],[13.71324,55.56374],[13.7136,55.564],[13.71395,55.5642],[13.71448,55.5644],[13.71495,55.56459],[13.71532,55.56487],[13.71559,55.5651],[13.71588,55.56533],[13.71615,55.5656],[13.71627,55.56584],[13.71606,55.5657],[13.71565,55.56543],[13.71521,55.56523],[13.71487,55.56523],[13.71467,55.56533],[13.71471,55.56531],[13.7147,55.56532],[13.68821,55.56207],[13.6883,55.56232],[13.68817,55.56261],[13.68841,55.56291],[13.68898,55.56297],[13.68944,55.56308],[13.68933,55.56334],[13.689,55.56353],[13.68862,55.56378],[13.68871,55.56409],[13.6892,55.56438],[13.68904,55.56464],[13.68912,55.56494],[13.68915,55.56529],[13.68905,55.5656],[13.68897,55.56578],[13.68892,55.56575],[13.689,55.56594],[13.68907,55.56627],[13.68919,55.56656],[13.68899,55.56685],[13.68874,55.56715],[13.68849,55.56743],[13.68824,55.56772],[13.68808,55.56799],[13.68785,55.56826],[13.68748,55.56862],[13.68717,55.56888],[13.68698,55.5692],[13.68683,55.56936],[13.68677,55.56932],[13.68694,55.56912],[13.68722,55.569],[13.68736,55.56897],[13.68708,55.56898],[13.68686,55.56925],[13.68675,55.56956],[13.68666,55.56976],[13.68651,55.56992],[13.68661,55.5702],[13.68663,55.57048],[13.68655,55.57074],[13.68605,55.5709],[13.68547,55.57096],[13.68492,55.57103],[13.68436,55.57109],[13.68378,55.57115],[13.68322,55.57122],[13.68274,55.57128],[13.68224,55.57125],[13.68227,55.57126],[13.68228,55.57127],[13.68228,55.57127],[13.68228,55.57127],[13.68229,55.57127],[13.68229,55.57126],[13.68229,55.57126],[13.68229,55.57126],[13.68229,55.57126],[13.68229,55.57126],[13.68229,55.57126],[13.68229,55.57126],[13.68229,55.57126],[13.68229,55.57126],[13.68226,55.57126],[13.68231,55.57127],[13.68231,55.57127],[13.68231,55.57127],[13.68229,55.57128],[13.68229,55.57128],[13.68229,55.57129],[13.68228,55.57129],[13.68229,55.57129],[13.68229,55.57128],[13.68229,55.57127],[13.68231,55.57126],[13.68231,55.57126],[13.68226,55.57126],[13.68229,55.57126],[13.6823,55.57127],[13.6823,55.57127],[13.68314,55.57124]]}}