{"type":"Feature","properties":{},"geometry":{"type":"LineString","coordinates":[[13.087,55.37967],[13.08765,55.37979],[13.08735,55.37969],[13.08705,55.37955],[13.08695,55.37949],[13.08676,55.37944],[13.08642,55.3794],[13.0862,55.37941],[13.08599,55.37944],[13.08577,55.37948],[13.08554,55.37951],[13.08527,55.37951],[13.08518,55.37941],[13.08523,55.37924],[13.08529,55.3791],[13.08544,55.37895],[13.0856,55.37881],[13.08564,55.37869],[13.08573,55.37854],[13.0858,55.37837],[13.08595,55.37823],[13.08606,55.3781],[13.08589,55.37796],[13.08561,55.37788],[13.08542,55.3778],[13.08524,55.37772],[13.08531,55.37774],[13.0855,55.37782],[13.08565,55.37786],[13.08587,55.37795],[13.0861,55.37805],[13.08634,55.3779],[13.08654,55.37774],[13.08669,55.37763],[13.08686,55.37749],[13.08699,55.37738],[13.08689,55.37723],[13.08662,55.37713],[13.08639,55.37705],[13.08615,55.37695],[13.08596,55.37687],[13.08579,55.37681],[13.08583,55.37682],[13.08609,55.37692],[13.08634,55.377],[13.08654,55.3771],[13.08675,55.3772],[13.08699,55.37729],[13.08722,55.37738],[13.08746,55.37745],[13.08773,55.37748],[13.08797,55.37739],[13.0882,55.3773],[13.08845,55.37724],[13.08868,55.37725],[13.08895,55.37727],[13.08911,55.37735],[13.0891,55.37743],[13.08915,55.37744],[13.08906,55.37754],[13.08888,55.3777],[13.0887,55.37783],[13.08856,55.37796],[13.08877,55.37806],[13.08892,55.37817],[13.08902,55.37832],[13.08908,55.37843],[13.08917,55.37858],[13.0892,55.37871],[13.08906,55.3788],[13.08899,55.37882],[13.08885,55.37895],[13.08867,55.37908],[13.08849,55.3792],[13.08825,55.37913],[13.08798,55.37904],[13.08769,55.37903],[13.08741,55.37905],[13.0871,55.3791],[13.08692,55.37904],[13.08668,55.37896],[13.08648,55.37897],[13.0862,55.37897],[13.086,55.37888],[13.08579,55.37878],[13.08557,55.37876],[13.08539,55.37897],[13.08531,55.37913],[13.08535,55.37917],[13.08529,55.37907],[13.08517,55.37896],[13.08497,55.37889],[13.08477,55.3788],[13.08452,55.37879],[13.08433,55.3789],[13.08413,55.379],[13.08399,55.37894],[13.08378,55.37886],[13.08357,55.37875],[13.08331,55.37866],[13.08313,55.37859],[13.08294,55.37848],[13.08299,55.3784],[13.08308,55.37829],[13.08317,55.37821],[13.08312,55.37808],[13.08308,55.37808],[13.08311,55.37814],[13.08304,55.37812],[13.08278,55.37811],[13.08252,55.37807],[13.08224,55.37806],[13.08205,55.37814],[13.08206,55.37831],[13.08196,55.37841],[13.08186,55.3785],[13.08186,55.37865],[13.08188,55.37881],[13.08191,55.37896],[13.082,55.37909],[13.08226,55.3791],[13.08248,55.37908],[13.08264,55.37892],[13.08271,55.37885],[13.0827,55.3789],[13.08262,55.37899],[13.08244,55.37904],[13.08244,55.37912],[13.08255,55.37928],[13.08262,55.37946],[13.08257,55.37961],[13.0825,55.37977],[13.08246,55.37993],[13.08247,55.38007],[13.08263,55.38021],[13.08285,55.38031],[13.08296,55.3804],[13.08286,55.38057],[13.0828,55.38073],[13.08285,55.38088],[13.08308,55.38097],[13.08338,55.38102],[13.08353,55.3811],[13.08374,55.3812],[13.08391,55.38128],[13.08408,55.38137],[13.08416,55.38139],[13.08419,55.38153],[13.08421,55.38166],[13.08422,55.3818],[13.08422,55.38197],[13.08432,55.38214],[13.0845,55.38227],[13.08474,55.38236],[13.08498,55.38244],[13.08519,55.38253],[13.08535,55.38262],[13.08552,55.38271],[13.08572,55.38283],[13.08591,55.38292],[13.08605,55.38308],[13.0861,55.38323],[13.08604,55.3834],[13.086,55.38354],[13.08597,55.38368],[13.08593,55.38383],[13.08589,55.38387],[13.08591,55.38389],[13.08595,55.38388],[13.08596,55.38387],[13.08595,55.38386],[13.08596,55.38386],[13.08598,55.38388],[13.08596,55.38392],[13.08591,55.38393],[13.08583,55.38396],[13.08583,55.38396],[13.08583,55.38396],[13.08583,55.38396],[13.08583,55.38396],[13.08583,55.38396],[13.08583,55.38396],[13.08583,55.38396],[13.08583,55.38396],[13.08583,55.38396],[13.08583,55.38396],[13.08583,55.38396],[13.08581,55.38395],[13.08581,55.38395],[13.08581,55.38395],[13.08581,55.38395],[13.08581,55.38395],[13.08581,55.38395],[13.08581,55.38395],[13.08581,55.38395],[13.08581,55.38395],[13.08581,55.38395],[13.08581,55.38395],[13.08581,55.38395],[13.08578,55.38395]]}}