{"type":"Feature","properties":{},"geometry":{"type":"LineString","coordinates":[[13.21439,55.56658],[13.21436,55.56652],[13.21438,55.56647],[13.21435,55.56645],[13.21436,55.56654],[13.21421,55.56694],[13.21412,55.56732],[13.21373,55.56728],[13.21327,55.56755],[13.21312,55.56804],[13.21364,55.56847],[13.21446,55.56875],[13.21452,55.56923],[13.21509,55.56959],[13.21571,55.57],[13.21588,55.57048],[13.21645,55.57099],[13.21645,55.57147],[13.21699,55.57158],[13.21707,55.57145],[13.21685,55.57169],[13.21735,55.57166],[13.21796,55.57183],[13.21798,55.57187],[13.21802,55.57198],[13.21803,55.57208],[13.21819,55.57224],[13.21866,55.57216],[13.2187,55.57226],[13.21823,55.57247],[13.21773,55.5728],[13.21718,55.57321],[13.21689,55.57321],[13.21684,55.57317],[13.21671,55.57313],[13.21648,55.57311],[13.21582,55.57286],[13.21493,55.57276],[13.21428,55.57239],[13.21371,55.57208],[13.21332,55.5718],[13.21304,55.57143],[13.21304,55.57117],[13.21308,55.57091],[13.21304,55.57083],[13.21328,55.57073],[13.21369,55.57055],[13.21412,55.57036],[13.21418,55.5703],[13.21417,55.5702],[13.21439,55.57011],[13.21442,55.56985],[13.21473,55.56966],[13.21532,55.56951],[13.21578,55.56927],[13.21604,55.56902],[13.21649,55.56893],[13.21706,55.56885],[13.21725,55.5686],[13.21745,55.56834],[13.21775,55.56829],[13.21826,55.56834],[13.21844,55.5684],[13.21834,55.56831],[13.21797,55.56795],[13.21723,55.56761],[13.21663,55.56721],[13.2162,55.56687],[13.21567,55.56639],[13.21491,55.56598],[13.21398,55.56534],[13.21344,55.56492],[13.21312,55.5645],[13.21306,55.56411],[13.21292,55.56371],[13.21257,55.56333],[13.21144,55.56298],[13.21078,55.56282],[13.21066,55.56239],[13.2103,55.56212],[13.20988,55.56191],[13.20948,55.56158],[13.20916,55.56137],[13.20857,55.56103],[13.20818,55.56088],[13.20768,55.56062],[13.20683,55.56033],[13.20611,55.56024],[13.20611,55.56015],[13.20653,55.56009],[13.2068,55.56005],[13.20667,55.56007],[13.20606,55.55987],[13.20566,55.55989],[13.20543,55.55991],[13.20493,55.55982],[13.20418,55.55955],[13.20387,55.55934],[13.20335,55.55909],[13.20268,55.55891],[13.20202,55.55874],[13.20197,55.55882],[13.20213,55.55863],[13.20212,55.55831],[13.20212,55.55797],[13.20178,55.55755],[13.20142,55.55723],[13.20103,55.55674],[13.20091,55.55638],[13.20086,55.5561],[13.20086,55.55598],[13.20106,55.55559],[13.20114,55.55521],[13.20155,55.55503],[13.20212,55.55499],[13.20271,55.55464],[13.20292,55.55447],[13.20355,55.55446],[13.20406,55.55429],[13.20463,55.55388],[13.20486,55.55345],[13.20505,55.55307],[13.20503,55.55277],[13.20529,55.55244],[13.20552,55.55223],[13.20549,55.5524],[13.20559,55.5528],[13.20593,55.5532],[13.2062,55.55358],[13.20601,55.5542],[13.20587,55.55453],[13.20581,55.55482],[13.20594,55.55504],[13.20609,55.55527],[13.20646,55.5555],[13.20683,55.55566],[13.20714,55.55557],[13.20736,55.55561],[13.20786,55.55568],[13.2077,55.55575],[13.20771,55.55593],[13.20773,55.55598],[13.20773,55.55597],[13.20784,55.556],[13.20775,55.55591],[13.20763,55.55603],[13.20747,55.55621],[13.20747,55.55651],[13.20742,55.55691],[13.20795,55.55721],[13.20801,55.5575],[13.20782,55.55785],[13.20725,55.55821],[13.20648,55.55852],[13.20571,55.55882],[13.20518,55.55929],[13.20514,55.55956],[13.20518,55.55977],[13.2053,55.55984],[13.20536,55.55981],[13.20545,55.55982],[13.20528,55.55985],[13.2051,55.55971],[13.2048,55.55985],[13.20447,55.56033],[13.20389,55.56063],[13.20335,55.56059],[13.203,55.56052],[13.20246,55.56058],[13.20204,55.56062],[13.20238,55.56068],[13.20286,55.5607],[13.20331,55.5609],[13.20322,55.56108],[13.20323,55.56142],[13.20337,55.56167],[13.20362,55.56197],[13.20382,55.56219],[13.20382,55.56232],[13.2038,55.56248],[13.20408,55.56264],[13.20438,55.56269],[13.20465,55.56278],[13.20463,55.56317],[13.20506,55.56347],[13.20515,55.5637],[13.20463,55.56396],[13.20495,55.56437],[13.2057,55.56489],[13.20623,55.56531],[13.20701,55.56586],[13.20802,55.56622],[13.20876,55.56658],[13.20988,55.56656],[13.21098,55.56647],[13.21193,55.56636],[13.21241,55.56667],[13.21307,55.56686],[13.214,55.56682],[13.21437,55.56658]]}}