{"type":"Feature","properties":{},"geometry":{"type":"LineString","coordinates":[[13.39267,55.95114],[13.39274,55.95117],[13.39336,55.95112],[13.39374,55.95134],[13.39394,55.95161],[13.39416,55.95192],[13.39429,55.95225],[13.39462,55.95252],[13.39539,55.95276],[13.39575,55.95302],[13.39577,55.95322],[13.3958,55.9534],[13.39584,55.95354],[13.39594,55.9536],[13.39609,55.95372],[13.39635,55.95388],[13.39649,55.95403],[13.39668,55.95415],[13.39697,55.95418],[13.3971,55.95412],[13.39725,55.95405],[13.39727,55.95387],[13.3971,55.95375],[13.39722,55.95375],[13.39755,55.95373],[13.39783,55.95367],[13.39793,55.95356],[13.39787,55.95336],[13.39794,55.95333],[13.39821,55.95333],[13.39852,55.95335],[13.39886,55.95341],[13.39915,55.95341],[13.39941,55.95337],[13.39982,55.95317],[13.40019,55.95296],[13.40035,55.95281],[13.4004,55.95285],[13.4008,55.95294],[13.40112,55.95298],[13.40163,55.95303],[13.40202,55.95308],[13.40219,55.95305],[13.40222,55.953],[13.40203,55.95305],[13.40174,55.9531],[13.40145,55.95319],[13.40111,55.95338],[13.40087,55.95357],[13.40067,55.95366],[13.40043,55.95377],[13.40018,55.95383],[13.40016,55.954],[13.39984,55.95422],[13.39935,55.95438],[13.3991,55.95456],[13.39882,55.95478],[13.39855,55.95501],[13.39837,55.95517],[13.39839,55.95537],[13.3984,55.95553],[13.39835,55.95561],[13.39816,55.95565],[13.39815,55.95578],[13.39824,55.9559],[13.39858,55.9561],[13.39882,55.9562],[13.39909,55.95627],[13.39919,55.95638],[13.39908,55.95652],[13.39909,55.95659],[13.39916,55.95675],[13.39912,55.957],[13.39908,55.95725],[13.39884,55.95746],[13.39864,55.95764],[13.3987,55.95788],[13.39886,55.95799],[13.39882,55.95802],[13.39841,55.95788],[13.39788,55.95774],[13.39758,55.95752],[13.39723,55.95754],[13.39693,55.95762],[13.39659,55.95764],[13.39605,55.95768],[13.39567,55.95769],[13.39512,55.95771],[13.39466,55.95769],[13.39428,55.95774],[13.39363,55.95786],[13.39332,55.95795],[13.39321,55.95787],[13.39274,55.95771],[13.39205,55.95769],[13.3916,55.95761],[13.3916,55.95762],[13.39125,55.95804],[13.39098,55.95853],[13.39076,55.95897],[13.39099,55.95922],[13.39132,55.95942],[13.39137,55.95965],[13.39163,55.95976],[13.39188,55.95985],[13.3922,55.95995],[13.3925,55.96007],[13.39277,55.96026],[13.39311,55.96039],[13.39296,55.96039],[13.39265,55.96033],[13.3924,55.96016],[13.39194,55.96008],[13.39151,55.95994],[13.39117,55.95971],[13.39063,55.95954],[13.39038,55.95947],[13.38986,55.95947],[13.38945,55.95948],[13.38888,55.9595],[13.38853,55.95949],[13.38824,55.9594],[13.38794,55.95933],[13.38791,55.95918],[13.38785,55.95896],[13.38771,55.95879],[13.38767,55.95858],[13.38732,55.95842],[13.38665,55.95841],[13.38636,55.9583],[13.3862,55.95812],[13.38591,55.95796],[13.3857,55.95777],[13.38553,55.95767],[13.38558,55.95761],[13.38558,55.95751],[13.38564,55.95741],[13.38565,55.95718],[13.3859,55.95703],[13.38606,55.95679],[13.3865,55.9567],[13.38674,55.95655],[13.38708,55.95663],[13.38759,55.95669],[13.38802,55.95676],[13.38854,55.95672],[13.38894,55.95675],[13.38963,55.9568],[13.39014,55.95685],[13.39057,55.95685],[13.39096,55.95683],[13.39121,55.95669],[13.39115,55.95666],[13.39139,55.95668],[13.3916,55.95669],[13.39176,55.95665],[13.39175,55.95661],[13.39202,55.95661],[13.39207,55.9567],[13.39232,55.95679],[13.39295,55.95671],[13.39372,55.95647],[13.39451,55.95621],[13.39513,55.95593],[13.39484,55.95548],[13.39444,55.95506],[13.39391,55.95495],[13.3935,55.95483],[13.39312,55.95462],[13.39282,55.95449],[13.39239,55.95441],[13.3922,55.9544],[13.39186,55.95434],[13.39126,55.95426],[13.39078,55.95421],[13.39059,55.95416],[13.39035,55.95401],[13.39008,55.95388],[13.38985,55.95368],[13.38985,55.95356],[13.38971,55.95335],[13.38947,55.95318],[13.38912,55.95305],[13.38875,55.95301],[13.38869,55.95283],[13.38882,55.9526],[13.3888,55.9525],[13.38879,55.95231],[13.38873,55.95205],[13.38884,55.95187],[13.38891,55.95176],[13.3889,55.95173],[13.38898,55.95157],[13.38886,55.95139],[13.3891,55.95117],[13.38931,55.95118],[13.38938,55.95127],[13.38918,55.95141],[13.38897,55.95143],[13.38942,55.95089]]}}