{"type":"Feature","properties":{},"geometry":{"type":"LineString","coordinates":[[13.46935,55.71871],[13.46942,55.71873],[13.47002,55.71889],[13.4706,55.71906],[13.47072,55.71932],[13.47073,55.71901],[13.47045,55.71888],[13.47024,55.71875],[13.47036,55.71845],[13.47045,55.71823],[13.47052,55.71788],[13.47014,55.71767],[13.4698,55.71749],[13.46976,55.71716],[13.46983,55.71682],[13.47017,55.71664],[13.4703,55.71653],[13.4706,55.7165],[13.47062,55.71643],[13.47085,55.71635],[13.47141,55.71622],[13.47208,55.71634],[13.47235,55.71628],[13.47253,55.71599],[13.47306,55.71579],[13.47331,55.71559],[13.4737,55.71522],[13.47389,55.71503],[13.47415,55.7147],[13.47446,55.71444],[13.47474,55.71425],[13.4749,55.71401],[13.47533,55.71382],[13.47608,55.71363],[13.47656,55.71345],[13.477,55.71311],[13.47734,55.71274],[13.47766,55.7124],[13.47788,55.7121],[13.47808,55.71174],[13.4783,55.71134],[13.47858,55.711],[13.47878,55.71068],[13.4788,55.71041],[13.47873,55.71012],[13.47865,55.70983],[13.47848,55.7097],[13.47834,55.70962],[13.4781,55.70967],[13.4779,55.70972],[13.47769,55.7097],[13.47739,55.70985],[13.47762,55.70978],[13.47803,55.7098],[13.47831,55.70995],[13.47866,55.71016],[13.4792,55.71041],[13.47971,55.71063],[13.48033,55.71083],[13.48082,55.711],[13.48147,55.71086],[13.48223,55.71063],[13.48275,55.71044],[13.48316,55.71017],[13.48299,55.71019],[13.48278,55.71033],[13.48307,55.71069],[13.48333,55.71093],[13.48372,55.71111],[13.48361,55.71132],[13.483,55.71151],[13.48295,55.71171],[13.48314,55.71195],[13.48326,55.7121],[13.4833,55.71223],[13.48266,55.71246],[13.48241,55.71276],[13.48223,55.71326],[13.48227,55.71375],[13.48238,55.71422],[13.48243,55.71468],[13.48275,55.71509],[13.4834,55.7154],[13.48391,55.71572],[13.4846,55.71601],[13.48505,55.7162],[13.48513,55.71633],[13.48518,55.71659],[13.48532,55.71682],[13.48514,55.71688],[13.48485,55.71714],[13.48464,55.71737],[13.48463,55.71776],[13.48452,55.71808],[13.48401,55.71822],[13.48334,55.71833],[13.48289,55.71841],[13.48223,55.71852],[13.48155,55.71864],[13.48115,55.71863],[13.48094,55.71834],[13.48048,55.71814],[13.47985,55.7179],[13.47949,55.71778],[13.47917,55.71765],[13.47888,55.71787],[13.47834,55.71803],[13.47778,55.71818],[13.47719,55.7183],[13.47707,55.7183],[13.47715,55.71831],[13.47785,55.71822],[13.47836,55.71809],[13.47893,55.71791],[13.47917,55.7176],[13.47918,55.71742],[13.479,55.71706],[13.47907,55.71674],[13.47941,55.71646],[13.47956,55.71624],[13.47961,55.71606],[13.47969,55.71554],[13.47973,55.71508],[13.47978,55.71464],[13.47984,55.7142],[13.47967,55.71382],[13.47913,55.71357],[13.47864,55.71336],[13.47822,55.71322],[13.47821,55.71298],[13.47811,55.71274],[13.47791,55.71269],[13.47811,55.71257],[13.47841,55.71228],[13.47876,55.71201],[13.47892,55.71182],[13.47919,55.71155],[13.47933,55.71143],[13.47933,55.71122],[13.47942,55.71123],[13.47923,55.71123],[13.47896,55.71115],[13.4784,55.71113],[13.47791,55.7112],[13.47729,55.71119],[13.47656,55.71126],[13.47584,55.7113],[13.47514,55.71131],[13.4746,55.71137],[13.47402,55.71146],[13.4734,55.71172],[13.4728,55.71201],[13.47248,55.71217],[13.47208,55.71232],[13.47143,55.7126],[13.47081,55.71287],[13.47027,55.71313],[13.46982,55.71335],[13.46935,55.71364],[13.46863,55.71376],[13.46784,55.7138],[13.46712,55.71383],[13.46673,55.71392],[13.4663,55.71412],[13.46566,55.71436],[13.46502,55.71451],[13.46444,55.71472],[13.46397,55.71489],[13.46342,55.71511],[13.46296,55.71532],[13.46273,55.71556],[13.46283,55.71563],[13.46262,55.71583],[13.46265,55.71607],[13.46268,55.71609],[13.46263,55.71591],[13.46253,55.7156],[13.46238,55.7152],[13.4624,55.7153],[13.46253,55.71572],[13.46264,55.71605],[13.46286,55.71634],[13.46341,55.71658],[13.46355,55.71669],[13.46413,55.71685],[13.4647,55.71704],[13.46509,55.71723],[13.46586,55.71722],[13.46633,55.71722],[13.46666,55.71752],[13.46678,55.71788],[13.46756,55.71782],[13.46824,55.71782],[13.46841,55.71807],[13.46851,55.71853],[13.46911,55.71872],[13.46918,55.71869],[13.4692,55.71871],[13.46916,55.71865],[13.46913,55.71858]]}}