{"type":"Feature","properties":{},"geometry":{"type":"LineString","coordinates":[[12.73535,56.90316],[12.73559,56.90282],[12.73612,56.9025],[12.73642,56.90207],[12.73675,56.90172],[12.73695,56.90131],[12.73762,56.9008],[12.73772,56.90038],[12.73778,56.90025],[12.73819,56.90042],[12.7386,56.90066],[12.73919,56.9011],[12.73935,56.90147],[12.7393,56.90167],[12.73941,56.90202],[12.73977,56.90235],[12.73966,56.90263],[12.73985,56.90303],[12.73979,56.90344],[12.74013,56.90382],[12.74073,56.90414],[12.74067,56.90446],[12.74074,56.90485],[12.74094,56.90528],[12.7409,56.90548],[12.74081,56.90582],[12.74068,56.90598],[12.74033,56.90607],[12.73993,56.90623],[12.73957,56.90633],[12.7395,56.90639],[12.73929,56.90611],[12.73918,56.90611],[12.73909,56.9059],[12.7393,56.90586],[12.73959,56.90595],[12.73974,56.90601],[12.73946,56.90637],[12.73925,56.90675],[12.73902,56.90681],[12.73865,56.90657],[12.73886,56.90684],[12.73948,56.90673],[12.7394,56.90671],[12.73933,56.90676],[12.73901,56.90693],[12.73899,56.90703],[12.7388,56.90715],[12.73859,56.90716],[12.73861,56.9072],[12.73827,56.90709],[12.73782,56.90714],[12.73745,56.90705],[12.73693,56.90712],[12.7363,56.90742],[12.73626,56.90783],[12.73558,56.9082],[12.73504,56.90873],[12.73452,56.90878],[12.73439,56.90884],[12.735,56.90909],[12.7352,56.90925],[12.73545,56.90937],[12.73601,56.90937],[12.73657,56.90929],[12.73657,56.90933],[12.73722,56.90953],[12.73791,56.90948],[12.73847,56.90932],[12.73963,56.90918],[12.7405,56.90942],[12.74166,56.90944],[12.74283,56.90993],[12.74359,56.91024],[12.74426,56.91062],[12.74506,56.91081],[12.74497,56.91046],[12.74526,56.91039],[12.74564,56.91023],[12.74595,56.91014],[12.74611,56.91007],[12.74597,56.91],[12.74591,56.91008],[12.74616,56.91014],[12.74599,56.91017],[12.74626,56.9102],[12.74617,56.91024],[12.74604,56.91014],[12.7458,56.91007],[12.74562,56.91005],[12.7457,56.91],[12.74628,56.91004],[12.74667,56.91012],[12.74666,56.9102],[12.74694,56.91022],[12.7475,56.91006],[12.74772,56.90975],[12.7479,56.90956],[12.74815,56.90953],[12.74854,56.90935],[12.74909,56.90926],[12.74931,56.90905],[12.74967,56.90891],[12.74991,56.90861],[12.74992,56.90872],[12.75061,56.90893],[12.75107,56.90959],[12.75181,56.90986],[12.75222,56.90992],[12.75283,56.90997],[12.75416,56.90965],[12.75554,56.90928],[12.75699,56.90912],[12.75825,56.90904],[12.75979,56.909],[12.76104,56.90849],[12.76221,56.90792],[12.76267,56.90713],[12.76256,56.90694],[12.76252,56.90658],[12.76249,56.90639],[12.76269,56.90617],[12.76292,56.9058],[12.76315,56.90529],[12.7632,56.90532],[12.76386,56.90515],[12.76437,56.90493],[12.76392,56.90447],[12.76311,56.90382],[12.76228,56.90327],[12.76153,56.9026],[12.76092,56.9022],[12.76021,56.90176],[12.75978,56.90191],[12.75926,56.90211],[12.7586,56.9022],[12.75807,56.90228],[12.75781,56.90209],[12.7574,56.90189],[12.75676,56.90199],[12.75629,56.902],[12.75598,56.9023],[12.75551,56.90259],[12.75498,56.9029],[12.75494,56.90293],[12.75493,56.90276],[12.75496,56.90226],[12.7553,56.90204],[12.75504,56.90175],[12.75462,56.90144],[12.75393,56.90118],[12.75352,56.90075],[12.75328,56.90062],[12.75273,56.90068],[12.75212,56.90062],[12.75161,56.90038],[12.75127,56.90016],[12.75082,56.89966],[12.75078,56.8992],[12.75078,56.89864],[12.75035,56.89857],[12.74961,56.89859],[12.74908,56.89853],[12.74872,56.89866],[12.74836,56.89816],[12.74788,56.89766],[12.74737,56.89721],[12.74673,56.89692],[12.74631,56.89677],[12.74645,56.89666],[12.74618,56.89596],[12.74616,56.89542],[12.74654,56.89509],[12.74705,56.89477],[12.74622,56.89421],[12.74668,56.89397],[12.74707,56.89397],[12.74747,56.89341],[12.74721,56.89316],[12.74622,56.89294],[12.7462,56.89257],[12.74635,56.89229],[12.74656,56.89199],[12.74651,56.8917],[12.7463,56.89149],[12.7464,56.89124],[12.74654,56.89093],[12.74668,56.89055],[12.74649,56.88999],[12.74609,56.8896],[12.74607,56.88928],[12.7461,56.88903],[12.74555,56.88865],[12.74497,56.88844],[12.74385,56.88865],[12.74264,56.88864],[12.74226,56.88875],[12.74211,56.8888],[12.74199,56.88878],[12.74197,56.88875]]}}