{"type":"Feature","properties":{},"geometry":{"type":"LineString","coordinates":[[13.70223,56.10394],[13.70202,56.10395],[13.70133,56.10404],[13.7007,56.10392],[13.70001,56.104],[13.69949,56.104],[13.69901,56.10396],[13.69865,56.10401],[13.69834,56.1041],[13.698,56.10419],[13.69774,56.10425],[13.69734,56.10433],[13.69688,56.10419],[13.69668,56.10424],[13.69663,56.1046],[13.69655,56.10499],[13.6963,56.10541],[13.69596,56.10574],[13.69552,56.10611],[13.69515,56.10648],[13.69472,56.10694],[13.69452,56.10738],[13.69418,56.10779],[13.69391,56.10795],[13.69344,56.10826],[13.69321,56.10852],[13.69276,56.10873],[13.69237,56.10874],[13.69185,56.10863],[13.69137,56.10848],[13.69074,56.10857],[13.6901,56.10864],[13.69004,56.10859],[13.68974,56.10838],[13.68928,56.10809],[13.68894,56.10791],[13.68858,56.10775],[13.68835,56.10751],[13.68802,56.10742],[13.68798,56.10731],[13.68777,56.10733],[13.68769,56.10722],[13.68758,56.10702],[13.68779,56.10682],[13.68774,56.10673],[13.68777,56.10668],[13.68788,56.10655],[13.6879,56.10635],[13.68793,56.1062],[13.68825,56.1061],[13.68834,56.10581],[13.68839,56.10552],[13.68842,56.10525],[13.68892,56.10524],[13.68971,56.10535],[13.6902,56.10532],[13.69049,56.10518],[13.69086,56.10509],[13.69117,56.10489],[13.69158,56.10477],[13.69208,56.10465],[13.69257,56.10445],[13.69311,56.10428],[13.6939,56.10397],[13.69461,56.10364],[13.69536,56.10335],[13.6961,56.10307],[13.69673,56.10273],[13.69716,56.10245],[13.69731,56.10227],[13.69735,56.10204],[13.69744,56.1018],[13.69771,56.10149],[13.6982,56.10126],[13.6981,56.10095],[13.69811,56.10061],[13.69825,56.10039],[13.69831,56.10009],[13.69816,56.09992],[13.69822,56.09982],[13.6985,56.09963],[13.69895,56.09942],[13.69913,56.0991],[13.69898,56.09889],[13.6986,56.0985],[13.69839,56.09807],[13.69813,56.09772],[13.69808,56.09754],[13.69759,56.09748],[13.69738,56.09716],[13.69718,56.09691],[13.69695,56.09657],[13.69675,56.09623],[13.69677,56.09597],[13.69663,56.09562],[13.69673,56.09556],[13.69664,56.09535],[13.69664,56.09503],[13.69655,56.09474],[13.69655,56.09447],[13.69676,56.09427],[13.69677,56.09399],[13.69685,56.0937],[13.69723,56.09359],[13.69754,56.09343],[13.69753,56.09312],[13.69757,56.09282],[13.69765,56.0927],[13.69803,56.09253],[13.69843,56.09231],[13.69869,56.09214],[13.69904,56.09206],[13.69939,56.09189],[13.69984,56.09172],[13.70034,56.09167],[13.70081,56.09157],[13.70114,56.09153],[13.70111,56.0914],[13.70089,56.09132],[13.70085,56.09127],[13.70084,56.09139],[13.70095,56.09152],[13.7015,56.09158],[13.70191,56.09164],[13.70241,56.09165],[13.70262,56.09178],[13.70316,56.09178],[13.70352,56.09178],[13.70407,56.09169],[13.7045,56.09165],[13.70471,56.09176],[13.70495,56.09173],[13.70512,56.0918],[13.70557,56.09173],[13.70612,56.09164],[13.70652,56.09167],[13.70693,56.09166],[13.70726,56.09153],[13.70753,56.09163],[13.70792,56.09187],[13.70816,56.09207],[13.70844,56.09216],[13.70874,56.09223],[13.70924,56.09233],[13.7094,56.09241],[13.70976,56.09256],[13.71001,56.09276],[13.71046,56.09295],[13.71062,56.09318],[13.71096,56.09353],[13.71138,56.09361],[13.71151,56.09367],[13.71148,56.09369],[13.71183,56.09362],[13.7118,56.09335],[13.71152,56.09336],[13.71125,56.09365],[13.71107,56.09381],[13.71127,56.09379],[13.71142,56.09391],[13.71159,56.09412],[13.71205,56.09434],[13.71245,56.09459],[13.71306,56.0947],[13.7137,56.09473],[13.7141,56.09497],[13.71479,56.0951],[13.71553,56.09484],[13.71611,56.09467],[13.71609,56.09439],[13.7163,56.09463],[13.71624,56.09472],[13.71632,56.0948],[13.71673,56.09497],[13.71713,56.09526],[13.71721,56.09555],[13.71693,56.09598],[13.71703,56.09641],[13.71682,56.09679],[13.71676,56.09724],[13.71652,56.09763],[13.71634,56.09809],[13.71578,56.09845],[13.71563,56.09877],[13.71553,56.09885],[13.71548,56.0989],[13.71552,56.09891],[13.71551,56.0989],[13.71548,56.09891],[13.71561,56.09897],[13.71577,56.0989],[13.7158,56.09879],[13.7158,56.09883],[13.7158,56.09883],[13.7158,56.09883],[13.7158,56.09883],[13.7158,56.09883],[13.7158,56.09883],[13.7158,56.09883],[13.7158,56.09883]]}}