{"type":"Feature","properties":{},"geometry":{"type":"LineString","coordinates":[[13.09781,55.53687],[13.09789,55.53685],[13.09817,55.53678],[13.09839,55.53694],[13.09855,55.53714],[13.09882,55.53721],[13.09906,55.53716],[13.09928,55.5373],[13.0995,55.53745],[13.09979,55.53752],[13.10015,55.53749],[13.10051,55.53759],[13.10092,55.5377],[13.10117,55.53787],[13.10136,55.53807],[13.10168,55.53819],[13.10207,55.53826],[13.10244,55.53831],[13.10267,55.53845],[13.10297,55.53849],[13.1033,55.5384],[13.10334,55.53836],[13.10326,55.5385],[13.10312,55.5386],[13.10327,55.5388],[13.10316,55.53895],[13.10281,55.53904],[13.10249,55.53913],[13.10227,55.53921],[13.10208,55.53938],[13.10178,55.53938],[13.10144,55.53938],[13.10127,55.53958],[13.10105,55.53974],[13.10078,55.53978],[13.10056,55.53967],[13.1002,55.53974],[13.10007,55.53966],[13.09995,55.53961],[13.09982,55.53955],[13.0997,55.53939],[13.09965,55.53937],[13.09938,55.53933],[13.0993,55.53912],[13.09947,55.539],[13.09932,55.5388],[13.09924,55.53862],[13.0993,55.53848],[13.09944,55.53829],[13.09938,55.5382],[13.09968,55.53821],[13.09999,55.53805],[13.10027,55.53789],[13.10055,55.53772],[13.10052,55.53751],[13.10041,55.53726],[13.10029,55.53705],[13.10021,55.53687],[13.10009,55.53668],[13.09972,55.53677],[13.09963,55.53681],[13.09974,55.53677],[13.09968,55.53679],[13.09956,55.53679],[13.09927,55.53686],[13.09901,55.53692],[13.09897,55.53707],[13.09872,55.53718],[13.09851,55.53701],[13.09838,55.5368],[13.09829,55.5366],[13.09829,55.53642],[13.09829,55.5363],[13.09831,55.53621],[13.09834,55.53614],[13.09836,55.53602],[13.09836,55.53589],[13.09835,55.53575],[13.09826,55.53568],[13.09805,55.53557],[13.09781,55.53552],[13.09739,55.53557],[13.09703,55.5357],[13.09678,55.53562],[13.09665,55.53543],[13.09649,55.53523],[13.09602,55.53515],[13.09554,55.53511],[13.09512,55.53514],[13.0947,55.53521],[13.09431,55.53529],[13.09393,55.53528],[13.09354,55.53535],[13.09317,55.53544],[13.09284,55.5355],[13.09263,55.53535],[13.0923,55.53528],[13.09205,55.53515],[13.09189,55.5351],[13.09183,55.535],[13.09154,55.5349],[13.09126,55.53491],[13.09106,55.53493],[13.09108,55.53484],[13.09101,55.53476],[13.09077,55.53469],[13.09063,55.53456],[13.09072,55.53446],[13.09078,55.5343],[13.0909,55.5342],[13.0912,55.53411],[13.0916,55.53415],[13.092,55.53412],[13.09238,55.53407],[13.09274,55.53404],[13.09293,55.53399],[13.09301,55.53398],[13.09305,55.53405],[13.09304,55.5342],[13.09267,55.53429],[13.09232,55.53437],[13.09206,55.5345],[13.09191,55.53466],[13.09175,55.53488],[13.09159,55.53509],[13.0914,55.53531],[13.09139,55.53551],[13.09156,55.53573],[13.09161,55.53596],[13.09175,55.5362],[13.09188,55.53642],[13.0919,55.53662],[13.09175,55.53679],[13.09151,55.53695],[13.09133,55.53706],[13.09141,55.53719],[13.09187,55.53721],[13.09225,55.53725],[13.09252,55.53741],[13.09277,55.53759],[13.09302,55.53769],[13.09332,55.53762],[13.09344,55.53768],[13.09359,55.53783],[13.09381,55.53784],[13.09392,55.53801],[13.09386,55.53815],[13.0935,55.53826],[13.09335,55.53846],[13.09348,55.53865],[13.09363,55.53877],[13.09382,55.53897],[13.094,55.53917],[13.09414,55.53938],[13.09416,55.53952],[13.09381,55.53962],[13.0939,55.53968],[13.09421,55.53971],[13.09449,55.53964],[13.09485,55.53957],[13.09521,55.53949],[13.09559,55.53954],[13.09601,55.53958],[13.0963,55.53951],[13.09647,55.53965],[13.0966,55.53967],[13.09645,55.53955],[13.09668,55.53945],[13.09706,55.53949],[13.09739,55.53936],[13.09736,55.53919],[13.09718,55.539],[13.09749,55.5389],[13.09779,55.53878],[13.09813,55.53865],[13.09842,55.53853],[13.09865,55.5384],[13.09857,55.53827],[13.09855,55.53819],[13.09882,55.53809],[13.09873,55.53801],[13.09844,55.53801],[13.09823,55.53785],[13.09782,55.53788],[13.09752,55.5379],[13.09743,55.53775],[13.09731,55.5377],[13.09717,55.53756],[13.09699,55.5374],[13.0967,55.53734],[13.0966,55.53716],[13.09689,55.53705],[13.09719,55.5369],[13.09733,55.53673],[13.09731,55.5367],[13.09729,55.5367],[13.09729,55.5367],[13.09728,55.53669],[13.09727,55.53669],[13.09727,55.53669]]}}