{"type":"Feature","properties":{},"geometry":{"type":"LineString","coordinates":[[12.00072,57.87342],[12.00075,57.87343],[12.00083,57.87341],[12.0009,57.87337],[12.001,57.87334],[12.00114,57.8733],[12.00151,57.87317],[12.00165,57.87311],[12.00181,57.87305],[12.00196,57.873],[12.00209,57.87296],[12.00223,57.87293],[12.00238,57.87292],[12.00256,57.87294],[12.00271,57.87296],[12.00289,57.87298],[12.0031,57.873],[12.00337,57.87303],[12.00359,57.87304],[12.00379,57.87305],[12.00396,57.87305],[12.00414,57.87304],[12.00434,57.87303],[12.00454,57.87303],[12.00476,57.87302],[12.00495,57.87301],[12.00515,57.87301],[12.00534,57.87299],[12.00553,57.87296],[12.00576,57.87295],[12.00598,57.87295],[12.00619,57.87296],[12.0064,57.87296],[12.00659,57.87296],[12.00683,57.87294],[12.00701,57.87296],[12.0071,57.87304],[12.0071,57.87313],[12.00709,57.87322],[12.00707,57.87332],[12.00702,57.87342],[12.00695,57.87352],[12.0069,57.87363],[12.00683,57.87374],[12.00676,57.87385],[12.0067,57.87396],[12.00666,57.87405],[12.00668,57.87416],[12.00678,57.87426],[12.00694,57.87435],[12.00716,57.87441],[12.00741,57.87445],[12.00763,57.87447],[12.00786,57.87449],[12.00806,57.87453],[12.00826,57.87457],[12.00847,57.87461],[12.00863,57.87467],[12.00874,57.87474],[12.00885,57.8748],[12.00894,57.87489],[12.00903,57.87499],[12.00911,57.8751],[12.00919,57.87523],[12.00926,57.87536],[12.00931,57.87549],[12.00936,57.87562],[12.00945,57.87574],[12.00951,57.87584],[12.00956,57.87593],[12.00961,57.87603],[12.00965,57.87613],[12.00964,57.87622],[12.00964,57.87631],[12.00966,57.87641],[12.00963,57.87651],[12.00957,57.87661],[12.0095,57.87671],[12.00941,57.87681],[12.00935,57.87692],[12.00934,57.87704],[12.00935,57.87716],[12.00939,57.87729],[12.00942,57.87741],[12.00944,57.87754],[12.00944,57.87765],[12.00945,57.87777],[12.00944,57.87788],[12.00942,57.87798],[12.00938,57.87808],[12.0093,57.87817],[12.00919,57.87825],[12.00906,57.8783],[12.0089,57.87831],[12.00873,57.87831],[12.00852,57.87832],[12.00828,57.87834],[12.00805,57.87834],[12.00784,57.87832],[12.00762,57.87829],[12.00741,57.87825],[12.0072,57.87821],[12.00701,57.87816],[12.00682,57.8781],[12.00661,57.87807],[12.0064,57.87806],[12.00621,57.87805],[12.00603,57.87805],[12.00585,57.87804],[12.00568,57.87801],[12.00551,57.87798],[12.00532,57.87794],[12.00515,57.8779],[12.00496,57.87786],[12.00476,57.87783],[12.00456,57.87784],[12.00437,57.87788],[12.00415,57.87795],[12.00395,57.87802],[12.0038,57.87808],[12.00366,57.87815],[12.0035,57.87821],[12.00331,57.87827],[12.00311,57.87833],[12.00289,57.87838],[12.00268,57.87843],[12.00248,57.87849],[12.00226,57.87855],[12.00206,57.87858],[12.00186,57.87859],[12.00167,57.87859],[12.00146,57.8786],[12.00126,57.87861],[12.00107,57.87859],[12.00085,57.87856],[12.00071,57.87853],[12.00055,57.87848],[12.00039,57.87845],[12.00022,57.87841],[12.00006,57.87835],[11.9999,57.87829],[11.99974,57.87823],[11.99958,57.87818],[11.99939,57.87813],[11.9992,57.87807],[11.99904,57.87803],[11.99889,57.87799],[11.99872,57.87795],[11.99858,57.87792],[11.99846,57.87787],[11.99836,57.8778],[11.9982,57.87771],[11.99807,57.87762],[11.99792,57.87752],[11.99778,57.87742],[11.99767,57.87731],[11.99763,57.8772],[11.99763,57.8771],[11.99766,57.87701],[11.99772,57.87691],[11.99782,57.87685],[11.99796,57.8768],[11.99809,57.87673],[11.99821,57.87665],[11.99831,57.87655],[11.99835,57.87644],[11.99833,57.87633],[11.99828,57.87618],[11.99826,57.87606],[11.99832,57.87595],[11.99843,57.87585],[11.99854,57.87577],[11.99866,57.87569],[11.99871,57.87558],[11.99869,57.87546],[11.99865,57.87536],[11.99862,57.87525],[11.99861,57.87514],[11.99853,57.87501],[11.99835,57.87491],[11.99828,57.87481],[11.99832,57.87471],[11.99838,57.87459],[11.99847,57.87447],[11.99859,57.87433],[11.99867,57.8742],[11.99865,57.87407],[11.99866,57.87396],[11.99876,57.87386],[11.99895,57.8738],[11.99916,57.87375],[11.99941,57.87372],[11.99965,57.8737],[11.99981,57.87368],[11.9998,57.87367],[11.99979,57.87366],[11.99978,57.87365],[11.99975,57.87363],[11.99971,57.87362],[11.99963,57.87364]]}}