{"type":"Feature","properties":{},"geometry":{"type":"LineString","coordinates":[[13.3189,56.28993],[13.31879,56.29003],[13.31857,56.29036],[13.3183,56.29053],[13.31789,56.29071],[13.31745,56.29075],[13.31708,56.29075],[13.31688,56.29073],[13.31694,56.29067],[13.31722,56.29081],[13.31764,56.29102],[13.31803,56.29121],[13.31805,56.29153],[13.31801,56.29195],[13.31803,56.2924],[13.31858,56.29269],[13.31924,56.29272],[13.31948,56.2928],[13.31994,56.29296],[13.32043,56.29314],[13.3208,56.29327],[13.32085,56.29349],[13.32111,56.29376],[13.32092,56.29386],[13.32079,56.29399],[13.32097,56.29407],[13.32126,56.29409],[13.32151,56.29388],[13.32181,56.29376],[13.32232,56.29375],[13.3226,56.29376],[13.32313,56.29381],[13.32376,56.29369],[13.32439,56.29369],[13.32481,56.29373],[13.32505,56.29378],[13.32559,56.29377],[13.32608,56.29376],[13.32672,56.29369],[13.32721,56.2937],[13.32743,56.29365],[13.32759,56.29358],[13.32793,56.2934],[13.32835,56.29317],[13.32867,56.29292],[13.32862,56.29289],[13.32827,56.29279],[13.32783,56.29261],[13.32759,56.29257],[13.32726,56.29241],[13.32672,56.29235],[13.32633,56.29219],[13.32594,56.29215],[13.32542,56.29217],[13.32492,56.29212],[13.32456,56.29208],[13.32394,56.29201],[13.32364,56.29192],[13.32331,56.29192],[13.32305,56.292],[13.32286,56.29197],[13.32249,56.2919],[13.32233,56.29177],[13.32206,56.29164],[13.32192,56.2915],[13.32168,56.29128],[13.3215,56.29118],[13.32143,56.29126],[13.32146,56.29136],[13.32146,56.29162],[13.32155,56.29182],[13.32151,56.29195],[13.32148,56.29215],[13.32141,56.29239],[13.32128,56.29254],[13.32115,56.2927],[13.32088,56.29285],[13.32076,56.29315],[13.32048,56.29337],[13.32031,56.29359],[13.32027,56.2938],[13.32023,56.294],[13.32013,56.29415],[13.32007,56.29429],[13.31991,56.29444],[13.31985,56.29459],[13.31983,56.29473],[13.31987,56.29493],[13.31976,56.29507],[13.31954,56.29531],[13.31933,56.29556],[13.31914,56.29579],[13.31906,56.29606],[13.31889,56.29615],[13.31874,56.2964],[13.31856,56.29661],[13.31839,56.29672],[13.31829,56.29695],[13.3182,56.29718],[13.31808,56.29736],[13.31795,56.29755],[13.31781,56.29772],[13.31775,56.29788],[13.3176,56.29806],[13.31749,56.29822],[13.31735,56.29841],[13.31707,56.29853],[13.31691,56.2987],[13.31681,56.29888],[13.3168,56.29905],[13.31677,56.29916],[13.31667,56.29909],[13.31636,56.29905],[13.31596,56.29912],[13.3156,56.2991],[13.31522,56.29907],[13.31505,56.29906],[13.3148,56.29906],[13.31452,56.29908],[13.31421,56.29914],[13.31398,56.29914],[13.31374,56.29911],[13.31341,56.29923],[13.31347,56.29921],[13.31368,56.29905],[13.31353,56.29874],[13.31351,56.29858],[13.3133,56.29833],[13.3132,56.29808],[13.31303,56.29783],[13.31288,56.29757],[13.31286,56.29751],[13.31267,56.29731],[13.3124,56.29713],[13.31221,56.29704],[13.31202,56.29689],[13.31175,56.29681],[13.31155,56.29672],[13.31144,56.29661],[13.31124,56.29651],[13.31089,56.29637],[13.31065,56.29627],[13.31033,56.2962],[13.30992,56.29612],[13.30965,56.29606],[13.30963,56.29604],[13.30946,56.2961],[13.3096,56.29605],[13.30988,56.29595],[13.31006,56.29589],[13.3102,56.29565],[13.3103,56.29544],[13.31053,56.29526],[13.31056,56.29508],[13.31058,56.2949],[13.31074,56.29498],[13.31111,56.29498],[13.31133,56.29491],[13.31167,56.29497],[13.31208,56.29502],[13.31235,56.29497],[13.31274,56.29496],[13.31299,56.29499],[13.3134,56.29497],[13.31382,56.29491],[13.31412,56.29494],[13.31442,56.29493],[13.31461,56.29483],[13.31459,56.29453],[13.31469,56.29418],[13.31474,56.29385],[13.31488,56.29356],[13.31494,56.29333],[13.31478,56.29307],[13.3144,56.29301],[13.31438,56.29288],[13.31421,56.29262],[13.31351,56.29243],[13.31281,56.29235],[13.31222,56.29262],[13.31181,56.29294],[13.31137,56.29301],[13.31133,56.293],[13.31127,56.29271],[13.31122,56.2925],[13.31119,56.29225],[13.31104,56.29203],[13.31072,56.29189],[13.3104,56.2918],[13.31085,56.29177],[13.3111,56.29158],[13.31147,56.2914],[13.31186,56.29132],[13.31208,56.2911],[13.31216,56.2908],[13.312,56.29037],[13.31213,56.28996],[13.31287,56.28996],[13.31372,56.29006],[13.31471,56.28992]]}}