{"type":"Feature","properties":{},"geometry":{"type":"LineString","coordinates":[[12.76507,56.90441],[12.76502,56.90409],[12.76511,56.90353],[12.76595,56.90364],[12.76645,56.90407],[12.76727,56.90445],[12.76812,56.90451],[12.76873,56.9046],[12.7693,56.90466],[12.76985,56.90454],[12.77026,56.90449],[12.77057,56.90441],[12.77082,56.90426],[12.7712,56.90395],[12.77162,56.90355],[12.77204,56.90312],[12.77202,56.90265],[12.77245,56.90242],[12.77296,56.90238],[12.77309,56.90229],[12.77288,56.90181],[12.77261,56.90155],[12.77246,56.90111],[12.77255,56.90073],[12.77249,56.90035],[12.77228,56.90005],[12.77167,56.89986],[12.77122,56.8996],[12.77065,56.89927],[12.77007,56.89904],[12.76962,56.89879],[12.76921,56.89855],[12.76876,56.89825],[12.7686,56.89807],[12.7684,56.89774],[12.76814,56.8975],[12.7682,56.89718],[12.7682,56.89685],[12.76808,56.89664],[12.76788,56.8965],[12.76789,56.89621],[12.76778,56.89588],[12.7677,56.89556],[12.76774,56.89517],[12.76789,56.89501],[12.76792,56.89467],[12.76812,56.89445],[12.7683,56.89408],[12.76843,56.89385],[12.76843,56.89371],[12.76853,56.89345],[12.76859,56.89343],[12.76881,56.89334],[12.76902,56.8931],[12.76933,56.89292],[12.76983,56.89265],[12.77032,56.89248],[12.77048,56.89258],[12.77071,56.8928],[12.77115,56.89261],[12.77156,56.89269],[12.77201,56.89273],[12.77234,56.89278],[12.77279,56.89277],[12.77342,56.89274],[12.77397,56.89283],[12.77463,56.89284],[12.77516,56.89225],[12.77584,56.89172],[12.77628,56.89155],[12.77693,56.89133],[12.77725,56.89107],[12.77724,56.89136],[12.77755,56.89185],[12.77747,56.89224],[12.77731,56.89257],[12.77714,56.89282],[12.77695,56.89306],[12.77708,56.89324],[12.77764,56.89326],[12.77803,56.89344],[12.77878,56.89347],[12.77882,56.89408],[12.77889,56.89477],[12.7789,56.89539],[12.77827,56.89588],[12.77746,56.89645],[12.77637,56.89675],[12.77525,56.89706],[12.77505,56.89715],[12.77489,56.89783],[12.7751,56.89846],[12.77535,56.89905],[12.77556,56.89952],[12.77587,56.90006],[12.77565,56.9003],[12.77548,56.90061],[12.77526,56.90089],[12.77488,56.90089],[12.77458,56.90113],[12.77419,56.90105],[12.77372,56.9009],[12.77318,56.90089],[12.77267,56.90113],[12.77231,56.90134],[12.77185,56.90146],[12.77104,56.90177],[12.77051,56.90196],[12.7701,56.90203],[12.76963,56.90218],[12.76945,56.90247],[12.76931,56.90267],[12.76902,56.90284],[12.76906,56.90287],[12.76908,56.90286],[12.76894,56.90282],[12.76851,56.90284],[12.76827,56.90279],[12.76828,56.90271],[12.76815,56.90247],[12.76801,56.90235],[12.76765,56.90231],[12.76731,56.90251],[12.76688,56.90254],[12.76615,56.9025],[12.76515,56.90231],[12.76416,56.90244],[12.76322,56.90209],[12.76224,56.90168],[12.762,56.90117],[12.7621,56.90088],[12.76148,56.90138],[12.76121,56.90157],[12.76066,56.90156],[12.75994,56.90144],[12.75908,56.90125],[12.75794,56.90093],[12.75754,56.90034],[12.75702,56.89969],[12.7564,56.89944],[12.7556,56.89906],[12.75487,56.89865],[12.75413,56.8983],[12.753,56.89781],[12.75212,56.89748],[12.75126,56.89713],[12.75047,56.89684],[12.75058,56.89639],[12.75076,56.89625],[12.75006,56.89618],[12.74937,56.89619],[12.74848,56.89566],[12.74788,56.89528],[12.7471,56.89476],[12.74639,56.8943],[12.74606,56.89393],[12.74724,56.894],[12.74787,56.89416],[12.74778,56.89396],[12.74807,56.89375],[12.7483,56.89347],[12.74833,56.8932],[12.74831,56.89285],[12.74826,56.89259],[12.74848,56.89237],[12.74853,56.89221],[12.74867,56.89194],[12.74889,56.89167],[12.74903,56.89144],[12.74899,56.8912],[12.7489,56.89101],[12.74873,56.89074],[12.74843,56.89064],[12.74823,56.89047],[12.74783,56.89027],[12.74792,56.89006],[12.74825,56.88967],[12.74838,56.88942],[12.74852,56.88928],[12.74874,56.88918],[12.74893,56.88917],[12.74905,56.88918],[12.74917,56.88927],[12.74943,56.88913],[12.7491,56.88898],[12.74859,56.88894],[12.74779,56.88886],[12.74676,56.88884],[12.7459,56.88867],[12.74533,56.88844],[12.74486,56.88855],[12.74395,56.88868],[12.7428,56.88871],[12.74265,56.8885],[12.74229,56.88872],[12.74215,56.8888],[12.74205,56.88882],[12.74199,56.88878],[12.74198,56.88879],[12.74194,56.88875]]}}