{"type":"Feature","properties":{},"geometry":{"type":"LineString","coordinates":[[12.98561,55.60199],[12.98535,55.6019],[12.98493,55.60185],[12.98481,55.60206],[12.98495,55.60213],[12.98469,55.60234],[12.98461,55.60258],[12.98463,55.60283],[12.98443,55.60301],[12.98405,55.60317],[12.98363,55.60324],[12.98324,55.60331],[12.98278,55.60343],[12.98238,55.60355],[12.98213,55.60378],[12.98239,55.60396],[12.98279,55.60392],[12.9832,55.60383],[12.98359,55.60391],[12.98389,55.60384],[12.98391,55.60381],[12.98423,55.60383],[12.98471,55.60377],[12.98516,55.60369],[12.9856,55.60361],[12.98605,55.60353],[12.98643,55.60344],[12.98666,55.60346],[12.98697,55.60351],[12.98741,55.60359],[12.98785,55.60366],[12.98813,55.60362],[12.98812,55.6034],[12.98775,55.60328],[12.98735,55.60315],[12.98694,55.603],[12.98663,55.60286],[12.98675,55.60262],[12.98706,55.60251],[12.98743,55.60239],[12.9878,55.60239],[12.98812,55.60235],[12.98809,55.60227],[12.98789,55.60226],[12.9878,55.60237],[12.98785,55.60241],[12.98797,55.60247],[12.98816,55.60264],[12.98858,55.60273],[12.98904,55.60282],[12.98927,55.6029],[12.98903,55.60301],[12.98891,55.603],[12.98886,55.603],[12.9889,55.60299],[12.98896,55.603],[12.9891,55.60305],[12.98919,55.60313],[12.98917,55.60317],[12.98917,55.60323],[12.98945,55.60327],[12.98965,55.60311],[12.98987,55.60305],[12.99,55.60291],[12.99016,55.60277],[12.99046,55.60273],[12.99061,55.60271],[12.99085,55.60262],[12.99104,55.60264],[12.99124,55.60284],[12.99151,55.60304],[12.99164,55.60323],[12.99182,55.60345],[12.99196,55.60363],[12.99201,55.60383],[12.99205,55.60399],[12.99224,55.60414],[12.99245,55.60425],[12.99258,55.60414],[12.99272,55.60398],[12.99294,55.60376],[12.99307,55.60353],[12.99324,55.60329],[12.99317,55.60308],[12.99328,55.60299],[12.99341,55.60288],[12.9935,55.60279],[12.99357,55.60274],[12.99372,55.60272],[12.99394,55.60285],[12.99434,55.60286],[12.99454,55.60267],[12.99466,55.60257],[12.99475,55.60244],[12.99483,55.60229],[12.99487,55.60213],[12.99491,55.60201],[12.99497,55.60185],[12.99501,55.60173],[12.99506,55.60161],[12.9949,55.60149],[12.99453,55.60154],[12.99418,55.60159],[12.99389,55.60161],[12.99367,55.60158],[12.99354,55.6015],[12.99337,55.60148],[12.99317,55.60149],[12.9929,55.60145],[12.99267,55.60135],[12.99267,55.60119],[12.99279,55.60102],[12.99287,55.60077],[12.99279,55.60059],[12.99277,55.60036],[12.99245,55.60016],[12.99205,55.60009],[12.99175,55.60014],[12.99172,55.60014],[12.99155,55.60007],[12.99116,55.59999],[12.9911,55.59981],[12.99106,55.59954],[12.99098,55.59951],[12.99065,55.59948],[12.99029,55.59939],[12.99011,55.59935],[12.99003,55.59924],[12.99019,55.59917],[12.99035,55.59902],[12.9906,55.59883],[12.99079,55.59869],[12.99091,55.5986],[12.991,55.59842],[12.99093,55.59828],[12.99083,55.59839],[12.99079,55.59855],[12.99084,55.59866],[12.9907,55.59874],[12.99071,55.59875],[12.99053,55.59876],[12.99033,55.59895],[12.99007,55.59917],[12.99005,55.59936],[12.99046,55.59942],[12.99084,55.59947],[12.991,55.59952],[12.99109,55.59955],[12.99106,55.59972],[12.9909,55.59989],[12.9908,55.60007],[12.99072,55.60023],[12.99057,55.60035],[12.99036,55.60039],[12.99016,55.60047],[12.98994,55.60054],[12.98971,55.60057],[12.98945,55.60061],[12.98925,55.60068],[12.98911,55.60081],[12.98908,55.60095],[12.98903,55.60106],[12.98916,55.60117],[12.98922,55.60118],[12.98913,55.60108],[12.98916,55.60098],[12.98917,55.60086],[12.98908,55.60071],[12.98892,55.60062],[12.98876,55.60057],[12.98879,55.60052],[12.98878,55.60042],[12.9888,55.60035],[12.98871,55.60026],[12.98858,55.60017],[12.9884,55.60009],[12.98818,55.60008],[12.98802,55.60006],[12.98783,55.60004],[12.98754,55.60005],[12.98726,55.60007],[12.98701,55.60012],[12.98684,55.60019],[12.98695,55.60026],[12.98707,55.60034],[12.98706,55.60037],[12.98705,55.60041],[12.98708,55.60044],[12.98708,55.60045],[12.98718,55.6004],[12.9872,55.60037],[12.98717,55.60036],[12.98707,55.6003],[12.98694,55.60031],[12.98696,55.60035],[12.98696,55.60038],[12.98689,55.60041],[12.98685,55.60043],[12.98683,55.60043],[12.98683,55.60042]]}}