{"type":"Feature","properties":{},"geometry":{"type":"LineString","coordinates":[[12.73434,56.88626],[12.73435,56.88626],[12.73434,56.88626],[12.73445,56.88628],[12.73491,56.88639],[12.73527,56.88651],[12.73556,56.88661],[12.73585,56.88671],[12.73613,56.88682],[12.73641,56.88693],[12.73669,56.88702],[12.73685,56.88712],[12.73694,56.88724],[12.73702,56.88733],[12.73701,56.88745],[12.73698,56.88758],[12.73702,56.88768],[12.73705,56.88769],[12.73717,56.8878],[12.7373,56.88789],[12.73746,56.88799],[12.73761,56.88811],[12.73779,56.88824],[12.73797,56.88841],[12.73816,56.88855],[12.73836,56.8887],[12.73854,56.88883],[12.73868,56.88894],[12.73882,56.88903],[12.73897,56.88913],[12.73911,56.88923],[12.73925,56.88935],[12.73943,56.88947],[12.73965,56.88964],[12.73984,56.8898],[12.74003,56.88996],[12.74022,56.89012],[12.74038,56.89024],[12.74054,56.89038],[12.74074,56.89052],[12.7409,56.89062],[12.74092,56.89062],[12.74088,56.89056],[12.74076,56.89046],[12.74059,56.89032],[12.74036,56.89015],[12.74009,56.88994],[12.73983,56.88975],[12.73958,56.88957],[12.73935,56.8894],[12.73914,56.88923],[12.73925,56.88911],[12.73951,56.88895],[12.7398,56.88879],[12.74007,56.88864],[12.74033,56.88851],[12.7406,56.88836],[12.74081,56.88822],[12.74093,56.88809],[12.74105,56.88788],[12.74133,56.88773],[12.74151,56.88766],[12.74149,56.88766],[12.74152,56.88761],[12.74153,56.88739],[12.74158,56.88718],[12.74158,56.88698],[12.74162,56.8868],[12.74173,56.88661],[12.74184,56.88644],[12.74184,56.88625],[12.74162,56.88607],[12.74129,56.88594],[12.74097,56.88588],[12.74061,56.88583],[12.74046,56.88573],[12.7407,56.88555],[12.7409,56.8854],[12.74128,56.88532],[12.74165,56.88524],[12.7419,56.8852],[12.74216,56.88515],[12.74249,56.88507],[12.74284,56.88499],[12.7432,56.88491],[12.74351,56.88485],[12.7438,56.88478],[12.7441,56.88473],[12.7444,56.88465],[12.74468,56.88458],[12.74494,56.88452],[12.74518,56.88445],[12.74538,56.8844],[12.74562,56.88436],[12.74587,56.88431],[12.74614,56.88425],[12.74642,56.88418],[12.74667,56.88411],[12.74695,56.88406],[12.74728,56.88401],[12.7476,56.88395],[12.74791,56.88388],[12.74823,56.88381],[12.74858,56.88376],[12.74891,56.8837],[12.74918,56.88361],[12.74947,56.88357],[12.74973,56.88348],[12.75003,56.8834],[12.75034,56.88332],[12.75061,56.88325],[12.75093,56.8832],[12.7512,56.88316],[12.75141,56.88312],[12.75164,56.88308],[12.75199,56.88302],[12.75232,56.88296],[12.75263,56.88292],[12.75296,56.88292],[12.75326,56.88291],[12.75355,56.88288],[12.75375,56.88288],[12.754,56.88292],[12.75426,56.88303],[12.75447,56.88315],[12.75458,56.88333],[12.75472,56.88352],[12.75485,56.88367],[12.75493,56.88378],[12.75499,56.88388],[12.75504,56.88399],[12.75511,56.8841],[12.7552,56.88419],[12.75527,56.88429],[12.75531,56.88442],[12.75528,56.88457],[12.75526,56.88475],[12.75526,56.88495],[12.75533,56.88515],[12.75532,56.88533],[12.75526,56.8855],[12.75522,56.88567],[12.75532,56.88585],[12.75552,56.88603],[12.75573,56.88623],[12.75582,56.88639],[12.75583,56.88651],[12.75584,56.8866],[12.75592,56.88671],[12.75601,56.8868],[12.75607,56.88689],[12.75613,56.887],[12.75622,56.8871],[12.75639,56.8872],[12.75652,56.8873],[12.75663,56.88741],[12.75672,56.88752],[12.75678,56.88763],[12.75682,56.88773],[12.75682,56.88782],[12.75692,56.88792],[12.75703,56.88804],[12.75714,56.88815],[12.75727,56.88827],[12.75739,56.88838],[12.75761,56.88848],[12.75779,56.88857],[12.758,56.88866],[12.75829,56.88874],[12.75859,56.88886],[12.75888,56.88895],[12.75923,56.88895],[12.75956,56.889],[12.75984,56.88908],[12.75984,56.8891],[12.7599,56.8891],[12.75991,56.88913],[12.75993,56.88908],[12.75995,56.88906],[12.76001,56.88909],[12.76012,56.88921],[12.76032,56.88937],[12.76051,56.88953],[12.76071,56.88971],[12.76085,56.8898],[12.76092,56.88983],[12.76088,56.88982],[12.76085,56.88982],[12.76082,56.88983],[12.76081,56.88982],[12.76087,56.88985],[12.7609,56.88987],[12.76092,56.88987],[12.76095,56.88987],[12.76096,56.88987],[12.76094,56.88988],[12.76094,56.88988],[12.76092,56.88988],[12.7609,56.88988],[12.76087,56.8899]]}}