{"type":"Feature","properties":{},"geometry":{"type":"LineString","coordinates":[[13.35555,55.68746],[13.35617,55.68744],[13.35704,55.68727],[13.35768,55.68722],[13.35841,55.68737],[13.35927,55.68746],[13.36001,55.68746],[13.36072,55.68738],[13.36152,55.68744],[13.36196,55.68747],[13.36196,55.68724],[13.36202,55.6869],[13.36227,55.6865],[13.36209,55.68628],[13.36201,55.68653],[13.3617,55.68651],[13.36151,55.68643],[13.36128,55.68629],[13.36061,55.68645],[13.36036,55.68607],[13.35969,55.68582],[13.35875,55.68602],[13.35811,55.68621],[13.3576,55.68639],[13.35781,55.68589],[13.35738,55.68531],[13.35728,55.68461],[13.35722,55.68404],[13.35677,55.68364],[13.35634,55.68354],[13.35582,55.68324],[13.35524,55.68326],[13.35472,55.68334],[13.35433,55.68335],[13.3543,55.68303],[13.35449,55.68301],[13.35458,55.68295],[13.35439,55.68296],[13.35503,55.68294],[13.35573,55.68286],[13.35608,55.68296],[13.35637,55.68301],[13.35668,55.68314],[13.35669,55.68318],[13.35639,55.68329],[13.35592,55.68336],[13.35567,55.68346],[13.35572,55.68339],[13.35658,55.68346],[13.35711,55.68374],[13.35831,55.68372],[13.35937,55.68348],[13.36012,55.68346],[13.36101,55.68351],[13.36184,55.68347],[13.36238,55.68344],[13.36321,55.68337],[13.36373,55.68334],[13.36467,55.68342],[13.3653,55.68367],[13.36552,55.68387],[13.36599,55.68435],[13.36665,55.68477],[13.36653,55.68487],[13.36709,55.68494],[13.36767,55.6854],[13.36833,55.68574],[13.36788,55.68622],[13.36781,55.68644],[13.36787,55.68688],[13.36778,55.68721],[13.36783,55.68764],[13.36749,55.68784],[13.36733,55.68829],[13.36735,55.68884],[13.36734,55.6894],[13.36739,55.68994],[13.36741,55.69043],[13.36756,55.69104],[13.36834,55.69139],[13.36891,55.69171],[13.3691,55.69193],[13.36947,55.69207],[13.36981,55.69196],[13.36991,55.69152],[13.37013,55.69131],[13.37106,55.69085],[13.3717,55.69039],[13.37274,55.69007],[13.3729,55.68977],[13.37307,55.68953],[13.37324,55.68912],[13.37344,55.6887],[13.37406,55.68829],[13.37473,55.68789],[13.3751,55.68766],[13.37562,55.68744],[13.37599,55.68715],[13.37617,55.68696],[13.37645,55.68694],[13.37699,55.68666],[13.37727,55.68659],[13.37795,55.68633],[13.37836,55.68626],[13.37919,55.68609],[13.37992,55.68601],[13.38069,55.68598],[13.38142,55.68572],[13.38185,55.68549],[13.38234,55.68537],[13.38264,55.68525],[13.38273,55.68501],[13.38254,55.6849],[13.38303,55.68492],[13.38325,55.68485],[13.38298,55.68458],[13.38278,55.68425],[13.38268,55.68387],[13.38279,55.68349],[13.38277,55.68314],[13.38281,55.68285],[13.38271,55.68244],[13.38271,55.68213],[13.38277,55.68176],[13.3827,55.68145],[13.38257,55.68099],[13.38207,55.68085],[13.38136,55.68082],[13.38043,55.68076],[13.37976,55.68077],[13.37878,55.68066],[13.37801,55.68064],[13.37723,55.68067],[13.37647,55.68066],[13.37589,55.68053],[13.37592,55.68043],[13.37603,55.68045],[13.37601,55.68052],[13.37562,55.68057],[13.37535,55.68072],[13.37536,55.68087],[13.37544,55.68115],[13.3755,55.68163],[13.3756,55.6821],[13.37589,55.68237],[13.3762,55.68265],[13.37667,55.683],[13.37701,55.6832],[13.37713,55.68365],[13.37767,55.68383],[13.37818,55.68418],[13.37853,55.68434],[13.37877,55.68426],[13.37884,55.68421],[13.37833,55.68381],[13.37809,55.6838],[13.37882,55.68389],[13.37858,55.68379],[13.37782,55.6838],[13.37695,55.68371],[13.3761,55.6836],[13.37551,55.68351],[13.37483,55.68342],[13.37412,55.68335],[13.37335,55.68328],[13.37273,55.68324],[13.37221,55.68317],[13.37144,55.68318],[13.37121,55.68323],[13.37095,55.68315],[13.37043,55.6828],[13.36976,55.68271],[13.3687,55.68275],[13.3677,55.68279],[13.36679,55.68294],[13.3659,55.68302],[13.3651,55.68309],[13.36416,55.68321],[13.36371,55.68318],[13.36321,55.68303],[13.3624,55.68302],[13.36173,55.68295],[13.36155,55.68264],[13.36114,55.68244],[13.36045,55.68234],[13.35981,55.68225],[13.35908,55.68218],[13.35864,55.68233],[13.35806,55.68263],[13.35737,55.683],[13.35706,55.68321],[13.35706,55.68376],[13.35709,55.68439],[13.35714,55.68499],[13.35706,55.6855],[13.35622,55.6857],[13.3555,55.68596],[13.35571,55.6865],[13.35572,55.68683],[13.35543,55.68744]]}}