{"type":"Feature","properties":{},"geometry":{"type":"LineString","coordinates":[[13.0864,55.58068],[13.08641,55.58067],[13.08652,55.58066],[13.08687,55.58069],[13.08723,55.58071],[13.08743,55.58085],[13.08738,55.58099],[13.0872,55.58115],[13.08699,55.58134],[13.08681,55.58139],[13.0867,55.58147],[13.08661,55.58165],[13.0867,55.58184],[13.08681,55.58202],[13.08694,55.5822],[13.08711,55.5824],[13.08723,55.58256],[13.08706,55.58262],[13.0871,55.58265],[13.08736,55.5827],[13.08761,55.58282],[13.08791,55.58293],[13.08829,55.58305],[13.08848,55.58316],[13.08846,55.5833],[13.08839,55.58339],[13.08828,55.58343],[13.08822,55.58352],[13.08794,55.58356],[13.08759,55.58361],[13.08731,55.58368],[13.08712,55.58384],[13.08698,55.58403],[13.08701,55.5841],[13.08676,55.58401],[13.08641,55.58389],[13.08599,55.58384],[13.08562,55.58382],[13.08534,55.58379],[13.08494,55.58374],[13.08451,55.58371],[13.08421,55.5836],[13.08416,55.58338],[13.08378,55.5833],[13.08354,55.58314],[13.08347,55.58291],[13.08323,55.58278],[13.08293,55.5828],[13.08276,55.58276],[13.08248,55.58278],[13.08222,55.58281],[13.0819,55.5828],[13.08153,55.58275],[13.0813,55.58286],[13.0811,55.58297],[13.08117,55.5831],[13.08107,55.58329],[13.08073,55.58328],[13.08032,55.58321],[13.07992,55.58315],[13.07954,55.58306],[13.0792,55.58297],[13.07885,55.58288],[13.0785,55.58288],[13.0781,55.58297],[13.07767,55.58306],[13.07728,55.58314],[13.07689,55.58321],[13.07649,55.58326],[13.0761,55.58332],[13.07575,55.58339],[13.07542,55.58345],[13.07505,55.58352],[13.07469,55.58358],[13.07435,55.58364],[13.07399,55.5837],[13.07368,55.58375],[13.07343,55.58379],[13.07313,55.58383],[13.07269,55.58392],[13.07232,55.58407],[13.07205,55.58424],[13.07187,55.58444],[13.0718,55.58459],[13.07189,55.58448],[13.07206,55.58432],[13.07228,55.58414],[13.07253,55.58402],[13.07284,55.5839],[13.07316,55.58381],[13.07323,55.58362],[13.07316,55.5834],[13.07306,55.58319],[13.07294,55.58296],[13.07286,55.58277],[13.07293,55.58256],[13.07299,55.58233],[13.07303,55.58212],[13.07302,55.58191],[13.07294,55.5817],[13.0728,55.58147],[13.07271,55.58127],[13.07268,55.58108],[13.07304,55.581],[13.07344,55.58094],[13.07384,55.58088],[13.07421,55.58082],[13.07456,55.58074],[13.07469,55.5807],[13.07473,55.58057],[13.07474,55.58047],[13.07463,55.58039],[13.07429,55.58041],[13.07396,55.58045],[13.07382,55.58048],[13.07411,55.5804],[13.07407,55.58037],[13.07435,55.5804],[13.07473,55.58031],[13.07487,55.58011],[13.07477,55.57984],[13.0747,55.57961],[13.07502,55.57946],[13.07544,55.57939],[13.07586,55.57932],[13.07626,55.57927],[13.07667,55.57921],[13.07703,55.57919],[13.07718,55.5794],[13.07732,55.57963],[13.07757,55.57972],[13.07776,55.57968],[13.07799,55.57955],[13.07826,55.57963],[13.07839,55.57983],[13.07847,55.58],[13.0788,55.5801],[13.07908,55.58022],[13.07914,55.58047],[13.0792,55.5807],[13.07939,55.5809],[13.07969,55.58102],[13.07983,55.58086],[13.08006,55.58081],[13.08018,55.58095],[13.08019,55.58107],[13.08049,55.58113],[13.08088,55.58114],[13.08126,55.58117],[13.08159,55.58122],[13.08202,55.58126],[13.0823,55.58134],[13.08235,55.58138],[13.0822,55.58124],[13.08239,55.58118],[13.08267,55.58126],[13.08301,55.58119],[13.08317,55.58099],[13.08297,55.58083],[13.08285,55.58076],[13.08265,55.5807],[13.08273,55.58054],[13.08282,55.58041],[13.08288,55.58032],[13.08311,55.58029],[13.08333,55.58022],[13.08352,55.58006],[13.08356,55.57988],[13.08391,55.57977],[13.08425,55.5797],[13.08455,55.57964],[13.0847,55.57967],[13.08459,55.57993],[13.08445,55.58017],[13.08435,55.58041],[13.08425,55.58057],[13.08421,55.5806],[13.08446,55.58061],[13.08503,55.58058],[13.0854,55.58068],[13.08541,55.58068],[13.08542,55.58068],[13.08546,55.5807],[13.08549,55.58068],[13.08549,55.58068],[13.08551,55.58067],[13.08552,55.58067],[13.08551,55.58068],[13.08551,55.58067],[13.08552,55.58066],[13.08551,55.58066],[13.08551,55.58067],[13.08552,55.58069],[13.08551,55.58068],[13.08552,55.58066],[13.08553,55.58067],[13.08552,55.58066],[13.08551,55.58065],[13.0855,55.58065],[13.08549,55.58077]]}}