{"type":"Feature","properties":{},"geometry":{"type":"LineString","coordinates":[[13.21391,55.56078],[13.21441,55.56064],[13.21515,55.56058],[13.21547,55.56033],[13.21576,55.56014],[13.21654,55.55993],[13.21727,55.5598],[13.21764,55.5599],[13.21799,55.55973],[13.21845,55.55952],[13.21892,55.5594],[13.21906,55.55921],[13.21917,55.55942],[13.219,55.5594],[13.21906,55.5595],[13.21974,55.55957],[13.22028,55.55962],[13.22092,55.55975],[13.22135,55.55984],[13.22188,55.55996],[13.22224,55.55995],[13.22258,55.55983],[13.22285,55.55951],[13.22326,55.55924],[13.22371,55.55893],[13.2243,55.55878],[13.22458,55.5588],[13.22504,55.55878],[13.2254,55.55869],[13.22582,55.5588],[13.22631,55.55883],[13.22676,55.55867],[13.22707,55.55852],[13.22744,55.5585],[13.22754,55.55811],[13.22774,55.55778],[13.22841,55.55769],[13.22881,55.55735],[13.22932,55.55719],[13.23007,55.5573],[13.23039,55.55726],[13.23065,55.55702],[13.23096,55.5569],[13.23115,55.55678],[13.23146,55.55676],[13.23217,55.5566],[13.2325,55.55638],[13.23262,55.55625],[13.23259,55.55613],[13.23249,55.5558],[13.23223,55.55551],[13.23204,55.5554],[13.23149,55.55528],[13.23112,55.55539],[13.23055,55.55531],[13.23016,55.55519],[13.22972,55.55492],[13.22932,55.55473],[13.22882,55.55462],[13.22831,55.55448],[13.22789,55.55429],[13.22771,55.554],[13.22714,55.55372],[13.22683,55.55334],[13.22672,55.55293],[13.22601,55.55258],[13.2254,55.55268],[13.2252,55.55261],[13.22488,55.55267],[13.22485,55.55274],[13.22506,55.55266],[13.22447,55.55268],[13.22379,55.55278],[13.2233,55.55294],[13.2229,55.553],[13.22227,55.55307],[13.22194,55.55319],[13.22166,55.55343],[13.22139,55.55351],[13.2212,55.55359],[13.22096,55.55365],[13.22082,55.5536],[13.22062,55.55371],[13.2203,55.55377],[13.21993,55.55385],[13.21961,55.55386],[13.21917,55.5539],[13.21891,55.55387],[13.21843,55.55392],[13.21782,55.55388],[13.21736,55.55393],[13.21683,55.55387],[13.21646,55.55373],[13.21584,55.55367],[13.21549,55.55345],[13.21485,55.5531],[13.21434,55.55288],[13.21373,55.55275],[13.21316,55.55282],[13.21288,55.55295],[13.21264,55.55301],[13.21236,55.55297],[13.21196,55.55298],[13.21136,55.55286],[13.21163,55.55265],[13.21167,55.55239],[13.21122,55.55214],[13.21066,55.55204],[13.21063,55.55181],[13.21023,55.55144],[13.20993,55.55123],[13.20957,55.55119],[13.20928,55.55116],[13.20907,55.55113],[13.20886,55.55141],[13.20867,55.55157],[13.20844,55.55173],[13.20845,55.55189],[13.20846,55.55204],[13.20865,55.55199],[13.20874,55.55201],[13.20878,55.55196],[13.20864,55.55192],[13.20844,55.55206],[13.20847,55.55219],[13.20862,55.55203],[13.20885,55.55199],[13.209,55.55188],[13.20906,55.55183],[13.20949,55.55167],[13.20977,55.55152],[13.20986,55.55134],[13.20976,55.55125],[13.20932,55.55124],[13.20917,55.55136],[13.20933,55.55161],[13.20955,55.55192],[13.20955,55.55209],[13.20935,55.55228],[13.20951,55.55226],[13.21014,55.5522],[13.21066,55.55216],[13.21085,55.55205],[13.21105,55.55199],[13.21165,55.55193],[13.21209,55.55162],[13.21244,55.55139],[13.21325,55.55135],[13.21404,55.5515],[13.21474,55.55128],[13.21525,55.55114],[13.21577,55.55089],[13.21641,55.55077],[13.21685,55.55063],[13.21704,55.55065],[13.21745,55.55091],[13.21773,55.55105],[13.21807,55.55114],[13.2183,55.55113],[13.21845,55.55116],[13.21878,55.55114],[13.21895,55.55123],[13.219,55.55136],[13.21902,55.55162],[13.21931,55.55184],[13.21947,55.55202],[13.21946,55.55217],[13.21938,55.55216],[13.21867,55.55222],[13.21829,55.55224],[13.21804,55.5522],[13.21736,55.5521],[13.21666,55.5521],[13.21616,55.55201],[13.21561,55.55186],[13.21537,55.55187],[13.21506,55.55209],[13.21494,55.55238],[13.21465,55.55281],[13.21413,55.55318],[13.21353,55.55356],[13.21307,55.55398],[13.21271,55.55448],[13.21244,55.55499],[13.2122,55.55543],[13.21173,55.55571],[13.21144,55.55618],[13.21204,55.55666],[13.21223,55.55689],[13.21209,55.55695],[13.21192,55.55722],[13.21184,55.55745],[13.21193,55.55768],[13.21187,55.55787],[13.2115,55.55835],[13.21092,55.5587],[13.21049,55.55914],[13.21072,55.55959],[13.21146,55.55995],[13.21213,55.56052]]}}