{"type":"Feature","properties":{},"geometry":{"type":"LineString","coordinates":[[11.99683,57.87491],[11.99692,57.87491],[11.99709,57.8749],[11.99734,57.87491],[11.99758,57.87495],[11.99788,57.87498],[11.99818,57.87491],[11.99836,57.87473],[11.99839,57.87459],[11.99847,57.87443],[11.99859,57.87429],[11.99866,57.87413],[11.99868,57.87395],[11.99881,57.87385],[11.99902,57.87378],[11.99933,57.87372],[11.99964,57.8737],[11.99994,57.87369],[12.00026,57.87364],[12.0005,57.87355],[12.0007,57.87347],[12.00084,57.87338],[12.00119,57.8733],[12.00121,57.87329],[12.00134,57.87321],[12.0016,57.87311],[12.00199,57.873],[12.00253,57.87295],[12.00284,57.87296],[12.00318,57.87298],[12.00359,57.87301],[12.00388,57.87303],[12.00417,57.87303],[12.00452,57.873],[12.00487,57.87298],[12.00519,57.87297],[12.00554,57.87294],[12.00584,57.87294],[12.00617,57.87295],[12.00652,57.87293],[12.00683,57.87291],[12.00712,57.87288],[12.00728,57.87272],[12.0072,57.87256],[12.00716,57.87238],[12.00709,57.87219],[12.00707,57.87205],[12.00708,57.87192],[12.00708,57.87175],[12.0071,57.87162],[12.00717,57.87144],[12.00744,57.87127],[12.00767,57.87118],[12.00792,57.87112],[12.00826,57.87108],[12.00859,57.87109],[12.00884,57.87118],[12.00904,57.87134],[12.0093,57.87145],[12.00949,57.87158],[12.00977,57.87175],[12.01008,57.87184],[12.01032,57.87196],[12.01045,57.87214],[12.01048,57.87227],[12.01046,57.87242],[12.01069,57.87259],[12.01102,57.87267],[12.01125,57.8728],[12.01154,57.87293],[12.01181,57.87308],[12.012,57.87323],[12.01222,57.87341],[12.01246,57.87356],[12.01273,57.87369],[12.01305,57.87383],[12.01332,57.87397],[12.01356,57.87412],[12.01387,57.87429],[12.01407,57.87441],[12.01427,57.87453],[12.01452,57.87467],[12.01475,57.8748],[12.015,57.87494],[12.0153,57.87509],[12.01554,57.87522],[12.01572,57.87538],[12.01587,57.87557],[12.01598,57.87574],[12.0161,57.8759],[12.01638,57.87607],[12.01669,57.87616],[12.01696,57.87621],[12.01731,57.87625],[12.01761,57.87636],[12.01789,57.87647],[12.01812,57.87663],[12.01829,57.87678],[12.01846,57.87693],[12.01858,57.8771],[12.01852,57.87722],[12.01831,57.87725],[12.01798,57.8773],[12.01767,57.87736],[12.01738,57.87743],[12.01704,57.8775],[12.01676,57.87755],[12.01647,57.87759],[12.01618,57.87769],[12.01615,57.87785],[12.01622,57.87803],[12.01629,57.87823],[12.01643,57.8784],[12.01664,57.87859],[12.01687,57.87879],[12.01708,57.87896],[12.01714,57.87912],[12.01711,57.87932],[12.0171,57.8795],[12.01704,57.87968],[12.0168,57.8798],[12.01651,57.87982],[12.01624,57.87979],[12.01599,57.87971],[12.0157,57.8796],[12.01539,57.87948],[12.01502,57.87935],[12.01475,57.87924],[12.01457,57.8791],[12.01438,57.87894],[12.01414,57.87882],[12.01392,57.87872],[12.0138,57.87856],[12.01363,57.87842],[12.01338,57.87829],[12.01307,57.8782],[12.01281,57.87809],[12.01253,57.87799],[12.01227,57.87789],[12.01207,57.8778],[12.01184,57.8777],[12.01156,57.87762],[12.01129,57.87757],[12.01104,57.87752],[12.01076,57.87747],[12.01049,57.87745],[12.01022,57.8775],[12.01,57.87765],[12.00991,57.87785],[12.00984,57.87804],[12.00991,57.87825],[12.01023,57.87832],[12.01052,57.87831],[12.01083,57.87828],[12.01111,57.87827],[12.01125,57.87837],[12.01138,57.87855],[12.01149,57.87871],[12.01155,57.87887],[12.01146,57.87905],[12.01132,57.87922],[12.0111,57.87935],[12.01081,57.87948],[12.01052,57.87954],[12.01016,57.87955],[12.00977,57.87954],[12.00945,57.87952],[12.00911,57.87948],[12.00874,57.87944],[12.00847,57.87939],[12.00821,57.87933],[12.00781,57.87935],[12.00744,57.87938],[12.00709,57.87941],[12.00671,57.87946],[12.00638,57.8795],[12.00605,57.87951],[12.00571,57.87955],[12.00542,57.87965],[12.00513,57.87975],[12.00477,57.87979],[12.00446,57.87979],[12.00414,57.87982],[12.00378,57.8798],[12.00352,57.87974],[12.00319,57.87974],[12.00279,57.8798],[12.00243,57.87987],[12.00209,57.87999],[12.00177,57.8801],[12.0015,57.8801],[12.00126,57.88003],[12.00098,57.87991],[12.00076,57.8798],[12.00047,57.8797],[12.00014,57.87961],[11.99983,57.87956],[11.99952,57.87951],[11.99918,57.87947],[11.9987,57.87941]]}}