{"type":"Feature","properties":{},"geometry":{"type":"LineString","coordinates":[[13.14224,55.38701],[13.14247,55.38721],[13.14276,55.38746],[13.14292,55.38773],[13.143,55.38778],[13.14294,55.38756],[13.1432,55.38737],[13.14368,55.38725],[13.14413,55.38702],[13.14445,55.38679],[13.14471,55.38672],[13.14497,55.38646],[13.14537,55.38635],[13.1456,55.38618],[13.14575,55.38613],[13.14605,55.38629],[13.14605,55.38638],[13.14646,55.38646],[13.14709,55.38646],[13.14766,55.38642],[13.14805,55.38648],[13.14846,55.38652],[13.14904,55.38649],[13.14954,55.38647],[13.14943,55.38677],[13.14969,55.38698],[13.15007,55.38702],[13.14998,55.38694],[13.14966,55.38697],[13.14951,55.38711],[13.14964,55.38727],[13.14985,55.38743],[13.14961,55.3876],[13.14919,55.38774],[13.14926,55.38802],[13.14934,55.3883],[13.14924,55.38843],[13.14946,55.38867],[13.14956,55.38893],[13.14963,55.38917],[13.14965,55.38933],[13.14979,55.38952],[13.15006,55.38967],[13.15002,55.38986],[13.15019,55.39],[13.14993,55.39021],[13.15,55.39055],[13.14979,55.39073],[13.14949,55.39077],[13.14918,55.39081],[13.14888,55.39086],[13.14862,55.39082],[13.14829,55.39081],[13.14793,55.39089],[13.14733,55.39105],[13.14678,55.39116],[13.1464,55.39122],[13.14609,55.39103],[13.14563,55.39099],[13.1455,55.39083],[13.14541,55.39066],[13.14525,55.39058],[13.14519,55.39042],[13.14517,55.39043],[13.14504,55.39043],[13.14494,55.39025],[13.14481,55.39006],[13.14498,55.3899],[13.14514,55.38993],[13.14512,55.38993],[13.14518,55.38994],[13.14548,55.39002],[13.14581,55.39003],[13.14608,55.38996],[13.14641,55.38992],[13.14669,55.38989],[13.14697,55.38986],[13.14727,55.38982],[13.14736,55.38972],[13.14752,55.3896],[13.14756,55.38961],[13.14751,55.38957],[13.14737,55.38943],[13.14734,55.38927],[13.14719,55.38912],[13.1471,55.38896],[13.14711,55.3888],[13.14706,55.38859],[13.14698,55.3884],[13.14702,55.3882],[13.14699,55.38802],[13.14699,55.38788],[13.14725,55.38782],[13.14733,55.38766],[13.14725,55.38746],[13.1472,55.38729],[13.14744,55.38716],[13.14743,55.38717],[13.14727,55.38718],[13.14725,55.38718],[13.14718,55.38733],[13.14724,55.38753],[13.14731,55.38772],[13.14706,55.3878],[13.14674,55.38786],[13.14647,55.38791],[13.14627,55.38786],[13.14599,55.38775],[13.14566,55.38775],[13.14545,55.38766],[13.14525,55.38753],[13.14491,55.38748],[13.14461,55.3874],[13.14432,55.38742],[13.14401,55.38745],[13.14378,55.38742],[13.14367,55.38745],[13.14371,55.38746],[13.14406,55.38749],[13.14431,55.38745],[13.14454,55.38745],[13.14459,55.38764],[13.14472,55.38786],[13.14474,55.38786],[13.14471,55.38788],[13.14471,55.3879],[13.14493,55.38793],[13.14512,55.3879],[13.14543,55.38784],[13.14544,55.38811],[13.145,55.3882],[13.14481,55.38824],[13.14475,55.38826],[13.14449,55.3883],[13.14431,55.38833],[13.14401,55.38839],[13.14381,55.3885],[13.14363,55.3885],[13.14338,55.38849],[13.14337,55.38848],[13.14326,55.38847],[13.14305,55.38856],[13.14278,55.38864],[13.14249,55.38867],[13.14229,55.38871],[13.14225,55.38874],[13.14245,55.38874],[13.1427,55.38878],[13.14256,55.38886],[13.14225,55.38892],[13.14197,55.38903],[13.14174,55.38916],[13.14183,55.38934],[13.14189,55.38935],[13.14177,55.38928],[13.14154,55.38917],[13.1413,55.38908],[13.14102,55.389],[13.14069,55.38899],[13.14048,55.38899],[13.14035,55.38892],[13.14028,55.38879],[13.14023,55.38874],[13.14012,55.38851],[13.1399,55.38837],[13.13993,55.38829],[13.14002,55.38836],[13.14001,55.38835],[13.14006,55.38848],[13.14019,55.38877],[13.14019,55.38895],[13.13994,55.38896],[13.13943,55.38904],[13.13898,55.38906],[13.13886,55.38876],[13.13878,55.38846],[13.13852,55.38824],[13.13849,55.38821],[13.13827,55.38793],[13.13857,55.38776],[13.1388,55.38749],[13.13867,55.38714],[13.1387,55.38684],[13.13915,55.38665],[13.13893,55.38631],[13.13879,55.38596],[13.13867,55.38574],[13.13901,55.38575],[13.13956,55.38581],[13.14021,55.38583],[13.14077,55.38589],[13.14132,55.38604],[13.14178,55.38622],[13.14194,55.38657],[13.14209,55.38686],[13.14219,55.38695],[13.14217,55.38696],[13.14224,55.38697],[13.14225,55.38696],[13.14199,55.38692]]}}