{"type":"Feature","properties":{},"geometry":{"type":"LineString","coordinates":[[12.89618,55.56884],[12.89618,55.56887],[12.89618,55.56895],[12.8962,55.56901],[12.89622,55.56909],[12.89625,55.56917],[12.89626,55.56923],[12.89629,55.5693],[12.89631,55.56937],[12.89628,55.56941],[12.89622,55.56945],[12.89619,55.56947],[12.8962,55.56953],[12.89627,55.56959],[12.89632,55.56963],[12.8964,55.56968],[12.89647,55.56971],[12.89651,55.56972],[12.8966,55.56978],[12.89665,55.56982],[12.89675,55.56987],[12.89688,55.56991],[12.89696,55.56993],[12.89709,55.56995],[12.89721,55.56996],[12.89726,55.56995],[12.89733,55.56994],[12.89742,55.56992],[12.89748,55.56992],[12.89758,55.56993],[12.89765,55.56994],[12.89776,55.56998],[12.89786,55.57002],[12.89792,55.57005],[12.89801,55.5701],[12.89811,55.57014],[12.89818,55.57017],[12.89826,55.57022],[12.8983,55.57025],[12.89828,55.57027],[12.89832,55.57026],[12.89836,55.57024],[12.89842,55.57022],[12.89851,55.57022],[12.89857,55.57023],[12.89864,55.57025],[12.8987,55.57028],[12.89883,55.57033],[12.89893,55.57039],[12.89901,55.57042],[12.89912,55.57047],[12.89922,55.57051],[12.89929,55.57054],[12.89938,55.57055],[12.89943,55.57056],[12.89947,55.57056],[12.89954,55.57056],[12.8996,55.57056],[12.8997,55.57056],[12.89982,55.57056],[12.89989,55.57056],[12.90003,55.57056],[12.90017,55.57055],[12.90026,55.57055],[12.90033,55.57053],[12.90032,55.57051],[12.9003,55.57048],[12.90028,55.57046],[12.90027,55.57045],[12.90033,55.57045],[12.90044,55.57046],[12.90051,55.57047],[12.90067,55.57045],[12.90078,55.57044],[12.90092,55.57041],[12.90104,55.57038],[12.90109,55.57036],[12.90107,55.57033],[12.90107,55.57031],[12.90106,55.5703],[12.90107,55.57028],[12.90108,55.57026],[12.90108,55.57025],[12.90107,55.57022],[12.90106,55.57021],[12.90103,55.57019],[12.90098,55.57016],[12.90092,55.57016],[12.90084,55.57016],[12.90074,55.57016],[12.90069,55.57017],[12.90062,55.57018],[12.9006,55.5702],[12.9006,55.57021],[12.90063,55.57019],[12.90066,55.57019],[12.90071,55.57019],[12.90077,55.57018],[12.90081,55.57018],[12.90086,55.57017],[12.9009,55.57016],[12.90092,55.57017],[12.90095,55.57018],[12.90097,55.5702],[12.90102,55.57024],[12.90103,55.57025],[12.90103,55.57027],[12.90103,55.57031],[12.90104,55.57034],[12.90107,55.57037],[12.90114,55.5704],[12.9012,55.57043],[12.90128,55.57047],[12.90142,55.57048],[12.90153,55.57047],[12.90166,55.57047],[12.90178,55.57046],[12.90187,55.57046],[12.90194,55.57046],[12.9019,55.57046],[12.90189,55.57049],[12.90199,55.5705],[12.90203,55.5705],[12.90216,55.5705],[12.90229,55.57048],[12.90237,55.57046],[12.90251,55.57046],[12.90264,55.57046],[12.90271,55.57044],[12.9028,55.57043],[12.90283,55.57043],[12.90295,55.57043],[12.90308,55.5704],[12.90316,55.57039],[12.90327,55.57037],[12.90333,55.57035],[12.90342,55.57034],[12.90357,55.57033],[12.90367,55.57034],[12.90383,55.57034],[12.90399,55.57034],[12.90411,55.57034],[12.90427,55.57032],[12.90441,55.5703],[12.9045,55.57029],[12.90465,55.57028],[12.90475,55.57027],[12.90489,55.57026],[12.90503,55.57025],[12.90511,55.57024],[12.90524,55.57022],[12.90533,55.57019],[12.90534,55.57015],[12.90533,55.57012],[12.90531,55.57011],[12.90531,55.57011],[12.90531,55.5701],[12.90533,55.57008],[12.90539,55.57006],[12.90547,55.57002],[12.90554,55.56998],[12.90565,55.56991],[12.90575,55.56985],[12.90581,55.56981],[12.90587,55.56975],[12.9059,55.56971],[12.9059,55.56965],[12.90587,55.5696],[12.90587,55.5696],[12.90586,55.56962],[12.90588,55.56968],[12.90589,55.56971],[12.90591,55.56979],[12.90593,55.56983],[12.90598,55.56988],[12.90608,55.56994],[12.90615,55.56997],[12.90622,55.57001],[12.90626,55.57006],[12.90631,55.57008],[12.90639,55.57012],[12.9065,55.57015],[12.90656,55.57018],[12.90664,55.57022],[12.9067,55.57026],[12.9068,55.57032],[12.90686,55.57035],[12.90686,55.57036],[12.90686,55.57036],[12.90686,55.57037],[12.90686,55.57038],[12.90687,55.57041],[12.90687,55.57043],[12.90688,55.57045],[12.90689,55.57047],[12.9069,55.57049],[12.9069,55.57051],[12.90688,55.57051],[12.90687,55.57052],[12.90687,55.57051]]}}