{"type":"Feature","properties":{},"geometry":{"type":"LineString","coordinates":[[13.71549,56.15228],[13.71523,56.15257],[13.71442,56.15256],[13.71385,56.15238],[13.71327,56.1523],[13.71261,56.15245],[13.71216,56.15265],[13.71174,56.15285],[13.71103,56.15298],[13.71027,56.15306],[13.70996,56.153],[13.70977,56.15282],[13.70953,56.15269],[13.7094,56.15287],[13.7096,56.1531],[13.70926,56.15333],[13.70903,56.15367],[13.70909,56.15414],[13.7089,56.15445],[13.7087,56.15469],[13.7084,56.15483],[13.70818,56.1548],[13.7078,56.15485],[13.70753,56.15475],[13.70729,56.15486],[13.70719,56.155],[13.70701,56.15518],[13.70703,56.15544],[13.70754,56.15572],[13.70764,56.15615],[13.70747,56.15657],[13.70742,56.15693],[13.70754,56.15719],[13.70768,56.15749],[13.70788,56.15768],[13.70818,56.15789],[13.70834,56.15809],[13.70863,56.15829],[13.70866,56.15843],[13.70894,56.15858],[13.70934,56.15874],[13.70963,56.1588],[13.7101,56.1587],[13.71048,56.15877],[13.71093,56.15877],[13.71105,56.15881],[13.71157,56.15896],[13.71187,56.15909],[13.71228,56.15917],[13.71245,56.15926],[13.71273,56.15923],[13.71305,56.1591],[13.71355,56.15891],[13.71366,56.15878],[13.71356,56.15857],[13.71328,56.15841],[13.71321,56.15838],[13.71322,56.15837],[13.71313,56.1583],[13.71314,56.15821],[13.71311,56.15807],[13.71287,56.15797],[13.71262,56.15791],[13.71267,56.15794],[13.71264,56.1578],[13.71245,56.15779],[13.71249,56.1578],[13.71261,56.15782],[13.71279,56.15773],[13.71286,56.15778],[13.71294,56.15775],[13.71262,56.15788],[13.71246,56.15805],[13.71207,56.15819],[13.71166,56.15826],[13.71157,56.15828],[13.71109,56.15858],[13.71095,56.15876],[13.71089,56.15914],[13.71121,56.15952],[13.71144,56.15972],[13.7114,56.1597],[13.71122,56.15973],[13.71117,56.15974],[13.71124,56.15978],[13.71121,56.15979],[13.71133,56.15979],[13.71132,56.15975],[13.71147,56.15974],[13.71183,56.15961],[13.71221,56.15953],[13.71269,56.1598],[13.71301,56.15999],[13.71335,56.16024],[13.71338,56.16043],[13.71357,56.1606],[13.71362,56.16064],[13.71365,56.16069],[13.71363,56.1607],[13.71368,56.16068],[13.7138,56.16065],[13.71373,56.1606],[13.71393,56.16058],[13.71434,56.16072],[13.71488,56.16076],[13.71548,56.16065],[13.71616,56.16057],[13.71674,56.16038],[13.7172,56.16029],[13.71781,56.16002],[13.71837,56.15961],[13.71867,56.15924],[13.71886,56.15894],[13.71928,56.15854],[13.71996,56.1585],[13.72051,56.15879],[13.72106,56.15897],[13.72184,56.15909],[13.72204,56.15927],[13.72207,56.1595],[13.72219,56.15967],[13.72231,56.15986],[13.72238,56.15994],[13.72245,56.16002],[13.72271,56.16009],[13.72295,56.1601],[13.72338,56.16011],[13.72366,56.16013],[13.72414,56.16006],[13.72458,56.16001],[13.72497,56.16007],[13.72538,56.16036],[13.72616,56.16043],[13.72698,56.16018],[13.72747,56.15973],[13.72776,56.15933],[13.72796,56.159],[13.72823,56.15862],[13.72841,56.15822],[13.72829,56.15788],[13.72794,56.15782],[13.7277,56.15786],[13.72777,56.15772],[13.72782,56.15741],[13.72779,56.15715],[13.72757,56.15692],[13.72719,56.15662],[13.72705,56.15652],[13.72682,56.15651],[13.72622,56.15648],[13.72569,56.15636],[13.72541,56.15636],[13.72492,56.15631],[13.72455,56.15622],[13.72442,56.15622],[13.72395,56.15618],[13.72336,56.15616],[13.72283,56.15616],[13.72245,56.15617],[13.72195,56.15621],[13.72159,56.15622],[13.72114,56.15635],[13.72068,56.15647],[13.72027,56.1565],[13.72004,56.15655],[13.71983,56.15658],[13.71956,56.15676],[13.71936,56.1569],[13.71934,56.15695],[13.71934,56.15703],[13.71932,56.1571],[13.71933,56.15698],[13.71894,56.15691],[13.71863,56.15683],[13.71835,56.1569],[13.71807,56.15694],[13.71795,56.15693],[13.71814,56.15678],[13.71846,56.15652],[13.71848,56.15634],[13.71838,56.15633],[13.7182,56.15635],[13.71811,56.1561],[13.71811,56.15591],[13.71788,56.15575],[13.71755,56.1555],[13.71716,56.15534],[13.71697,56.15511],[13.71673,56.15492],[13.71644,56.15466],[13.71611,56.15443],[13.716,56.15417],[13.71585,56.15392],[13.71565,56.15372],[13.71558,56.15352],[13.71582,56.15338],[13.71644,56.1534],[13.71727,56.15345],[13.71722,56.15318],[13.71757,56.15324]]}}