{"type":"Feature","properties":{},"geometry":{"type":"LineString","coordinates":[[12.76095,56.88989],[12.76095,56.8899],[12.7611,56.89023],[12.76149,56.8906],[12.7618,56.89096],[12.76239,56.89125],[12.76303,56.89151],[12.76314,56.89179],[12.76326,56.89205],[12.76318,56.89224],[12.76316,56.89245],[12.76302,56.8925],[12.76281,56.8926],[12.76278,56.89272],[12.76272,56.89287],[12.76259,56.893],[12.76252,56.89329],[12.76237,56.89351],[12.76231,56.89373],[12.76225,56.89394],[12.76217,56.89401],[12.76203,56.8941],[12.76181,56.89424],[12.7618,56.89447],[12.76192,56.89477],[12.76165,56.89512],[12.76116,56.89533],[12.76087,56.89549],[12.7606,56.89555],[12.76024,56.89559],[12.75966,56.89567],[12.75931,56.89568],[12.75858,56.89573],[12.75808,56.89573],[12.75756,56.89569],[12.7573,56.89567],[12.7573,56.89563],[12.75717,56.89571],[12.7572,56.89592],[12.75745,56.89613],[12.75746,56.89638],[12.75756,56.89664],[12.75782,56.8969],[12.75806,56.897],[12.75811,56.89707],[12.7582,56.89721],[12.75844,56.89721],[12.75861,56.89712],[12.75851,56.89713],[12.75804,56.89722],[12.75788,56.89738],[12.75777,56.89744],[12.75757,56.89755],[12.75713,56.89756],[12.75691,56.89773],[12.75677,56.89802],[12.75678,56.89803],[12.757,56.89785],[12.75722,56.89762],[12.75695,56.89728],[12.75692,56.89699],[12.75675,56.89678],[12.75655,56.89652],[12.7565,56.89632],[12.75651,56.89621],[12.75642,56.89603],[12.75618,56.8959],[12.75591,56.89586],[12.75574,56.89578],[12.75548,56.89561],[12.75514,56.8955],[12.75486,56.89541],[12.7547,56.89529],[12.75448,56.89515],[12.75414,56.89517],[12.75394,56.89513],[12.75368,56.89504],[12.75359,56.89501],[12.7535,56.89508],[12.7534,56.89508],[12.75333,56.89501],[12.75326,56.89483],[12.75335,56.89458],[12.75361,56.89445],[12.75359,56.8942],[12.75344,56.89383],[12.7534,56.89348],[12.75349,56.89316],[12.75366,56.89293],[12.754,56.8926],[12.75421,56.89242],[12.75443,56.89229],[12.75464,56.8922],[12.75487,56.89206],[12.75506,56.89202],[12.75532,56.892],[12.75556,56.89196],[12.75594,56.89196],[12.75626,56.89198],[12.75647,56.89192],[12.75666,56.89189],[12.75687,56.89192],[12.75694,56.89193],[12.75716,56.89192],[12.75741,56.892],[12.75775,56.89209],[12.75784,56.89209],[12.75772,56.89203],[12.75728,56.8919],[12.75699,56.8918],[12.75678,56.89167],[12.75655,56.89142],[12.75605,56.8912],[12.75563,56.89109],[12.75502,56.89098],[12.75468,56.8909],[12.75445,56.89079],[12.75449,56.89074],[12.75452,56.89064],[12.7547,56.89057],[12.75465,56.89049],[12.75449,56.89044],[12.75438,56.89041],[12.7541,56.89026],[12.75386,56.89001],[12.75353,56.88985],[12.75322,56.88967],[12.75315,56.88941],[12.75297,56.88926],[12.75285,56.88908],[12.75233,56.88885],[12.75201,56.88889],[12.75179,56.88891],[12.75146,56.88886],[12.75115,56.88886],[12.75095,56.88883],[12.75084,56.88887],[12.75087,56.88882],[12.75096,56.88874],[12.75108,56.88859],[12.75129,56.88831],[12.75141,56.88817],[12.7515,56.8879],[12.75157,56.88757],[12.7515,56.88739],[12.75138,56.88729],[12.7513,56.88717],[12.75126,56.88714],[12.7513,56.88696],[12.75128,56.88678],[12.75139,56.88665],[12.75155,56.88663],[12.75156,56.88656],[12.75157,56.88648],[12.75186,56.88643],[12.75191,56.88633],[12.75152,56.88621],[12.75124,56.88606],[12.75086,56.88599],[12.7507,56.88595],[12.75073,56.8859],[12.75062,56.88579],[12.75015,56.88572],[12.7497,56.88576],[12.74932,56.88586],[12.74896,56.88593],[12.749,56.88604],[12.7493,56.88611],[12.74945,56.88618],[12.74938,56.88639],[12.74924,56.88671],[12.74921,56.88692],[12.74939,56.8872],[12.74958,56.88746],[12.74936,56.88772],[12.74917,56.8879],[12.74911,56.88802],[12.74903,56.88819],[12.74888,56.88833],[12.74889,56.88845],[12.74902,56.88855],[12.74902,56.8886],[12.7488,56.88853],[12.74828,56.88847],[12.74773,56.88836],[12.74718,56.88832],[12.74674,56.88813],[12.7462,56.88813],[12.74576,56.88837],[12.7453,56.88845],[12.74503,56.88847],[12.74453,56.88869],[12.74389,56.88868],[12.74313,56.88867],[12.74259,56.88869],[12.74284,56.88843],[12.74228,56.8887],[12.74226,56.88872],[12.74221,56.88877],[12.74202,56.88878]]}}