{"type":"Feature","properties":{},"geometry":{"type":"LineString","coordinates":[[18.52793,57.81099],[18.52799,57.81104],[18.52794,57.81102],[18.52753,57.81149],[18.52681,57.81196],[18.526,57.81242],[18.52524,57.8129],[18.52445,57.81339],[18.52374,57.81388],[18.52308,57.81443],[18.52255,57.81499],[18.522,57.81557],[18.52149,57.81615],[18.52098,57.81675],[18.52045,57.81734],[18.51991,57.81795],[18.51943,57.8185],[18.5189,57.8191],[18.51833,57.8197],[18.51787,57.82025],[18.51755,57.82053],[18.51741,57.82075],[18.51709,57.82113],[18.51658,57.8217],[18.51608,57.82227],[18.51567,57.82262],[18.51538,57.82254],[18.51536,57.82254],[18.5154,57.8226],[18.51545,57.82257],[18.51545,57.8226],[18.51548,57.82258],[18.51544,57.82258],[18.51543,57.82258],[18.51547,57.82258],[18.51538,57.82257],[18.51529,57.82261],[18.51531,57.82263],[18.51531,57.82263],[18.5153,57.82264],[18.51527,57.82262],[18.51527,57.82264],[18.5153,57.82263],[18.51549,57.82262],[18.51551,57.82261],[18.51539,57.82259],[18.51542,57.82256],[18.51532,57.82252],[18.51526,57.82249],[18.5153,57.8225],[18.51535,57.82252],[18.51504,57.82344],[18.51468,57.82383],[18.51418,57.82439],[18.51371,57.82496],[18.51322,57.8255],[18.51233,57.82586],[18.51163,57.8259],[18.51149,57.82605],[18.51264,57.82579],[18.51348,57.82555],[18.51445,57.82575],[18.51543,57.82602],[18.51617,57.8264],[18.51691,57.82679],[18.51734,57.82731],[18.51751,57.82785],[18.51784,57.82839],[18.51856,57.82868],[18.51961,57.82866],[18.52067,57.82866],[18.52171,57.82877],[18.5225,57.82888],[18.52301,57.82877],[18.52408,57.82872],[18.52514,57.8287],[18.52622,57.82876],[18.52727,57.82897],[18.5281,57.82923],[18.52891,57.82957],[18.5296,57.82995],[18.5304,57.83022],[18.5311,57.83065],[18.53164,57.83119],[18.53237,57.83164],[18.53319,57.83202],[18.53396,57.83244],[18.53456,57.83291],[18.53527,57.83335],[18.53537,57.83339],[18.53567,57.83368],[18.53611,57.83418],[18.53674,57.83465],[18.53754,57.835],[18.53836,57.83539],[18.53914,57.83569],[18.53966,57.83558],[18.53992,57.83558],[18.54014,57.83568],[18.54039,57.83574],[18.54103,57.83547],[18.54154,57.83563],[18.54191,57.83609],[18.54262,57.83655],[18.54245,57.83703],[18.54292,57.8375],[18.54364,57.83777],[18.54447,57.83805],[18.5449,57.83852],[18.54504,57.83886],[18.54531,57.83882],[18.54602,57.83915],[18.54672,57.83948],[18.54729,57.83987],[18.54772,57.84029],[18.54813,57.84063],[18.54891,57.84077],[18.54963,57.84074],[18.55045,57.84059],[18.55125,57.84048],[18.55215,57.84048],[18.55311,57.8405],[18.55385,57.84076],[18.55402,57.84076],[18.55392,57.84078],[18.55647,57.84331],[18.55724,57.84353],[18.55815,57.84366],[18.55913,57.84379],[18.5601,57.84378],[18.5611,57.84391],[18.56207,57.84408],[18.56296,57.84424],[18.56378,57.84452],[18.56474,57.84444],[18.56545,57.84409],[18.56614,57.84381],[18.56673,57.84354],[18.56745,57.84349],[18.56828,57.84375],[18.56918,57.844],[18.57013,57.84389],[18.57063,57.84373],[18.57062,57.84369],[18.57125,57.84347],[18.57126,57.84344],[18.57195,57.84311],[18.57251,57.84266],[18.57336,57.84235],[18.57409,57.84195],[18.57465,57.84145],[18.57496,57.84092],[18.57533,57.84047],[18.57599,57.84009],[18.57673,57.83974],[18.57751,57.8394],[18.57805,57.83891],[18.57841,57.83846],[18.57924,57.83817],[18.58019,57.83792],[18.58115,57.83777],[18.58133,57.8372],[18.5821,57.83712],[18.58292,57.83711],[18.58336,57.83708],[18.58371,57.83736],[18.5836,57.83757],[18.58347,57.83775],[18.58381,57.83803],[18.58405,57.83837],[18.58377,57.83876],[18.58479,57.83897],[18.58566,57.8391],[18.58656,57.83914],[18.58758,57.83929],[18.58854,57.83942],[18.58952,57.8395],[18.5905,57.83938],[18.59147,57.83942],[18.59232,57.83949],[18.5933,57.8396],[18.59427,57.8397],[18.59512,57.83989],[18.59527,57.83987],[18.59531,57.83986],[18.59529,57.83987],[18.59526,57.83988],[18.59525,57.83986],[18.59527,57.83987],[18.59522,57.83988],[18.59524,57.83987],[18.59525,57.83987],[18.59525,57.83985],[18.59528,57.83985],[18.5953,57.83984],[18.59526,57.83986],[18.59524,57.83989],[18.59524,57.83985],[18.59525,57.83987],[18.59527,57.83987]]}}