{"type":"Feature","properties":{},"geometry":{"type":"LineString","coordinates":[[18.98414,57.87196],[18.98376,57.87188],[18.9837,57.87151],[18.98312,57.87149],[18.98222,57.87139],[18.98139,57.87133],[18.98061,57.8714],[18.97963,57.87151],[18.97902,57.87167],[18.97836,57.87208],[18.97741,57.87211],[18.97693,57.87199],[18.97622,57.87175],[18.97561,57.87169],[18.9748,57.87176],[18.97408,57.87174],[18.97333,57.87183],[18.97278,57.87209],[18.97212,57.872],[18.97206,57.87184],[18.97155,57.87168],[18.97104,57.87136],[18.9706,57.87093],[18.96996,57.87047],[18.97004,57.8703],[18.97034,57.86986],[18.97059,57.86951],[18.97115,57.86921],[18.97165,57.86893],[18.97229,57.86917],[18.97306,57.86928],[18.97404,57.86919],[18.97496,57.86931],[18.9754,57.86943],[18.97585,57.86929],[18.97659,57.86909],[18.97704,57.86897],[18.97691,57.86878],[18.97702,57.86875],[18.97727,57.86869],[18.97693,57.86885],[18.97697,57.86914],[18.97746,57.86919],[18.97769,57.86906],[18.97818,57.86884],[18.97825,57.86847],[18.9779,57.86836],[18.9771,57.86819],[18.97637,57.86808],[18.97564,57.86771],[18.97493,57.86753],[18.97433,57.8673],[18.97437,57.86687],[18.97456,57.86646],[18.97465,57.86598],[18.97421,57.86582],[18.97356,57.86561],[18.97313,57.86547],[18.97269,57.86537],[18.97296,57.86537],[18.97373,57.86543],[18.97466,57.86545],[18.97527,57.86552],[18.97604,57.86563],[18.97682,57.86569],[18.97735,57.8657],[18.97812,57.86561],[18.97853,57.86558],[18.97913,57.86562],[18.9796,57.86569],[18.98015,57.86577],[18.98059,57.8659],[18.98131,57.8659],[18.9823,57.86559],[18.98274,57.86549],[18.98339,57.86528],[18.98398,57.86516],[18.98472,57.86487],[18.98557,57.86472],[18.98601,57.86445],[18.98644,57.86451],[18.98681,57.86453],[18.98767,57.8646],[18.98793,57.86477],[18.98829,57.86497],[18.98835,57.86542],[18.98847,57.86553],[18.98862,57.86557],[18.98892,57.86569],[18.98935,57.86586],[18.98981,57.86608],[18.99035,57.86631],[18.99088,57.86648],[18.9909,57.86678],[18.99088,57.86732],[18.9913,57.86755],[18.9913,57.86798],[18.99168,57.86847],[18.99212,57.86876],[18.99247,57.86881],[18.9931,57.86872],[18.99348,57.86889],[18.99416,57.86905],[18.99428,57.86928],[18.99414,57.86951],[18.99393,57.86979],[18.99386,57.86999],[18.99382,57.87036],[18.99382,57.87069],[18.99393,57.87081],[18.99423,57.87095],[18.99494,57.87115],[18.99524,57.87134],[18.9957,57.87153],[18.99617,57.87176],[18.99674,57.87186],[18.99696,57.872],[18.997,57.87221],[18.99707,57.87264],[18.99703,57.87302],[18.99722,57.87319],[18.99737,57.87324],[18.99792,57.87319],[18.99857,57.87324],[18.99888,57.87321],[18.99934,57.8732],[18.99965,57.87329],[18.99978,57.87337],[19.00016,57.8735],[19.00058,57.87362],[19.00075,57.8734],[19.00054,57.87346],[19.00001,57.87364],[18.99983,57.8739],[18.99978,57.87417],[18.9996,57.87435],[18.99934,57.87451],[18.99885,57.8747],[18.99865,57.87495],[18.99843,57.87523],[18.99801,57.87528],[18.99764,57.8752],[18.99736,57.87522],[18.99694,57.87541],[18.99638,57.87552],[18.99606,57.87544],[18.99539,57.87553],[18.99501,57.87543],[18.99464,57.87582],[18.99423,57.87594],[18.99397,57.87599],[18.99367,57.87601],[18.99347,57.87611],[18.99278,57.87618],[18.99238,57.87629],[18.99199,57.87632],[18.99155,57.87628],[18.99108,57.87617],[18.99049,57.87591],[18.99,57.87547],[18.98957,57.87523],[18.98989,57.87521],[18.99038,57.87506],[18.99096,57.87486],[18.99154,57.87486],[18.99223,57.87469],[18.99294,57.87463],[18.99336,57.87443],[18.99359,57.87424],[18.99376,57.87418],[18.99417,57.87403],[18.99447,57.87371],[18.99479,57.87371],[18.99504,57.87366],[18.99469,57.8735],[18.99432,57.87327],[18.99394,57.87306],[18.99348,57.87289],[18.99317,57.8727],[18.99255,57.87259],[18.99204,57.87251],[18.99149,57.87248],[18.99099,57.87233],[18.99099,57.87189],[18.99166,57.87164],[18.99135,57.87171],[18.99065,57.87196],[18.99021,57.87217],[18.98958,57.87242],[18.98883,57.87273],[18.98817,57.87308],[18.98751,57.87334],[18.98694,57.87363],[18.98604,57.87373],[18.98514,57.87373],[18.98422,57.8736],[18.98455,57.87406],[18.98407,57.87468],[18.98399,57.87483],[18.98398,57.87502]]}}