{"type":"Feature","properties":{},"geometry":{"type":"LineString","coordinates":[[13.2873,56.26877],[13.2878,56.26817],[13.2874,56.26796],[13.28691,56.2678],[13.28646,56.26772],[13.28611,56.26746],[13.28604,56.26719],[13.286,56.26682],[13.28585,56.2664],[13.28534,56.26618],[13.28491,56.26615],[13.28438,56.2661],[13.28404,56.26606],[13.28371,56.26593],[13.28333,56.26577],[13.28326,56.26569],[13.28316,56.26541],[13.28301,56.26514],[13.28274,56.26495],[13.28238,56.26475],[13.28244,56.26457],[13.28269,56.26439],[13.28283,56.26424],[13.28271,56.26404],[13.28309,56.26392],[13.28324,56.26379],[13.28336,56.26364],[13.28344,56.26343],[13.28356,56.26345],[13.28399,56.26344],[13.28465,56.26343],[13.28494,56.26327],[13.28516,56.26323],[13.2855,56.2632],[13.28594,56.26303],[13.2862,56.26293],[13.28624,56.26312],[13.28641,56.2634],[13.28671,56.26366],[13.28666,56.2638],[13.28626,56.2638],[13.28572,56.26397],[13.28515,56.26399],[13.28474,56.26402],[13.28441,56.26404],[13.28436,56.26391],[13.28437,56.26374],[13.28425,56.26358],[13.28399,56.26336],[13.2836,56.26325],[13.28345,56.26318],[13.28358,56.26292],[13.28377,56.26273],[13.28409,56.26252],[13.28419,56.26223],[13.28416,56.26206],[13.28403,56.26194],[13.28349,56.2618],[13.28317,56.2618],[13.2828,56.26182],[13.2825,56.2619],[13.28223,56.26188],[13.28191,56.26197],[13.28167,56.26216],[13.28189,56.26232],[13.28224,56.26254],[13.28263,56.26269],[13.2831,56.26287],[13.28325,56.26317],[13.28329,56.26336],[13.28322,56.26341],[13.28295,56.26349],[13.2826,56.26366],[13.28238,56.26389],[13.28204,56.26399],[13.2815,56.26403],[13.28124,56.26417],[13.28095,56.26439],[13.28086,56.26462],[13.28073,56.26482],[13.28047,56.26487],[13.28034,56.26488],[13.2803,56.26485],[13.28015,56.2648],[13.27989,56.26478],[13.27955,56.26477],[13.2792,56.26464],[13.27885,56.26458],[13.27865,56.26451],[13.27842,56.26443],[13.27804,56.26474],[13.27774,56.26509],[13.2775,56.26546],[13.27697,56.26569],[13.27636,56.26582],[13.27578,56.26598],[13.27551,56.26631],[13.27559,56.26661],[13.27525,56.26676],[13.27514,56.2669],[13.27515,56.26705],[13.27505,56.2673],[13.27494,56.26745],[13.27492,56.26776],[13.27483,56.26795],[13.27497,56.26811],[13.27508,56.26826],[13.27517,56.26854],[13.2752,56.26872],[13.27511,56.26882],[13.27503,56.2691],[13.27491,56.2694],[13.2748,56.26951],[13.2748,56.26974],[13.27508,56.26989],[13.27505,56.27007],[13.27499,56.27029],[13.27518,56.27046],[13.27539,56.2705],[13.27587,56.27049],[13.27615,56.27057],[13.27597,56.2708],[13.27602,56.27103],[13.27623,56.27114],[13.27645,56.27113],[13.27678,56.27123],[13.27696,56.27144],[13.27718,56.27154],[13.27727,56.27163],[13.27741,56.27187],[13.27759,56.27204],[13.27743,56.27208],[13.27711,56.27232],[13.27687,56.2725],[13.27655,56.27264],[13.27626,56.27272],[13.2761,56.27277],[13.27602,56.27288],[13.27565,56.27293],[13.27549,56.2729],[13.27548,56.27275],[13.27527,56.27259],[13.275,56.27241],[13.27451,56.27233],[13.27403,56.27236],[13.27335,56.2725],[13.27318,56.27241],[13.27289,56.27232],[13.27265,56.27224],[13.27246,56.2722],[13.27238,56.27211],[13.27242,56.272],[13.27234,56.27193],[13.27214,56.272],[13.27194,56.27209],[13.27154,56.27213],[13.27103,56.27208],[13.27077,56.27206],[13.27028,56.27201],[13.26968,56.27206],[13.26932,56.2722],[13.2691,56.27239],[13.26888,56.27233],[13.2687,56.27236],[13.26837,56.27246],[13.26807,56.27251],[13.26792,56.27273],[13.26776,56.27289],[13.26722,56.27286],[13.26689,56.27294],[13.26673,56.27307],[13.26649,56.27315],[13.26621,56.27321],[13.26586,56.27333],[13.26551,56.27333],[13.2651,56.27337],[13.26478,56.27351],[13.2644,56.27348],[13.26417,56.27347],[13.26381,56.27344],[13.26367,56.27351],[13.26348,56.27374],[13.26337,56.27397],[13.26331,56.27439],[13.26312,56.27478],[13.26318,56.27515],[13.26373,56.27513],[13.26419,56.27518],[13.26462,56.27523],[13.26471,56.27526],[13.26482,56.27532],[13.26526,56.27544],[13.2657,56.27561],[13.26584,56.27594],[13.2657,56.27635],[13.26552,56.27676],[13.26531,56.27718],[13.26525,56.27761],[13.26529,56.27789],[13.26521,56.27804]]}}