{"type":"Feature","properties":{},"geometry":{"type":"LineString","coordinates":[[13.01482,55.55514],[13.01503,55.55514],[13.01515,55.55511],[13.01543,55.55481],[13.0156,55.55454],[13.01613,55.55448],[13.01639,55.55432],[13.01634,55.55403],[13.01605,55.55379],[13.01561,55.55377],[13.01512,55.55376],[13.01487,55.55354],[13.0148,55.55327],[13.01475,55.55305],[13.01469,55.55279],[13.01481,55.55259],[13.01522,55.55248],[13.01554,55.5524],[13.01597,55.55235],[13.01646,55.55234],[13.01679,55.5523],[13.01716,55.55218],[13.01755,55.55197],[13.01786,55.5518],[13.01831,55.55166],[13.01867,55.55148],[13.01922,55.55139],[13.01977,55.55132],[13.02021,55.55123],[13.02059,55.55109],[13.02065,55.55083],[13.02049,55.55059],[13.02056,55.55049],[13.02096,55.55048],[13.02135,55.55049],[13.02108,55.55047],[13.02065,55.55049],[13.02031,55.55038],[13.01984,55.55026],[13.01938,55.55012],[13.01886,55.55018],[13.01848,55.55035],[13.01822,55.55045],[13.01804,55.55061],[13.01759,55.55067],[13.01713,55.55072],[13.01673,55.55085],[13.01642,55.55092],[13.01619,55.55096],[13.01623,55.55093],[13.01619,55.55094],[13.01602,55.55084],[13.01611,55.55076],[13.01609,55.5508],[13.01623,55.55098],[13.01642,55.55078],[13.01646,55.55072],[13.01639,55.55087],[13.01619,55.55097],[13.01596,55.55096],[13.01572,55.55087],[13.01545,55.55085],[13.01544,55.55095],[13.01539,55.55112],[13.01509,55.55087],[13.01477,55.55065],[13.01432,55.55053],[13.01406,55.55023],[13.01375,55.54999],[13.01332,55.54984],[13.01318,55.54969],[13.01331,55.54956],[13.01367,55.54966],[13.014,55.54982],[13.0143,55.54984],[13.01456,55.5499],[13.01433,55.54985],[13.01393,55.54983],[13.01359,55.54964],[13.01326,55.54947],[13.01303,55.54923],[13.013,55.5491],[13.01296,55.54901],[13.01308,55.54895],[13.01322,55.54892],[13.01323,55.54892],[13.01306,55.54896],[13.01293,55.54907],[13.01306,55.5493],[13.01327,55.54944],[13.01358,55.54946],[13.01413,55.5495],[13.0146,55.54948],[13.01509,55.54948],[13.01543,55.54958],[13.01587,55.54956],[13.01627,55.54971],[13.01643,55.54992],[13.01646,55.55012],[13.01664,55.55012],[13.01676,55.55011],[13.01685,55.55007],[13.017,55.55007],[13.01714,55.55007],[13.01733,55.54995],[13.01744,55.54978],[13.01759,55.54966],[13.01796,55.54951],[13.01836,55.54935],[13.0188,55.54927],[13.0191,55.54933],[13.01934,55.54947],[13.01948,55.54957],[13.01982,55.54956],[13.02027,55.54962],[13.02082,55.54967],[13.0213,55.54973],[13.02174,55.54979],[13.0222,55.5499],[13.02261,55.54994],[13.02295,55.54997],[13.02312,55.54998],[13.02316,55.54998],[13.02322,55.55001],[13.02331,55.55005],[13.02328,55.55006],[13.02328,55.55005],[13.02342,55.55002],[13.02354,55.55007],[13.02371,55.5502],[13.02383,55.55035],[13.02386,55.55036],[13.02365,55.55041],[13.0235,55.55057],[13.02327,55.55075],[13.02315,55.55085],[13.02288,55.55101],[13.02247,55.55102],[13.02227,55.55123],[13.02213,55.55144],[13.02204,55.55159],[13.02204,55.55167],[13.02184,55.5519],[13.02162,55.55208],[13.02144,55.55225],[13.02122,55.55244],[13.02131,55.55267],[13.0213,55.55278],[13.02129,55.55284],[13.02144,55.55265],[13.02192,55.55255],[13.02208,55.55256],[13.02211,55.55258],[13.02205,55.55263],[13.02214,55.55279],[13.02258,55.55279],[13.02274,55.55283],[13.0226,55.55282],[13.02242,55.55277],[13.02209,55.5528],[13.02193,55.55301],[13.0215,55.55311],[13.02104,55.55317],[13.02056,55.55321],[13.02017,55.55321],[13.01977,55.55327],[13.01937,55.55337],[13.01917,55.55339],[13.01896,55.5534],[13.01892,55.55347],[13.01888,55.55358],[13.01892,55.55372],[13.01885,55.55384],[13.01889,55.55398],[13.01905,55.55411],[13.01889,55.55417],[13.01842,55.55418],[13.01811,55.55417],[13.01815,55.55399],[13.01803,55.55397],[13.01797,55.55409],[13.01802,55.5542],[13.01832,55.55427],[13.01856,55.55446],[13.01856,55.55475],[13.0187,55.55496],[13.01868,55.55518],[13.01864,55.5554],[13.01865,55.55541],[13.01842,55.5554],[13.01802,55.55551],[13.0175,55.55553],[13.01704,55.55545],[13.01678,55.55532],[13.01647,55.55531],[13.01638,55.55515],[13.01589,55.55516],[13.01534,55.55517],[13.01485,55.55515],[13.01475,55.55518]]}}