{"type":"Feature","properties":{},"geometry":{"type":"LineString","coordinates":[[13.23805,55.51364],[13.2383,55.51367],[13.23862,55.51363],[13.23878,55.51358],[13.23879,55.51347],[13.23877,55.51322],[13.23875,55.51297],[13.23887,55.51279],[13.23925,55.51274],[13.2397,55.5127],[13.24027,55.51266],[13.24079,55.51264],[13.24114,55.51264],[13.24157,55.51264],[13.242,55.51261],[13.24252,55.51258],[13.2428,55.51263],[13.24288,55.51284],[13.24297,55.51306],[13.24343,55.51315],[13.24378,55.51323],[13.24411,55.51331],[13.24406,55.51308],[13.24398,55.51285],[13.24382,55.51265],[13.24341,55.51254],[13.24329,55.51226],[13.24334,55.51206],[13.24331,55.51188],[13.24309,55.51178],[13.24329,55.51174],[13.24314,55.51168],[13.24287,55.51167],[13.24287,55.51144],[13.24298,55.51123],[13.24334,55.51131],[13.24356,55.51137],[13.24322,55.5112],[13.2428,55.51111],[13.24224,55.51111],[13.24177,55.51109],[13.2413,55.51107],[13.2411,55.51107],[13.2407,55.51103],[13.24034,55.51102],[13.23976,55.51105],[13.23924,55.51121],[13.23884,55.51137],[13.23851,55.51146],[13.23818,55.51129],[13.23787,55.51109],[13.23746,55.51116],[13.23707,55.51135],[13.23678,55.51154],[13.23643,55.51172],[13.23611,55.51167],[13.23569,55.51155],[13.23531,55.51143],[13.23482,55.51134],[13.23438,55.51129],[13.23398,55.51138],[13.23376,55.51147],[13.23357,55.51172],[13.23323,55.51174],[13.23276,55.51168],[13.23232,55.51164],[13.23226,55.51159],[13.23226,55.51158],[13.23236,55.51139],[13.2326,55.51118],[13.23286,55.51096],[13.23299,55.51073],[13.23332,55.51058],[13.23353,55.51042],[13.23366,55.51018],[13.23391,55.51003],[13.23431,55.50985],[13.23464,55.50969],[13.23458,55.50949],[13.23452,55.5093],[13.2346,55.50911],[13.23441,55.50917],[13.23424,55.50927],[13.2343,55.50941],[13.23443,55.50965],[13.23407,55.50975],[13.23363,55.50982],[13.23329,55.50991],[13.23284,55.50996],[13.23239,55.51005],[13.23197,55.51013],[13.23161,55.51024],[13.23131,55.51042],[13.2311,55.51063],[13.23093,55.51063],[13.23099,55.51083],[13.23078,55.51088],[13.23057,55.51092],[13.23034,55.51098],[13.2301,55.511],[13.22985,55.5109],[13.2296,55.51087],[13.22961,55.51099],[13.22976,55.51106],[13.2298,55.51113],[13.22971,55.51125],[13.22967,55.51137],[13.22963,55.51149],[13.22959,55.5116],[13.22943,55.51173],[13.2292,55.51185],[13.22902,55.51196],[13.22876,55.51201],[13.22855,55.51209],[13.22835,55.51217],[13.22818,55.51233],[13.22815,55.51255],[13.22812,55.51276],[13.2282,55.51289],[13.22827,55.51301],[13.22835,55.51316],[13.22838,55.5133],[13.22856,55.51331],[13.2287,55.51328],[13.22875,55.51326],[13.22898,55.51326],[13.2292,55.51324],[13.22945,55.51324],[13.2296,55.51317],[13.22972,55.51306],[13.22987,55.51299],[13.23007,55.51291],[13.23019,55.51279],[13.23028,55.51264],[13.2303,55.51251],[13.23031,55.51238],[13.23029,55.51226],[13.23029,55.51215],[13.2304,55.51208],[13.23065,55.51206],[13.23086,55.51202],[13.23093,55.51201],[13.23099,55.51204],[13.2312,55.51204],[13.23134,55.51208],[13.23138,55.51218],[13.23142,55.51228],[13.23139,55.5124],[13.23138,55.51253],[13.23142,55.51268],[13.23151,55.5128],[13.23174,55.51281],[13.23199,55.51285],[13.23223,55.51286],[13.23242,55.51279],[13.23242,55.51272],[13.23259,55.51279],[13.23275,55.51284],[13.23283,55.51294],[13.23284,55.51307],[13.23284,55.51316],[13.23265,55.51319],[13.23242,55.51322],[13.23222,55.51329],[13.23212,55.51338],[13.2322,55.51339],[13.23235,55.51335],[13.23261,55.51332],[13.23287,55.51329],[13.2331,55.51328],[13.23333,55.51326],[13.23358,55.51324],[13.23382,55.51319],[13.23402,55.51317],[13.23427,55.51312],[13.2345,55.51309],[13.23457,55.51299],[13.23452,55.51291],[13.23466,55.51292],[13.23488,55.51294],[13.23512,55.51295],[13.23531,55.51297],[13.23554,55.51297],[13.23578,55.51296],[13.23601,55.51294],[13.23621,55.51293],[13.23643,55.51292],[13.23661,55.51293],[13.23678,55.51293],[13.2369,55.51299],[13.23693,55.51312],[13.23696,55.51326],[13.23699,55.51338],[13.23702,55.5135],[13.23711,55.51362],[13.23716,55.51372],[13.23724,55.51384],[13.23727,55.51386],[13.23726,55.51388],[13.23723,55.5139]]}}