{"type":"Feature","properties":{},"geometry":{"type":"LineString","coordinates":[[13.21217,55.56044],[13.21212,55.56035],[13.21189,55.55995],[13.21112,55.55989],[13.21028,55.56001],[13.20953,55.5602],[13.20886,55.56049],[13.20837,55.56081],[13.20817,55.56064],[13.20761,55.56077],[13.20717,55.56052],[13.20665,55.5604],[13.20671,55.56033],[13.20698,55.56007],[13.20739,55.5599],[13.20767,55.55956],[13.20776,55.55926],[13.20788,55.55918],[13.20803,55.55898],[13.2084,55.55869],[13.20854,55.55842],[13.20861,55.5583],[13.20855,55.55797],[13.20842,55.5577],[13.20801,55.55742],[13.20761,55.55707],[13.20766,55.55669],[13.20767,55.5564],[13.2079,55.55615],[13.20794,55.55578],[13.2079,55.55561],[13.20808,55.55554],[13.20804,55.55534],[13.2076,55.55537],[13.20749,55.55553],[13.20726,55.55569],[13.20728,55.5558],[13.20721,55.55585],[13.20758,55.5558],[13.20792,55.55566],[13.20809,55.55529],[13.20811,55.55509],[13.2077,55.5548],[13.20764,55.55444],[13.20772,55.55419],[13.2075,55.55388],[13.20733,55.55364],[13.20667,55.55348],[13.20623,55.55316],[13.20579,55.55284],[13.20571,55.55251],[13.20568,55.55212],[13.20537,55.55188],[13.20547,55.55162],[13.20496,55.55135],[13.20449,55.55106],[13.2044,55.55088],[13.20427,55.55065],[13.20401,55.55037],[13.20395,55.55],[13.20386,55.54966],[13.20391,55.54935],[13.20406,55.54909],[13.20414,55.5488],[13.20417,55.54853],[13.20412,55.54854],[13.20452,55.54872],[13.20518,55.54854],[13.20584,55.54836],[13.20627,55.54801],[13.20674,55.54775],[13.20731,55.54767],[13.2079,55.54769],[13.20851,55.54755],[13.20908,55.54753],[13.20971,55.54746],[13.21031,55.54728],[13.21078,55.54698],[13.21124,55.54661],[13.21121,55.54621],[13.21096,55.54585],[13.21098,55.54571],[13.2111,55.54541],[13.21131,55.54531],[13.21161,55.54508],[13.2117,55.54474],[13.21191,55.54452],[13.21203,55.54447],[13.21224,55.54425],[13.2125,55.54411],[13.21277,55.54412],[13.213,55.54416],[13.21336,55.54429],[13.21364,55.54442],[13.2143,55.54447],[13.21472,55.54459],[13.21535,55.54473],[13.21585,55.54486],[13.21602,55.54501],[13.21635,55.54506],[13.21696,55.54514],[13.21761,55.54507],[13.21773,55.54497],[13.21762,55.54503],[13.21753,55.54509],[13.21757,55.54536],[13.21797,55.54572],[13.21854,55.54591],[13.21873,55.54608],[13.2191,55.54615],[13.21979,55.54611],[13.21999,55.54638],[13.22009,55.54676],[13.2203,55.54704],[13.22031,55.54724],[13.2204,55.5474],[13.22048,55.54756],[13.22058,55.54782],[13.22066,55.54806],[13.22077,55.54825],[13.22106,55.54808],[13.2213,55.54793],[13.22185,55.54781],[13.22238,55.54774],[13.22279,55.54777],[13.22331,55.54778],[13.22361,55.54778],[13.22359,55.54795],[13.22343,55.54824],[13.22352,55.54853],[13.22378,55.54883],[13.2237,55.54908],[13.22354,55.54944],[13.22325,55.54976],[13.22288,55.55006],[13.22276,55.55032],[13.22283,55.55055],[13.22308,55.55081],[13.2238,55.55097],[13.22392,55.55122],[13.22383,55.55146],[13.22381,55.55176],[13.22389,55.55209],[13.22397,55.55235],[13.22406,55.55268],[13.224,55.55298],[13.22391,55.55327],[13.22375,55.55346],[13.22354,55.55358],[13.22307,55.55378],[13.22245,55.55381],[13.22183,55.55387],[13.2215,55.55395],[13.22113,55.55404],[13.2209,55.55422],[13.2206,55.55426],[13.22027,55.55434],[13.22006,55.55448],[13.21978,55.5545],[13.2195,55.55458],[13.21938,55.55481],[13.21904,55.55515],[13.21867,55.55531],[13.21837,55.55541],[13.2182,55.55552],[13.21882,55.55561],[13.2194,55.55572],[13.21941,55.55584],[13.2195,55.55618],[13.22021,55.5563],[13.22052,55.55645],[13.22066,55.55646],[13.22118,55.55658],[13.22165,55.5567],[13.22199,55.55662],[13.22256,55.55668],[13.2227,55.55681],[13.22277,55.55705],[13.2226,55.55729],[13.22235,55.55758],[13.22199,55.55784],[13.22179,55.55804],[13.22144,55.55827],[13.22124,55.55838],[13.22101,55.55843],[13.22066,55.55871],[13.22007,55.55892],[13.21938,55.55907],[13.21894,55.55918],[13.21849,55.55935],[13.21808,55.55955],[13.21768,55.55977],[13.21726,55.55979],[13.21642,55.55993],[13.21568,55.56009],[13.21522,55.56037],[13.21492,55.56071],[13.21437,55.5607],[13.21366,55.56083],[13.21255,55.56057]]}}