{"type":"Feature","properties":{},"geometry":{"type":"LineString","coordinates":[[14.21469,55.83724],[14.21511,55.83713],[14.21561,55.83701],[14.21599,55.83686],[14.21606,55.83664],[14.21626,55.83637],[14.21642,55.83601],[14.21651,55.83571],[14.21696,55.8355],[14.21726,55.83538],[14.21732,55.83509],[14.21676,55.83516],[14.21643,55.83504],[14.21614,55.83493],[14.21577,55.8347],[14.21576,55.83447],[14.21589,55.83419],[14.21624,55.834],[14.21608,55.83391],[14.21574,55.83388],[14.21543,55.83382],[14.21498,55.83374],[14.21513,55.83362],[14.21571,55.83356],[14.2162,55.83328],[14.21689,55.83312],[14.21734,55.83293],[14.21772,55.83275],[14.2182,55.83239],[14.21868,55.83213],[14.21908,55.83186],[14.21949,55.83182],[14.22011,55.83169],[14.22047,55.83136],[14.22026,55.8309],[14.21998,55.83047],[14.21972,55.83007],[14.21957,55.82966],[14.21943,55.82937],[14.2193,55.82916],[14.21906,55.82909],[14.21865,55.82898],[14.21837,55.82912],[14.21824,55.82933],[14.21798,55.8293],[14.21744,55.82923],[14.21708,55.82909],[14.21668,55.82915],[14.21664,55.82927],[14.21632,55.82934],[14.21594,55.82943],[14.2156,55.82953],[14.2154,55.82961],[14.21511,55.82971],[14.21473,55.82987],[14.21435,55.82992],[14.21408,55.83],[14.21375,55.83015],[14.21337,55.83035],[14.21335,55.83052],[14.21323,55.83069],[14.21317,55.83084],[14.21328,55.83099],[14.21356,55.831],[14.21369,55.83112],[14.21398,55.83135],[14.21418,55.83145],[14.21422,55.83138],[14.2142,55.83137],[14.2141,55.83136],[14.21382,55.83153],[14.21363,55.83166],[14.2131,55.83178],[14.21289,55.83196],[14.21296,55.83198],[14.21308,55.83188],[14.21304,55.83163],[14.21292,55.83133],[14.21298,55.83119],[14.21307,55.83092],[14.21339,55.83078],[14.21348,55.83065],[14.21365,55.83054],[14.21341,55.8305],[14.21286,55.8304],[14.21226,55.83032],[14.21185,55.83018],[14.21142,55.83008],[14.21089,55.83006],[14.21071,55.83018],[14.21035,55.8304],[14.21019,55.8307],[14.20974,55.83102],[14.20975,55.83137],[14.20984,55.83163],[14.20991,55.83189],[14.20992,55.8323],[14.20971,55.83258],[14.20983,55.83268],[14.21014,55.83277],[14.21076,55.83294],[14.21119,55.83303],[14.21156,55.83325],[14.21204,55.83348],[14.2123,55.83347],[14.21256,55.83336],[14.21298,55.83323],[14.21329,55.83308],[14.21352,55.83299],[14.21375,55.83292],[14.21399,55.83272],[14.214,55.8326],[14.21405,55.83264],[14.21412,55.83269],[14.21461,55.83284],[14.21521,55.83288],[14.21595,55.83298],[14.21663,55.83295],[14.21744,55.83293],[14.2181,55.83302],[14.21836,55.83321],[14.2187,55.83336],[14.219,55.83362],[14.21968,55.83372],[14.21994,55.83366],[14.2201,55.83361],[14.22036,55.83362],[14.22052,55.83355],[14.22006,55.83356],[14.21972,55.83341],[14.21947,55.83343],[14.21932,55.83329],[14.21899,55.83323],[14.21935,55.83321],[14.21966,55.83325],[14.22015,55.83321],[14.22067,55.83303],[14.221,55.83297],[14.22105,55.83289],[14.22084,55.83274],[14.22103,55.8328],[14.22145,55.83306],[14.22173,55.83348],[14.22195,55.83385],[14.22199,55.83418],[14.22145,55.83431],[14.22128,55.83438],[14.22107,55.8347],[14.2211,55.83503],[14.22123,55.83518],[14.22137,55.83546],[14.22155,55.83564],[14.22146,55.83577],[14.22157,55.83593],[14.22177,55.83623],[14.22187,55.83643],[14.22204,55.83661],[14.2224,55.83686],[14.22262,55.83717],[14.22275,55.83733],[14.22295,55.83759],[14.22331,55.83778],[14.2237,55.83801],[14.22394,55.83813],[14.2242,55.83841],[14.22427,55.8386],[14.22442,55.83887],[14.22426,55.83908],[14.22352,55.83932],[14.22303,55.83954],[14.22257,55.83989],[14.22232,55.84025],[14.22243,55.84041],[14.22272,55.84059],[14.22281,55.84081],[14.22266,55.8411],[14.2225,55.84142],[14.22235,55.84157],[14.22229,55.84169],[14.22158,55.84181],[14.22077,55.8419],[14.22031,55.84194],[14.21988,55.84198],[14.21938,55.84196],[14.21901,55.84188],[14.21854,55.8418],[14.21817,55.84173],[14.21763,55.84156],[14.21702,55.84144],[14.21652,55.84145],[14.21612,55.84143],[14.21597,55.84132],[14.21587,55.84166],[14.21591,55.84195],[14.216,55.84234],[14.21574,55.84272],[14.21527,55.84288],[14.21457,55.84298],[14.21475,55.84321],[14.21503,55.84333]]}}