{"type":"Feature","properties":{},"geometry":{"type":"LineString","coordinates":[[13.2129,55.56256],[13.21306,55.56209],[13.21341,55.56158],[13.2134,55.56104],[13.21253,55.56079],[13.21179,55.56067],[13.2112,55.56102],[13.21073,55.56126],[13.21067,55.56131],[13.21063,55.5613],[13.21073,55.56131],[13.21073,55.56128],[13.21066,55.56133],[13.21065,55.56135],[13.21066,55.5613],[13.21078,55.56124],[13.21018,55.56125],[13.20956,55.56119],[13.20927,55.56111],[13.20892,55.56099],[13.20828,55.56097],[13.20777,55.56106],[13.20694,55.56108],[13.20646,55.56104],[13.20576,55.56102],[13.20491,55.56109],[13.20452,55.56124],[13.2044,55.56137],[13.20424,55.56138],[13.20397,55.56176],[13.20382,55.56198],[13.20359,55.56234],[13.20361,55.56256],[13.20304,55.56261],[13.20252,55.56295],[13.20238,55.5632],[13.20236,55.56365],[13.20231,55.5639],[13.20235,55.56412],[13.20215,55.56432],[13.20194,55.56464],[13.20201,55.56484],[13.20211,55.56521],[13.20219,55.56532],[13.20194,55.56505],[13.20147,55.56472],[13.20118,55.56456],[13.20074,55.56423],[13.20003,55.5641],[13.19944,55.564],[13.1993,55.5639],[13.19934,55.56361],[13.19925,55.56321],[13.19895,55.56292],[13.19887,55.56283],[13.1992,55.56268],[13.19962,55.56267],[13.19996,55.5627],[13.20031,55.56261],[13.20046,55.56211],[13.20029,55.56153],[13.20038,55.56131],[13.2007,55.56097],[13.20097,55.56072],[13.20121,55.56036],[13.20138,55.5601],[13.20159,55.55989],[13.20226,55.55968],[13.20268,55.55963],[13.20277,55.55931],[13.2026,55.55879],[13.20256,55.55878],[13.20278,55.55875],[13.2034,55.55858],[13.20408,55.55837],[13.20447,55.5583],[13.20492,55.55818],[13.20492,55.55805],[13.2049,55.55823],[13.20486,55.55841],[13.20505,55.55864],[13.20577,55.55874],[13.20677,55.55873],[13.20762,55.55844],[13.2082,55.55803],[13.20879,55.55777],[13.20983,55.55749],[13.21048,55.55703],[13.21032,55.55659],[13.20963,55.55646],[13.20944,55.55632],[13.20924,55.55618],[13.20949,55.55583],[13.20955,55.55562],[13.20963,55.55547],[13.20978,55.55508],[13.21003,55.55483],[13.20982,55.55458],[13.21,55.55434],[13.21012,55.55418],[13.21042,55.55409],[13.21118,55.554],[13.21168,55.55422],[13.21203,55.55421],[13.21189,55.5541],[13.21135,55.55421],[13.2109,55.55407],[13.20999,55.55402],[13.20899,55.5541],[13.20799,55.55422],[13.20743,55.55462],[13.2074,55.5549],[13.20752,55.55514],[13.20727,55.55532],[13.20685,55.55556],[13.2069,55.55565],[13.20674,55.5558],[13.20705,55.55631],[13.20747,55.55661],[13.20743,55.55709],[13.20786,55.55738],[13.20818,55.55772],[13.20857,55.55786],[13.20878,55.55811],[13.20933,55.5584],[13.20963,55.55838],[13.20963,55.55844],[13.20991,55.55847],[13.21054,55.55835],[13.21088,55.55837],[13.21153,55.55846],[13.21189,55.55839],[13.21224,55.5584],[13.21263,55.55837],[13.21312,55.55845],[13.21373,55.55858],[13.21414,55.5587],[13.21476,55.55892],[13.21528,55.5593],[13.21594,55.5593],[13.21651,55.55924],[13.21685,55.55923],[13.2172,55.55934],[13.21762,55.55937],[13.21784,55.55955],[13.21835,55.55974],[13.21893,55.55969],[13.2195,55.55962],[13.22,55.55961],[13.22061,55.55957],[13.22127,55.55958],[13.22193,55.55972],[13.22226,55.55967],[13.22274,55.55951],[13.22306,55.55938],[13.22351,55.5591],[13.2242,55.55882],[13.22448,55.55864],[13.22423,55.55839],[13.22369,55.55803],[13.22314,55.55774],[13.22268,55.55752],[13.22263,55.5573],[13.2225,55.55702],[13.22221,55.55683],[13.222,55.55668],[13.22206,55.55656],[13.22195,55.5564],[13.22158,55.55624],[13.22113,55.55626],[13.22073,55.55624],[13.2202,55.55646],[13.21982,55.55657],[13.21954,55.55645],[13.21923,55.55638],[13.21893,55.55658],[13.21822,55.55667],[13.21775,55.55677],[13.21733,55.55685],[13.21642,55.55665],[13.21565,55.55634],[13.21495,55.55594],[13.21466,55.55551],[13.21435,55.55552],[13.21419,55.55569],[13.21456,55.55608],[13.21477,55.55633],[13.21486,55.55649],[13.21461,55.55676],[13.21403,55.55677],[13.21351,55.55697],[13.21286,55.55736],[13.21229,55.55749],[13.21217,55.55748],[13.212,55.55785],[13.21154,55.55839],[13.2109,55.55881],[13.21031,55.55925],[13.21096,55.55975],[13.21215,55.56055]]}}