{"type":"Feature","properties":{},"geometry":{"type":"LineString","coordinates":[[15.09719,65.85691],[15.09704,65.857],[15.09683,65.85708],[15.09684,65.85709],[15.09709,65.85697],[15.09726,65.85695],[15.09724,65.85695],[15.09722,65.85694],[15.09722,65.85695],[15.0972,65.85693],[15.09718,65.85691],[15.09709,65.85689],[15.09709,65.85689],[15.09726,65.85689],[15.09736,65.85679],[15.09744,65.85665],[15.09763,65.85648],[15.09793,65.85613],[15.09819,65.85577],[15.09833,65.85537],[15.09823,65.85491],[15.0983,65.8546],[15.0983,65.85433],[15.09826,65.85401],[15.09848,65.85374],[15.09852,65.85352],[15.09863,65.85322],[15.09864,65.85298],[15.09879,65.85264],[15.0991,65.85227],[15.09939,65.85186],[15.09957,65.85146],[15.09963,65.85111],[15.09949,65.8509],[15.09953,65.85058],[15.09973,65.85023],[15.10001,65.84982],[15.09994,65.8494],[15.0998,65.84906],[15.09957,65.84864],[15.09953,65.84822],[15.09901,65.84786],[15.09849,65.84749],[15.09798,65.84716],[15.09791,65.84697],[15.09743,65.84664],[15.09706,65.84624],[15.0968,65.8459],[15.09631,65.84568],[15.09556,65.8454],[15.09559,65.84498],[15.09545,65.8446],[15.09563,65.84427],[15.09572,65.84395],[15.09566,65.84357],[15.09586,65.8433],[15.09586,65.84302],[15.09565,65.84274],[15.09543,65.84247],[15.09527,65.84205],[15.09538,65.84162],[15.0953,65.8412],[15.0955,65.84083],[15.09549,65.84041],[15.09528,65.84009],[15.09534,65.83988],[15.09554,65.8398],[15.09555,65.83979],[15.09568,65.83972],[15.09596,65.8395],[15.09589,65.83913],[15.09574,65.8387],[15.09592,65.83828],[15.09609,65.83785],[15.09619,65.8375],[15.09604,65.83723],[15.09586,65.83684],[15.09584,65.8366],[15.09551,65.83629],[15.09539,65.83608],[15.09539,65.83601],[15.09541,65.836],[15.09542,65.83599],[15.09544,65.83598],[15.09545,65.83598],[15.09546,65.83597],[15.09548,65.83596],[15.09551,65.83595],[15.096,65.83564],[15.09644,65.83532],[15.09706,65.83509],[15.0972,65.83506],[15.09785,65.83497],[15.09847,65.83472],[15.09899,65.83437],[15.09931,65.83397],[15.09954,65.83356],[15.09971,65.83316],[15.10008,65.83293],[15.10083,65.83274],[15.10095,65.83246],[15.10118,65.8321],[15.10116,65.83182],[15.1011,65.8315],[15.10098,65.83121],[15.10074,65.831],[15.10092,65.83074],[15.10075,65.83037],[15.1005,65.83007],[15.10035,65.82977],[15.10013,65.8294],[15.09968,65.82908],[15.0998,65.82875],[15.10019,65.82839],[15.10068,65.82795],[15.10117,65.82758],[15.10154,65.82722],[15.10209,65.82693],[15.10245,65.82654],[15.10303,65.82634],[15.10351,65.82607],[15.10398,65.82579],[15.10424,65.82553],[15.10439,65.8253],[15.10468,65.82503],[15.10486,65.82475],[15.10479,65.82435],[15.10523,65.82395],[15.10523,65.8236],[15.10576,65.82324],[15.10564,65.82296],[15.10618,65.82272],[15.10685,65.82252],[15.10717,65.82218],[15.10765,65.82185],[15.10813,65.82153],[15.10901,65.82124],[15.10976,65.82098],[15.11015,65.82082],[15.11085,65.8208],[15.11166,65.82068],[15.11212,65.82034],[15.11246,65.82002],[15.113,65.81977],[15.11355,65.81952],[15.11415,65.81924],[15.11482,65.81898],[15.11565,65.819],[15.11636,65.81879],[15.1171,65.81861],[15.11781,65.81841],[15.1186,65.81819],[15.11934,65.81798],[15.11989,65.81763],[15.12001,65.81728],[15.12,65.81689],[15.1199,65.81654],[15.11934,65.81622],[15.11883,65.81598],[15.11843,65.81565],[15.11796,65.81525],[15.11729,65.81499],[15.11636,65.81492],[15.11522,65.8147],[15.11449,65.81473],[15.11336,65.81471],[15.11243,65.81476],[15.11144,65.81482],[15.11037,65.81489],[15.10956,65.81469],[15.10866,65.81461],[15.10757,65.81461],[15.10661,65.81468],[15.10555,65.8149],[15.10487,65.81489],[15.10422,65.81514],[15.104,65.81515],[15.10407,65.81518],[15.10413,65.81521],[15.10409,65.81528],[15.10305,65.81544],[15.10244,65.81529],[15.10154,65.81554],[15.10075,65.81586],[15.09973,65.81611],[15.09854,65.81629],[15.09748,65.81654],[15.09653,65.81675],[15.09578,65.81697],[15.09478,65.81719],[15.09371,65.81739],[15.09268,65.81754],[15.09162,65.81766],[15.09051,65.81768],[15.0895,65.81764],[15.08846,65.81755],[15.08737,65.81745],[15.08671,65.81733],[15.08648,65.81778],[15.08564,65.81855]]}}