{"type":"Feature","properties":{},"geometry":{"type":"LineString","coordinates":[[15.18719,65.89654],[15.18718,65.89656],[15.18722,65.89655],[15.18723,65.89648],[15.18715,65.89643],[15.18705,65.89639],[15.18702,65.89634],[15.18702,65.8963],[15.18701,65.89631],[15.18701,65.89631],[15.18701,65.89631],[15.187,65.89631],[15.187,65.89628],[15.18697,65.89628],[15.18698,65.89625],[15.18702,65.89622],[15.18719,65.89619],[15.18716,65.89611],[15.18725,65.89602],[15.18732,65.89596],[15.18738,65.89589],[15.18745,65.89579],[15.18751,65.89575],[15.18761,65.89566],[15.18766,65.89566],[15.18769,65.89565],[15.18771,65.89564],[15.18776,65.89561],[15.18778,65.89557],[15.18788,65.89549],[15.18788,65.89548],[15.18792,65.89549],[15.18813,65.89544],[15.18817,65.89543],[15.18825,65.89542],[15.18837,65.89534],[15.1883,65.89525],[15.1883,65.89525],[15.18829,65.89525],[15.18833,65.89522],[15.18835,65.89514],[15.18835,65.89514],[15.18834,65.8951],[15.18817,65.89503],[15.18809,65.89497],[15.18793,65.8949],[15.18797,65.89482],[15.18789,65.89474],[15.18795,65.89466],[15.18803,65.8946],[15.18809,65.89453],[15.18813,65.89448],[15.18822,65.8944],[15.18833,65.89438],[15.18844,65.89433],[15.18849,65.89433],[15.18851,65.89432],[15.1886,65.89425],[15.18869,65.89418],[15.18878,65.89414],[15.1888,65.89407],[15.18889,65.89398],[15.18904,65.89389],[15.18901,65.89378],[15.18893,65.89366],[15.18889,65.89364],[15.18891,65.89356],[15.18891,65.89349],[15.18882,65.89345],[15.18876,65.89344],[15.18873,65.89337],[15.18867,65.8933],[15.18854,65.89328],[15.1885,65.89327],[15.1885,65.89327],[15.1884,65.89321],[15.18822,65.89319],[15.18808,65.89319],[15.18796,65.89316],[15.18788,65.89316],[15.18768,65.89318],[15.18759,65.89313],[15.18748,65.89309],[15.18731,65.89305],[15.18715,65.89302],[15.1871,65.89298],[15.18704,65.89294],[15.18699,65.89285],[15.18697,65.89278],[15.18693,65.89279],[15.18689,65.89279],[15.18671,65.8928],[15.18653,65.89284],[15.1863,65.89286],[15.18618,65.89285],[15.18603,65.89281],[15.18584,65.89278],[15.18563,65.89278],[15.18545,65.89272],[15.1852,65.89269],[15.18501,65.89266],[15.1849,65.8926],[15.18475,65.89261],[15.18448,65.89257],[15.18425,65.89255],[15.18405,65.89251],[15.18398,65.89247],[15.1839,65.89244],[15.18378,65.8924],[15.18367,65.89235],[15.18355,65.89227],[15.1834,65.89222],[15.18323,65.89219],[15.18306,65.89217],[15.18279,65.89218],[15.18249,65.89218],[15.18224,65.89216],[15.18194,65.89211],[15.18167,65.89209],[15.18182,65.892],[15.18193,65.89188],[15.18195,65.89179],[15.18187,65.89176],[15.18185,65.89176],[15.18187,65.89173],[15.18182,65.8917],[15.18182,65.89161],[15.18174,65.89154],[15.1817,65.89144],[15.18174,65.89137],[15.18167,65.89135],[15.18149,65.89132],[15.18129,65.89132],[15.18104,65.89133],[15.18079,65.89131],[15.18059,65.89131],[15.18048,65.8913],[15.18023,65.89129],[15.17996,65.89126],[15.17975,65.89128],[15.17958,65.89128],[15.17935,65.8913],[15.17912,65.89129],[15.17906,65.89129],[15.17881,65.89128],[15.17867,65.89122],[15.17857,65.89115],[15.1784,65.89106],[15.17835,65.89097],[15.17826,65.89092],[15.17812,65.8909],[15.17796,65.89086],[15.17792,65.89074],[15.17785,65.89061],[15.17783,65.89047],[15.17778,65.89033],[15.17777,65.89021],[15.17777,65.89007],[15.17781,65.88996],[15.17783,65.88984],[15.17782,65.88971],[15.1778,65.88961],[15.17776,65.88948],[15.17776,65.88936],[15.17776,65.88923],[15.17778,65.88908],[15.17778,65.88897],[15.17778,65.88885],[15.17784,65.88871],[15.17797,65.88858],[15.17807,65.88845],[15.1782,65.88833],[15.17824,65.88821],[15.17826,65.88811],[15.17797,65.88812],[15.17775,65.88804],[15.17758,65.88794],[15.17757,65.88785],[15.1777,65.88778],[15.17784,65.88768],[15.17795,65.88761],[15.17791,65.8876],[15.17799,65.88754],[15.17813,65.88743],[15.17831,65.8873],[15.17838,65.88716],[15.17831,65.88704],[15.17816,65.88698],[15.17804,65.88696],[15.17791,65.88695],[15.17773,65.88688],[15.17758,65.88676],[15.17759,65.88668],[15.17763,65.88665],[15.17751,65.88663],[15.17738,65.88661],[15.17734,65.88662],[15.17728,65.8866],[15.1771,65.88655],[15.17687,65.88648]]}}