{"type":"Feature","properties":{},"geometry":{"type":"LineString","coordinates":[[14.28275,56.36335],[14.28266,56.36339],[14.2831,56.36352],[14.28329,56.36353],[14.28341,56.36357],[14.28356,56.36374],[14.28365,56.36396],[14.28379,56.36406],[14.2839,56.36416],[14.28405,56.36438],[14.2841,56.36453],[14.28394,56.36476],[14.28376,56.36496],[14.28401,56.36513],[14.28415,56.36527],[14.28429,56.36529],[14.28431,56.36522],[14.28413,56.3653],[14.28409,56.36556],[14.284,56.36569],[14.28381,56.3659],[14.28352,56.36615],[14.28325,56.36634],[14.2832,56.36655],[14.28299,56.3667],[14.2829,56.36697],[14.28281,56.36719],[14.28299,56.36722],[14.28341,56.36733],[14.28394,56.36735],[14.28433,56.36739],[14.28454,56.36743],[14.28481,56.36742],[14.28503,56.36745],[14.28521,56.36753],[14.28556,56.36746],[14.28595,56.36737],[14.2861,56.36724],[14.28617,56.36707],[14.28641,56.3669],[14.28649,56.36674],[14.28655,56.36652],[14.28655,56.36638],[14.28643,56.36618],[14.28613,56.36618],[14.2856,56.3662],[14.28518,56.36635],[14.285,56.36643],[14.28476,56.36661],[14.28452,56.36682],[14.28426,56.36706],[14.28415,56.3672],[14.28403,56.36732],[14.2836,56.36736],[14.2831,56.36736],[14.2828,56.36731],[14.28246,56.3673],[14.28222,56.36736],[14.28196,56.36738],[14.28172,56.3673],[14.28151,56.36716],[14.28113,56.36707],[14.28077,56.36693],[14.2805,56.36686],[14.2803,56.36678],[14.28002,56.36672],[14.27972,56.36664],[14.27931,56.3667],[14.27906,56.36674],[14.27874,56.36677],[14.27859,56.36676],[14.27839,56.36684],[14.27817,56.36686],[14.27818,56.36688],[14.278,56.3668],[14.27789,56.36676],[14.27778,56.36681],[14.27774,56.3669],[14.27788,56.36701],[14.27798,56.36715],[14.27814,56.3673],[14.27833,56.36739],[14.27837,56.36743],[14.27836,56.36735],[14.27826,56.36733],[14.2777,56.36722],[14.27714,56.36711],[14.27676,56.36701],[14.27652,56.36688],[14.27605,56.36668],[14.27556,56.36665],[14.27529,56.36691],[14.27508,56.36724],[14.27487,56.36758],[14.27475,56.36779],[14.27463,56.3681],[14.27442,56.36839],[14.27403,56.3685],[14.27378,56.36858],[14.27349,56.36868],[14.27326,56.36881],[14.27313,56.36897],[14.27297,56.36904],[14.27296,56.36911],[14.27306,56.36925],[14.27309,56.3694],[14.27328,56.36954],[14.27352,56.36962],[14.27378,56.3697],[14.27402,56.36981],[14.27427,56.36987],[14.27455,56.36992],[14.27471,56.36996],[14.27496,56.37001],[14.2753,56.37002],[14.27543,56.37011],[14.27549,56.37022],[14.27563,56.37036],[14.27584,56.37048],[14.27602,56.37049],[14.27612,56.37047],[14.27637,56.37043],[14.27666,56.37033],[14.27681,56.37021],[14.27699,56.37008],[14.27708,56.36992],[14.27718,56.36991],[14.27741,56.36984],[14.27763,56.36975],[14.2777,56.3697],[14.27771,56.36964],[14.27768,56.3696],[14.27764,56.36944],[14.2777,56.3693],[14.27776,56.36916],[14.27785,56.36906],[14.27786,56.36886],[14.27797,56.36875],[14.27808,56.36866],[14.27797,56.36847],[14.27797,56.36846],[14.27797,56.3685],[14.27807,56.36848],[14.27828,56.36858],[14.27845,56.3686],[14.27863,56.36863],[14.27874,56.36863],[14.27895,56.36856],[14.27908,56.36839],[14.27909,56.3683],[14.27905,56.36816],[14.27909,56.36801],[14.27916,56.36789],[14.27908,56.36773],[14.27889,56.36757],[14.27858,56.36742],[14.27827,56.36729],[14.27791,56.36723],[14.27763,56.36719],[14.2772,56.36715],[14.27684,56.36706],[14.27655,56.36692],[14.27637,56.36681],[14.27615,56.36669],[14.27577,56.36659],[14.27557,56.36649],[14.27585,56.36637],[14.27618,56.36616],[14.27643,56.36595],[14.27656,56.36575],[14.27671,56.36556],[14.27695,56.36537],[14.27722,56.36521],[14.27748,56.36503],[14.27772,56.36486],[14.27795,56.36469],[14.27821,56.36451],[14.27848,56.36434],[14.27869,56.36415],[14.27891,56.36396],[14.27921,56.36381],[14.27958,56.36372],[14.27997,56.36362],[14.28033,56.36353],[14.28069,56.36346],[14.28107,56.36341],[14.28148,56.36338],[14.28189,56.36338],[14.2823,56.36337],[14.28257,56.36338],[14.28253,56.36337],[14.28253,56.36337],[14.28252,56.36335],[14.28261,56.36335],[14.28275,56.36335],[14.28255,56.36334],[14.28256,56.36335],[14.28256,56.36335],[14.28254,56.36335],[14.28256,56.36336]]}}