{"type":"Feature","properties":{},"geometry":{"type":"LineString","coordinates":[[14.05226,56.42291],[14.05258,56.42268],[14.05286,56.42239],[14.0527,56.4224],[14.05281,56.42259],[14.05282,56.42285],[14.05284,56.42304],[14.05287,56.4232],[14.05294,56.42351],[14.05285,56.42373],[14.05286,56.42394],[14.05268,56.42397],[14.0528,56.42401],[14.05327,56.42399],[14.05363,56.42395],[14.05392,56.42394],[14.05431,56.42383],[14.05433,56.4237],[14.05433,56.42373],[14.05445,56.42399],[14.05446,56.42423],[14.05428,56.42439],[14.05421,56.42458],[14.0543,56.42487],[14.05433,56.42499],[14.05442,56.42517],[14.05424,56.42527],[14.05419,56.42542],[14.05422,56.42567],[14.0542,56.42576],[14.05416,56.42597],[14.05417,56.42618],[14.05409,56.42633],[14.05392,56.42629],[14.05373,56.42617],[14.05379,56.42618],[14.05388,56.42629],[14.05433,56.42641],[14.05455,56.42659],[14.05486,56.42669],[14.05517,56.42679],[14.05535,56.42689],[14.05538,56.42692],[14.05542,56.42692],[14.05483,56.427],[14.05481,56.42704],[14.05484,56.42716],[14.05484,56.42738],[14.05511,56.42758],[14.05518,56.42771],[14.05533,56.42774],[14.0556,56.42782],[14.05577,56.42787],[14.0561,56.42787],[14.05643,56.42791],[14.05641,56.42785],[14.05608,56.42789],[14.0556,56.42797],[14.05528,56.42817],[14.05518,56.42823],[14.05489,56.42834],[14.05469,56.42847],[14.05439,56.42851],[14.05427,56.42869],[14.0542,56.42883],[14.0546,56.42899],[14.05477,56.42904],[14.05518,56.42908],[14.05553,56.42919],[14.0558,56.4292],[14.05616,56.42923],[14.05641,56.42922],[14.05666,56.42913],[14.05707,56.42902],[14.05721,56.42896],[14.05731,56.42895],[14.05733,56.42905],[14.05722,56.42909],[14.05712,56.42927],[14.05705,56.42937],[14.05702,56.42952],[14.05692,56.42956],[14.05706,56.42973],[14.05701,56.42985],[14.05653,56.43004],[14.05625,56.42997],[14.05584,56.42979],[14.05569,56.42965],[14.05558,56.42967],[14.05539,56.42984],[14.05532,56.4299],[14.05537,56.43002],[14.05555,56.43011],[14.05568,56.43011],[14.05557,56.43009],[14.05522,56.43012],[14.05485,56.4302],[14.05483,56.43024],[14.05461,56.43028],[14.05435,56.43033],[14.05411,56.4304],[14.05369,56.43053],[14.05349,56.43051],[14.05334,56.43045],[14.05299,56.43031],[14.05246,56.43008],[14.05209,56.42994],[14.05172,56.42982],[14.05156,56.42975],[14.05115,56.42963],[14.0508,56.42949],[14.05044,56.42947],[14.05036,56.4294],[14.05034,56.42916],[14.05019,56.42878],[14.05008,56.4285],[14.04989,56.42826],[14.04966,56.42796],[14.04975,56.42796],[14.05002,56.42794],[14.05041,56.42777],[14.05089,56.42773],[14.05124,56.42777],[14.05158,56.42774],[14.05198,56.42759],[14.05222,56.42752],[14.05247,56.4274],[14.05282,56.42742],[14.0532,56.4273],[14.05299,56.42709],[14.05259,56.4268],[14.0524,56.42663],[14.05217,56.42654],[14.05157,56.4265],[14.05137,56.42645],[14.05126,56.42645],[14.05106,56.42646],[14.05075,56.42638],[14.05058,56.42609],[14.05064,56.42587],[14.05073,56.42583],[14.05086,56.42578],[14.05118,56.42574],[14.05132,56.42569],[14.05148,56.42564],[14.05182,56.42551],[14.05197,56.42547],[14.05209,56.42541],[14.05218,56.4251],[14.05218,56.4248],[14.05247,56.42481],[14.05236,56.4246],[14.05181,56.42462],[14.05142,56.42466],[14.05099,56.42464],[14.05081,56.42458],[14.0504,56.4246],[14.05004,56.42456],[14.0498,56.42459],[14.04938,56.42456],[14.04934,56.42491],[14.04944,56.42538],[14.04914,56.42577],[14.04873,56.42598],[14.04843,56.42605],[14.04808,56.42609],[14.04762,56.42618],[14.04722,56.42625],[14.04674,56.42592],[14.04607,56.42569],[14.04556,56.42561],[14.0452,56.42546],[14.04513,56.42543],[14.04496,56.42543],[14.04476,56.42529],[14.04476,56.42521],[14.04481,56.42515],[14.04464,56.42492],[14.04451,56.42471],[14.04407,56.42443],[14.0441,56.42437],[14.04418,56.42414],[14.04427,56.42405],[14.04422,56.42378],[14.04418,56.42354],[14.04396,56.42319],[14.04385,56.42297],[14.0438,56.42288],[14.04372,56.42274],[14.04376,56.42242],[14.04381,56.42223],[14.04384,56.42212],[14.04415,56.42209],[14.04455,56.42209],[14.04477,56.42211],[14.04492,56.42213],[14.04516,56.42179],[14.04563,56.42175],[14.04577,56.42185],[14.04604,56.42231]]}}