{"type":"Feature","properties":{},"geometry":{"type":"LineString","coordinates":[[13.0811,55.65644],[13.08066,55.65629],[13.08042,55.65606],[13.08054,55.65571],[13.08055,55.65531],[13.08039,55.65494],[13.08013,55.65459],[13.07981,55.65431],[13.07951,55.654],[13.07933,55.65367],[13.07871,55.65347],[13.07901,55.65352],[13.07963,55.65357],[13.08025,55.65369],[13.08088,55.65384],[13.08153,55.6539],[13.082,55.65376],[13.08228,55.65363],[13.08219,55.65368],[13.08171,55.65376],[13.0811,55.65378],[13.0806,55.65363],[13.08009,55.65341],[13.07946,55.65321],[13.0788,55.65311],[13.07822,55.65305],[13.0777,55.65285],[13.07736,55.65273],[13.07707,55.65293],[13.07674,55.65318],[13.07636,55.65348],[13.07629,55.65385],[13.07577,55.65398],[13.07509,55.65397],[13.07493,55.65416],[13.07499,55.65447],[13.07513,55.65477],[13.07522,55.65508],[13.07529,55.65533],[13.07568,55.65556],[13.07581,55.65592],[13.0758,55.6563],[13.07593,55.65666],[13.07636,55.65682],[13.07678,55.65691],[13.07691,55.65713],[13.07693,55.65735],[13.07716,55.65775],[13.0776,55.65791],[13.07812,55.65811],[13.07879,55.65815],[13.07894,55.6585],[13.07896,55.65888],[13.07871,55.65916],[13.07803,55.65919],[13.07752,55.65946],[13.07692,55.65965],[13.07659,55.65987],[13.07685,55.65974],[13.07751,55.65953],[13.07794,55.65927],[13.07861,55.6592],[13.07906,55.65905],[13.07914,55.65874],[13.07958,55.65862],[13.07994,55.65871],[13.08051,55.65879],[13.08095,55.65896],[13.08155,55.65906],[13.08228,55.65908],[13.08294,55.65907],[13.08359,55.6591],[13.08427,55.65908],[13.08496,55.65904],[13.08571,55.65904],[13.08636,55.659],[13.08707,55.65895],[13.08742,55.65866],[13.0876,55.65839],[13.08807,55.65835],[13.08859,55.65818],[13.08906,55.658],[13.0892,55.65801],[13.08905,55.65813],[13.08842,55.65827],[13.08838,55.65864],[13.0886,55.65895],[13.08857,55.65893],[13.08842,55.65886],[13.08835,55.65879],[13.088,55.65857],[13.08746,55.65838],[13.08679,55.65834],[13.08624,55.65831],[13.0856,55.65813],[13.08497,55.65789],[13.08433,55.65789],[13.08386,55.65798],[13.08328,55.65802],[13.08306,55.65787],[13.08262,55.65771],[13.08204,55.65737],[13.08146,55.65718],[13.08088,55.65704],[13.08017,55.65703],[13.07974,55.65695],[13.07961,55.65682],[13.07926,55.6568],[13.07894,55.65686],[13.07901,55.65685],[13.07934,55.65683],[13.0795,55.6567],[13.07955,55.65671],[13.07971,55.6567],[13.07994,55.65646],[13.07957,55.65624],[13.07947,55.65594],[13.0798,55.65564],[13.07989,55.65532],[13.07982,55.65542],[13.07977,55.65577],[13.08007,55.65605],[13.07994,55.65611],[13.07962,55.65618],[13.07939,55.65631],[13.07908,55.65661],[13.07852,55.65669],[13.07791,55.65681],[13.07767,55.65705],[13.07742,55.65744],[13.07729,55.65775],[13.07724,55.65783],[13.07728,55.65787],[13.0777,55.65781],[13.07813,55.65751],[13.07824,55.65722],[13.07772,55.65698],[13.07725,55.65672],[13.07717,55.65661],[13.07724,55.65667],[13.07756,55.65691],[13.07808,55.65712],[13.07843,55.65737],[13.07844,55.65771],[13.07852,55.65779],[13.0786,55.65772],[13.07902,55.65756],[13.07955,55.65743],[13.0801,55.65709],[13.08068,55.65679],[13.08103,55.65651],[13.08106,55.65647],[13.08104,55.65651],[13.08101,55.65652],[13.08103,55.6565],[13.08101,55.65653],[13.081,55.65655],[13.08103,55.65653],[13.08104,55.65651],[13.08109,55.65648],[13.08105,55.65648],[13.08102,55.65649],[13.08101,55.65649],[13.08102,55.65649],[13.08103,55.6565],[13.08103,55.65649],[13.08108,55.65649],[13.08109,55.6565],[13.08115,55.65651],[13.08122,55.65649],[13.08122,55.65649],[13.08119,55.6565],[13.08117,55.65649],[13.08117,55.65649],[13.08126,55.6565],[13.08124,55.65651],[13.08124,55.65651],[13.08123,55.65651],[13.08121,55.6565],[13.08124,55.6565],[13.08123,55.65651],[13.08119,55.65652],[13.08125,55.65651],[13.08125,55.6565],[13.08125,55.65649],[13.08129,55.65649],[13.08125,55.65649],[13.08123,55.6565],[13.08123,55.65649],[13.08122,55.6565],[13.08127,55.65648],[13.08126,55.65649],[13.08125,55.65649],[13.08125,55.65648],[13.08125,55.65649],[13.08124,55.6565],[13.08123,55.65651],[13.08123,55.65651],[13.08122,55.65651],[13.08128,55.65648]]}}