{"type":"Feature","properties":{},"geometry":{"type":"LineString","coordinates":[[13.22222,55.55059],[13.2219,55.55067],[13.22123,55.55077],[13.22052,55.55083],[13.21994,55.55097],[13.21965,55.55107],[13.21933,55.55115],[13.21894,55.55124],[13.21852,55.55124],[13.21841,55.55126],[13.21819,55.55119],[13.21807,55.55113],[13.21784,55.55104],[13.21755,55.55096],[13.21723,55.55103],[13.217,55.55096],[13.21687,55.55096],[13.21656,55.55092],[13.21616,55.5509],[13.21574,55.55096],[13.21527,55.551],[13.21485,55.55108],[13.21495,55.55108],[13.21509,55.551],[13.21526,55.55083],[13.21545,55.55045],[13.21556,55.55016],[13.21569,55.54996],[13.21561,55.54965],[13.21572,55.5494],[13.21578,55.54925],[13.21583,55.54911],[13.21582,55.54881],[13.21584,55.54855],[13.21571,55.54827],[13.21567,55.54804],[13.21573,55.5479],[13.21565,55.54762],[13.21575,55.54739],[13.21577,55.54714],[13.21584,55.54684],[13.21578,55.54657],[13.21559,55.54633],[13.21542,55.54618],[13.21531,55.54599],[13.21504,55.5458],[13.21503,55.54555],[13.21501,55.54544],[13.21497,55.54525],[13.21501,55.54497],[13.2149,55.54464],[13.21465,55.54444],[13.21472,55.54437],[13.21469,55.54421],[13.21461,55.54385],[13.21442,55.54362],[13.21427,55.54341],[13.2142,55.54323],[13.2141,55.54329],[13.21407,55.54329],[13.21386,55.54308],[13.21354,55.54303],[13.21325,55.54299],[13.21274,55.54301],[13.21226,55.54301],[13.21206,55.54311],[13.21171,55.54316],[13.21123,55.54326],[13.211,55.54357],[13.21093,55.54384],[13.21079,55.54394],[13.21045,55.54413],[13.21019,55.54437],[13.21021,55.54456],[13.21023,55.54464],[13.21032,55.54474],[13.2107,55.54493],[13.21103,55.54514],[13.21123,55.54531],[13.2113,55.54541],[13.21135,55.54556],[13.21141,55.54576],[13.2114,55.54603],[13.21144,55.54628],[13.21152,55.54646],[13.21167,55.54668],[13.21143,55.5468],[13.21148,55.54698],[13.21181,55.54716],[13.21217,55.5473],[13.21238,55.54742],[13.21251,55.5476],[13.21257,55.54775],[13.2126,55.54786],[13.21271,55.54803],[13.21267,55.54805],[13.21254,55.5481],[13.21213,55.54803],[13.21176,55.54789],[13.21143,55.5478],[13.21101,55.54761],[13.21072,55.54751],[13.21053,55.54747],[13.21021,55.54743],[13.20989,55.54737],[13.20961,55.54737],[13.20915,55.54729],[13.20871,55.54719],[13.20841,55.5471],[13.20829,55.54701],[13.20804,55.54684],[13.2079,55.54673],[13.20755,55.54656],[13.20725,55.54649],[13.20713,55.54656],[13.20724,55.54673],[13.2074,55.54689],[13.20755,55.54713],[13.20774,55.54734],[13.20779,55.54746],[13.20791,55.54765],[13.20811,55.5479],[13.20827,55.54817],[13.20853,55.54845],[13.2088,55.54867],[13.20909,55.54893],[13.20918,55.54914],[13.20911,55.54946],[13.20908,55.54964],[13.20922,55.54979],[13.20937,55.5499],[13.20954,55.55004],[13.20964,55.5501],[13.20983,55.55027],[13.21024,55.55045],[13.21043,55.55063],[13.21057,55.55092],[13.21073,55.5512],[13.21087,55.55134],[13.21064,55.55136],[13.21023,55.55129],[13.20964,55.55134],[13.20939,55.55165],[13.20933,55.55179],[13.20925,55.55205],[13.20912,55.55223],[13.20905,55.55244],[13.20908,55.5525],[13.20927,55.55241],[13.2091,55.55217],[13.20903,55.55211],[13.20876,55.55194],[13.20854,55.55189],[13.20859,55.55192],[13.20881,55.55196],[13.20908,55.5522],[13.20934,55.55249],[13.20969,55.55264],[13.2101,55.55272],[13.21022,55.55274],[13.21038,55.55293],[13.21063,55.55314],[13.21091,55.55329],[13.21126,55.55354],[13.21149,55.55375],[13.21175,55.55399],[13.21182,55.55413],[13.21205,55.55417],[13.21241,55.55402],[13.21281,55.55399],[13.21327,55.55396],[13.21377,55.55396],[13.21434,55.55398],[13.21489,55.55401],[13.21551,55.554],[13.21607,55.55391],[13.21659,55.55374],[13.21701,55.55361],[13.21736,55.55353],[13.21759,55.55352],[13.21791,55.55352],[13.21828,55.55354],[13.2186,55.55345],[13.2188,55.55339],[13.21911,55.55329],[13.21934,55.55303],[13.21957,55.55299],[13.22002,55.55293],[13.22051,55.55294],[13.22087,55.55292],[13.22118,55.55297],[13.22167,55.55287],[13.22198,55.55253],[13.2224,55.55227],[13.2227,55.55205],[13.2232,55.55191],[13.22369,55.5517],[13.22415,55.5514],[13.22456,55.55109],[13.2257,55.55085]]}}