{"type":"Feature","properties":{"times":[0,16,33,49,66,83,99,116,132,149,166,182,199,215,232,249,265,282,298,316,333,349,366,383,399,416,432,449,466,482,499,514,532,549,565,582,598,615,632,648,665,682,698,715,731,748,765,781,798,813,830,847,863,880,896,913,930,946,963,979,996,1013,1029,1046,1063,1079,1096,1112,1129,1146,1162,1179,1195,1213,1229,1245,1263,1279,1296,1313,1329,1346,1363,1379,1396,1412,1429,1446,1462,1479,1495,1512,1529,1545,1562,1578,1595,1612,1628,1645,1662,1678,1695,1711,1728,1745,1761,1778,1793,1810,1827,1843,1860,1876,1893,1910,1926,1943,1959,1976,1993,2009,2026,2043,2059,2076,2092,2109,2126,2142,2159,2175,2192,2209,2225,2243,2259,2276,2293,2309,2326,2343,2359,2376,2392,2409,2426,2442,2459,2475,2492,2509,2525,2542,2558,2575,2592,2608,2625,2641,2658,2675,2691,2708,2725,2741,2758,2774,2790,2807,2823,2840,2856,2873,2890,2906,2923,2939,2956,2973,2989,3006,3023,3039,3056,3072,3089,3106,3122,3139,3155,3172,3189,3205,3222,3238,3255,3273,3289,3322]},"geometry":{"type":"LineString","coordinates":[[13.13674,56.32751],[13.13677,56.3275],[13.13654,56.3275],[13.13577,56.32756],[13.13502,56.32763],[13.13459,56.32783],[13.13446,56.32807],[13.1343,56.32837],[13.13413,56.32863],[13.13392,56.32888],[13.13374,56.32907],[13.13355,56.32925],[13.13332,56.3295],[13.13329,56.32973],[13.1334,56.32995],[13.13327,56.33008],[13.13312,56.33016],[13.13297,56.33022],[13.13295,56.33029],[13.13295,56.33034],[13.13284,56.3304],[13.1327,56.33044],[13.13236,56.33029],[13.13198,56.33004],[13.13162,56.3298],[13.13123,56.3297],[13.13083,56.32974],[13.13056,56.32989],[13.13064,56.33015],[13.13066,56.33033],[13.13084,56.3305],[13.13088,56.33042],[13.13083,56.3301],[13.13081,56.32984],[13.13115,56.32982],[13.13119,56.32964],[13.13079,56.3293],[13.13025,56.32906],[13.12974,56.32891],[13.12947,56.32879],[13.12922,56.32866],[13.12903,56.32856],[13.12904,56.32853],[13.12898,56.32851],[13.12896,56.32844],[13.12928,56.32846],[13.12951,56.32838],[13.12955,56.32836],[13.12961,56.32839],[13.12996,56.32847],[13.13036,56.32842],[13.13071,56.32829],[13.13088,56.32814],[13.13104,56.32795],[13.13099,56.32764],[13.13107,56.32745],[13.1311,56.32718],[13.13096,56.32683],[13.13067,56.32663],[13.1307,56.32671],[13.13108,56.32665],[13.13149,56.32646],[13.13171,56.32638],[13.13211,56.32618],[13.13272,56.32601],[13.13333,56.32597],[13.13388,56.32586],[13.13433,56.32574],[13.13484,56.32565],[13.13524,56.3256],[13.13563,56.32562],[13.13602,56.32557],[13.13638,56.32546],[13.13692,56.32531],[13.13725,56.3253],[13.13751,56.32522],[13.13753,56.32521],[13.13758,56.32514],[13.13751,56.32492],[13.13765,56.32476],[13.13778,56.32459],[13.13786,56.32461],[13.1382,56.32465],[13.13816,56.3246],[13.13785,56.32458],[13.13747,56.32473],[13.13694,56.32484],[13.13648,56.32485],[13.13611,56.32487],[13.13643,56.32502],[13.13633,56.32523],[13.13605,56.32537],[13.13579,56.32552],[13.13558,56.32548],[13.13533,56.32529],[13.13499,56.32497],[13.13482,56.32475],[13.13445,56.3246],[13.13421,56.32459],[13.13387,56.32465],[13.13314,56.32464],[13.13259,56.32467],[13.13241,56.32455],[13.13208,56.32428],[13.13175,56.32414],[13.13171,56.32406],[13.13152,56.32391],[13.13099,56.32375],[13.13093,56.32358],[13.13057,56.32336],[13.13016,56.3231],[13.12965,56.32293],[13.12883,56.32292],[13.12815,56.32278],[13.12777,56.32276],[13.12752,56.323],[13.12743,56.32298],[13.12732,56.32289],[13.12726,56.32284],[13.12709,56.32281],[13.12685,56.32283],[13.12685,56.32282],[13.12699,56.32274],[13.12703,56.3226],[13.12695,56.3225],[13.12692,56.32239],[13.127,56.32221],[13.1272,56.32188],[13.12724,56.32169],[13.12726,56.32165],[13.12728,56.3216],[13.12726,56.32148],[13.12732,56.32136],[13.1274,56.32121],[13.12774,56.3211],[13.12811,56.32112],[13.12819,56.32111],[13.12851,56.32104],[13.12867,56.32063],[13.12885,56.32038],[13.12946,56.32028],[13.12962,56.32021],[13.1295,56.32021],[13.12896,56.32031],[13.12855,56.32059],[13.12843,56.32099],[13.12806,56.32127],[13.12808,56.32165],[13.12814,56.32188],[13.12813,56.32208],[13.128,56.32229],[13.12774,56.32263],[13.12818,56.32289],[13.12867,56.323],[13.12927,56.32304],[13.12965,56.32299],[13.13016,56.32291],[13.13081,56.32296],[13.13144,56.323],[13.13175,56.32285],[13.13209,56.32269],[13.13275,56.3225],[13.13349,56.32242],[13.13419,56.32238],[13.13427,56.3223],[13.13416,56.32209],[13.13427,56.32186],[13.13437,56.32151],[13.13436,56.32134],[13.13493,56.32142],[13.13551,56.32149],[13.13616,56.32145],[13.13659,56.32131],[13.137,56.32111],[13.13708,56.32099],[13.1372,56.32077],[13.13741,56.32064],[13.13763,56.3204],[13.13792,56.32032],[13.13823,56.32017],[13.13823,56.32001],[13.13811,56.3198],[13.13795,56.31958],[13.13788,56.31942],[13.13754,56.31923],[13.13739,56.31911],[13.13745,56.31903],[13.13742,56.3188],[13.13734,56.3186],[13.13697,56.3185],[13.13672,56.31847],[13.13723,56.31847],[13.13752,56.31821],[13.13765,56.31797],[13.13798,56.31793],[13.13824,56.31779],[13.13848,56.31776],[13.13814,56.31746],[13.13793,56.31734],[13.1378,56.31672]]}}