{"type":"Feature","properties":{},"geometry":{"type":"LineString","coordinates":[[18.97259,57.87809],[18.9725,57.87809],[18.97177,57.87806],[18.97106,57.878],[18.97057,57.87795],[18.97001,57.87787],[18.96941,57.87771],[18.96884,57.87759],[18.96846,57.87771],[18.96782,57.87764],[18.96715,57.87757],[18.96656,57.87745],[18.96595,57.8775],[18.96555,57.87752],[18.9653,57.87745],[18.9652,57.87717],[18.96499,57.87689],[18.96483,57.87659],[18.96455,57.87632],[18.96462,57.87618],[18.965,57.87608],[18.96536,57.8759],[18.96562,57.87585],[18.96604,57.87565],[18.96655,57.87557],[18.967,57.87541],[18.96744,57.87536],[18.96727,57.87528],[18.96697,57.87511],[18.96676,57.87487],[18.96663,57.87471],[18.96656,57.87464],[18.9662,57.87441],[18.9659,57.87455],[18.96608,57.87444],[18.96638,57.87426],[18.96694,57.87409],[18.9674,57.87397],[18.96777,57.87389],[18.96821,57.87391],[18.96873,57.87376],[18.96895,57.87349],[18.96909,57.87338],[18.96951,57.8733],[18.97,57.87324],[18.97048,57.87314],[18.97068,57.87318],[18.97102,57.87303],[18.97148,57.8728],[18.97144,57.8727],[18.97123,57.87257],[18.97091,57.87235],[18.97039,57.87215],[18.97015,57.87196],[18.96981,57.87188],[18.96986,57.87165],[18.97007,57.87132],[18.97051,57.87115],[18.97076,57.87081],[18.97067,57.87055],[18.97075,57.87042],[18.97086,57.87024],[18.97108,57.86999],[18.9712,57.86977],[18.97139,57.8697],[18.9715,57.86969],[18.97169,57.86958],[18.9718,57.8693],[18.97198,57.86916],[18.97232,57.86898],[18.97285,57.8689],[18.97296,57.86899],[18.97286,57.86937],[18.97292,57.86968],[18.97295,57.86982],[18.97283,57.86998],[18.97257,57.87006],[18.97262,57.87021],[18.97249,57.87061],[18.9725,57.87081],[18.97243,57.87103],[18.97239,57.87122],[18.97233,57.87125],[18.97247,57.87106],[18.97256,57.87068],[18.97235,57.87049],[18.97191,57.87037],[18.9715,57.87035],[18.97158,57.87037],[18.97196,57.87036],[18.97254,57.87029],[18.97278,57.87024],[18.97311,57.87022],[18.97338,57.87016],[18.97351,57.87008],[18.97385,57.86984],[18.97423,57.86957],[18.97456,57.86931],[18.97477,57.869],[18.97502,57.86889],[18.97532,57.86876],[18.97561,57.86857],[18.97586,57.86842],[18.97581,57.86838],[18.97578,57.86829],[18.97572,57.86805],[18.9757,57.86786],[18.97571,57.86763],[18.97566,57.86749],[18.97554,57.86741],[18.97558,57.86729],[18.97569,57.86709],[18.97564,57.86689],[18.97582,57.86686],[18.976,57.8668],[18.97633,57.86679],[18.97675,57.86673],[18.97717,57.86666],[18.97746,57.86667],[18.97785,57.86665],[18.9782,57.86661],[18.97851,57.86657],[18.97886,57.86656],[18.97919,57.86655],[18.9795,57.86644],[18.97984,57.86642],[18.98019,57.86639],[18.98025,57.86638],[18.98024,57.86652],[18.98017,57.86671],[18.9803,57.86686],[18.98028,57.86695],[18.98027,57.86712],[18.98026,57.86735],[18.98011,57.86755],[18.98006,57.86771],[18.98005,57.86795],[18.97992,57.86823],[18.98007,57.86831],[18.98026,57.86839],[18.98064,57.86838],[18.98093,57.86844],[18.9813,57.86846],[18.98182,57.86845],[18.98214,57.86846],[18.98256,57.86845],[18.9829,57.86833],[18.98314,57.86825],[18.98308,57.86807],[18.98308,57.86802],[18.98308,57.86802],[18.98338,57.86806],[18.98357,57.86807],[18.98362,57.86804],[18.98377,57.86814],[18.98398,57.86833],[18.9842,57.86857],[18.98449,57.86869],[18.98486,57.86884],[18.98504,57.86919],[18.98495,57.86953],[18.98463,57.8698],[18.98461,57.86994],[18.9847,57.87003],[18.98474,57.87011],[18.98485,57.87031],[18.98497,57.87057],[18.98505,57.8707],[18.98511,57.87081],[18.98519,57.87096],[18.98536,57.87105],[18.98566,57.87112],[18.98607,57.87129],[18.98657,57.87141],[18.987,57.87155],[18.98719,57.87163],[18.98755,57.87175],[18.9878,57.8718],[18.98767,57.87187],[18.9876,57.87204],[18.98754,57.87211],[18.98748,57.87221],[18.98734,57.87234],[18.98707,57.8726],[18.9869,57.8728],[18.98708,57.87289],[18.98748,57.87292],[18.98737,57.87299],[18.98711,57.87313],[18.98639,57.87323],[18.98566,57.87328],[18.9852,57.87315],[18.9846,57.87311],[18.9845,57.87325],[18.98411,57.87341],[18.98344,57.87336],[18.98377,57.87356],[18.98425,57.87385],[18.98451,57.87417],[18.98402,57.87484]]}}