{"type":"Feature","properties":{},"geometry":{"type":"LineString","coordinates":[[18.74442,57.92519],[18.74417,57.92522],[18.74387,57.92527],[18.74364,57.92526],[18.74342,57.9252],[18.74332,57.92512],[18.74336,57.925],[18.74336,57.92489],[18.74327,57.92479],[18.74323,57.92472],[18.74322,57.92472],[18.74321,57.92472],[18.7432,57.92465],[18.74333,57.92454],[18.74348,57.92441],[18.74364,57.92429],[18.74381,57.92414],[18.74397,57.924],[18.74411,57.92387],[18.74424,57.92376],[18.7444,57.92365],[18.7446,57.92358],[18.74481,57.92358],[18.74494,57.92362],[18.74508,57.92372],[18.7452,57.92382],[18.74536,57.92393],[18.74557,57.924],[18.74579,57.924],[18.74599,57.92395],[18.74618,57.92387],[18.74638,57.92378],[18.74658,57.9237],[18.74672,57.92372],[18.74683,57.92367],[18.74706,57.9236],[18.74732,57.92354],[18.74761,57.92347],[18.74785,57.92346],[18.74808,57.92354],[18.74828,57.92363],[18.74854,57.92369],[18.74886,57.92367],[18.74916,57.92363],[18.74943,57.92359],[18.7497,57.92351],[18.74992,57.9234],[18.75015,57.9233],[18.75038,57.92322],[18.75061,57.92313],[18.75081,57.923],[18.75099,57.92288],[18.75118,57.92277],[18.75132,57.92274],[18.75134,57.92265],[18.7515,57.92253],[18.75164,57.92242],[18.75176,57.92229],[18.75186,57.92216],[18.75192,57.92202],[18.752,57.92189],[18.75202,57.92175],[18.75211,57.92162],[18.75234,57.92153],[18.75262,57.92151],[18.75291,57.92147],[18.75317,57.92141],[18.75339,57.92133],[18.75356,57.9212],[18.7537,57.92108],[18.7538,57.92094],[18.75389,57.92079],[18.75396,57.92064],[18.75406,57.92052],[18.75417,57.92039],[18.7543,57.92026],[18.7544,57.92013],[18.7545,57.91999],[18.75465,57.91986],[18.7548,57.91973],[18.75491,57.91958],[18.755,57.91943],[18.75506,57.91928],[18.75513,57.91915],[18.7552,57.91901],[18.75528,57.91887],[18.75531,57.91872],[18.75542,57.91857],[18.75554,57.91843],[18.7556,57.91828],[18.75561,57.91814],[18.75552,57.91799],[18.75547,57.91784],[18.75541,57.91768],[18.75534,57.91753],[18.75528,57.91738],[18.75525,57.91724],[18.7553,57.91711],[18.75537,57.91696],[18.75544,57.91679],[18.75546,57.91665],[18.75548,57.91653],[18.75554,57.91638],[18.75561,57.91624],[18.75571,57.91609],[18.75579,57.91594],[18.75587,57.91578],[18.75597,57.91563],[18.75608,57.91548],[18.75619,57.91535],[18.75627,57.91521],[18.75634,57.91507],[18.75642,57.91491],[18.75654,57.9148],[18.75667,57.91482],[18.7568,57.9149],[18.75699,57.91495],[18.75714,57.91483],[18.75727,57.91471],[18.75743,57.91458],[18.75754,57.91445],[18.75765,57.91432],[18.75776,57.9142],[18.75778,57.91413],[18.75789,57.91407],[18.75801,57.91396],[18.75812,57.91384],[18.75825,57.91371],[18.75834,57.91356],[18.75844,57.91341],[18.75854,57.91326],[18.75864,57.91314],[18.75874,57.91301],[18.75882,57.91288],[18.75887,57.91275],[18.75887,57.91264],[18.75902,57.91256],[18.75914,57.91245],[18.75926,57.91233],[18.75929,57.9122],[18.75929,57.91207],[18.75935,57.91198],[18.75944,57.91197],[18.75946,57.91187],[18.75959,57.91175],[18.75972,57.91163],[18.75987,57.9115],[18.76,57.91136],[18.76013,57.91124],[18.76028,57.91113],[18.76028,57.911],[18.76022,57.91096],[18.7602,57.91096],[18.76019,57.91095],[18.76022,57.91095],[18.76023,57.91095],[18.76023,57.91095],[18.76023,57.91095],[18.76023,57.91094],[18.76023,57.91094],[18.76021,57.91093],[18.76025,57.91095],[18.76023,57.91095],[18.76021,57.91094],[18.76021,57.91095],[18.76022,57.91096],[18.76022,57.91094],[18.7602,57.91094],[18.7602,57.91095],[18.7602,57.91095],[18.76022,57.91095],[18.76021,57.91096],[18.76021,57.91095],[18.7602,57.91096],[18.76018,57.91095],[18.76021,57.91096],[18.76022,57.91095],[18.76021,57.91096],[18.76021,57.91096],[18.76018,57.91096],[18.76021,57.91096],[18.76024,57.91095],[18.76025,57.91094],[18.76024,57.91094],[18.76022,57.91096],[18.76021,57.91095],[18.7602,57.91095],[18.7602,57.91095],[18.76021,57.91096],[18.7602,57.91095],[18.76019,57.91095],[18.7602,57.91094],[18.76021,57.91095],[18.76019,57.91095],[18.76023,57.91095],[18.7602,57.91095],[18.76021,57.91095],[18.76023,57.91096],[18.76024,57.91095],[18.76026,57.91094]]}}