{"type":"Feature","properties":{},"geometry":{"type":"LineString","coordinates":[[14.00158,56.36613],[14.00244,56.36627],[14.00249,56.3667],[14.00234,56.36713],[14.00276,56.36745],[14.00323,56.36774],[14.00391,56.36787],[14.00431,56.36773],[14.0045,56.36771],[14.00428,56.36756],[14.00451,56.36717],[14.0047,56.36668],[14.00452,56.36618],[14.0046,56.36584],[14.00534,56.36574],[14.00612,56.36586],[14.00685,56.36608],[14.00763,56.36601],[14.00806,56.36579],[14.00854,56.3656],[14.0088,56.36549],[14.00902,56.36531],[14.00921,56.36528],[14.00919,56.36514],[14.00914,56.36516],[14.00923,56.36527],[14.00951,56.3655],[14.00992,56.36569],[14.01021,56.36582],[14.0106,56.36584],[14.01111,56.36593],[14.01123,56.36607],[14.01143,56.36624],[14.0115,56.36646],[14.01134,56.3665],[14.01114,56.36659],[14.01076,56.36673],[14.01051,56.36676],[14.01005,56.36699],[14.0098,56.36728],[14.00927,56.36759],[14.00876,56.36777],[14.00828,56.36806],[14.00797,56.36844],[14.00743,56.36874],[14.00741,56.36897],[14.00724,56.36898],[14.00686,56.36898],[14.00646,56.36902],[14.00595,56.36905],[14.00564,56.36911],[14.00523,56.36914],[14.00496,56.36913],[14.00466,56.36909],[14.00431,56.36905],[14.00395,56.3691],[14.00382,56.36911],[14.00353,56.36913],[14.00348,56.36919],[14.00377,56.36927],[14.00411,56.36946],[14.00438,56.36956],[14.00461,56.3697],[14.00484,56.36981],[14.00515,56.36992],[14.00543,56.37],[14.00556,56.37019],[14.00616,56.37023],[14.00651,56.37012],[14.0061,56.37022],[14.00566,56.37039],[14.00565,56.37082],[14.00529,56.37097],[14.00491,56.37113],[14.00477,56.37126],[14.00453,56.3714],[14.00452,56.37152],[14.00453,56.37158],[14.00457,56.3716],[14.00444,56.3716],[14.00437,56.3715],[14.00448,56.37137],[14.00435,56.37124],[14.00419,56.37125],[14.00396,56.37123],[14.00383,56.37117],[14.00376,56.37115],[14.0039,56.37112],[14.00409,56.37118],[14.00432,56.37127],[14.00489,56.37161],[14.00562,56.37163],[14.00591,56.37185],[14.00625,56.37205],[14.00636,56.372],[14.00661,56.37185],[14.00685,56.37196],[14.00679,56.37199],[14.00712,56.37174],[14.00727,56.37145],[14.00749,56.37127],[14.00771,56.37107],[14.00792,56.37088],[14.00799,56.37071],[14.00804,56.37054],[14.00808,56.37042],[14.00824,56.37027],[14.00833,56.37018],[14.00833,56.37008],[14.00834,56.37007],[14.00839,56.37011],[14.00845,56.37012],[14.00848,56.37012],[14.0085,56.37008],[14.00852,56.36993],[14.00854,56.36982],[14.00845,56.36966],[14.00857,56.36953],[14.00868,56.36937],[14.0087,56.36918],[14.00883,56.36893],[14.00885,56.36878],[14.00879,56.36861],[14.00882,56.3685],[14.00901,56.36844],[14.00913,56.36838],[14.00924,56.3684],[14.00914,56.36836],[14.00867,56.3682],[14.0084,56.36803],[14.00817,56.36792],[14.00783,56.36777],[14.00755,56.36761],[14.00723,56.3675],[14.00694,56.36737],[14.00693,56.36735],[14.00671,56.36724],[14.00658,56.36715],[14.00637,56.36719],[14.00637,56.36741],[14.00644,56.36753],[14.00649,56.36757],[14.00665,56.36749],[14.00673,56.36735],[14.00696,56.3671],[14.00726,56.3668],[14.00773,56.36664],[14.00821,56.36655],[14.00853,56.36665],[14.0089,56.36677],[14.00886,56.36673],[14.0089,56.36667],[14.009,56.36647],[14.00882,56.36617],[14.00811,56.36593],[14.00804,56.36577],[14.00802,56.36539],[14.00844,56.36505],[14.00799,56.36466],[14.00753,56.36436],[14.00691,56.36431],[14.00627,56.3643],[14.00658,56.36441],[14.00721,56.36438],[14.00754,56.36432],[14.00727,56.36421],[14.00704,56.36382],[14.00665,56.36343],[14.00629,56.36312],[14.00637,56.363],[14.00651,56.36299],[14.00604,56.36292],[14.00576,56.36282],[14.00544,56.36262],[14.00539,56.3625],[14.00541,56.3625],[14.00531,56.36249],[14.00513,56.36249],[14.00473,56.36275],[14.00457,56.36295],[14.00464,56.36314],[14.00451,56.36334],[14.00447,56.36337],[14.00466,56.36332],[14.0049,56.36336],[14.00484,56.36337],[14.00464,56.36351],[14.00442,56.36384],[14.0042,56.36408],[14.0039,56.36443],[14.00396,56.36465],[14.00411,56.36485],[14.00416,56.36508],[14.00393,56.36496],[14.00359,56.36488],[14.00306,56.36494],[14.00279,56.36507],[14.00285,56.36515],[14.00297,56.36531],[14.00193,56.36564]]}}