{"type":"Feature","properties":{},"geometry":{"type":"LineString","coordinates":[[13.84939,56.28181],[13.84943,56.28187],[13.85035,56.28207],[13.85148,56.28247],[13.85231,56.28268],[13.85255,56.28301],[13.85231,56.28339],[13.85181,56.28369],[13.85125,56.28396],[13.85181,56.28422],[13.8523,56.28442],[13.85223,56.2847],[13.85232,56.28506],[13.85244,56.28543],[13.85295,56.28575],[13.85338,56.28581],[13.85422,56.28613],[13.85471,56.28667],[13.85566,56.28708],[13.85711,56.28701],[13.85836,56.28701],[13.85897,56.28669],[13.85943,56.28709],[13.85994,56.2874],[13.86044,56.2877],[13.86072,56.28795],[13.86088,56.28831],[13.86118,56.2887],[13.86158,56.28901],[13.86171,56.28928],[13.86185,56.28967],[13.86246,56.28976],[13.86286,56.2899],[13.86357,56.29007],[13.86391,56.29004],[13.86459,56.2898],[13.86504,56.28958],[13.86533,56.28925],[13.86555,56.28885],[13.866,56.28896],[13.86684,56.28883],[13.86767,56.28884],[13.86842,56.28874],[13.86897,56.28858],[13.86915,56.28851],[13.86949,56.28847],[13.86997,56.2883],[13.87044,56.28829],[13.87086,56.28827],[13.87148,56.28845],[13.87205,56.28849],[13.87279,56.28835],[13.87365,56.28819],[13.87422,56.28815],[13.87504,56.28808],[13.87585,56.28801],[13.87662,56.28798],[13.87717,56.28781],[13.87775,56.28803],[13.87825,56.28815],[13.87885,56.28825],[13.87947,56.28825],[13.88012,56.28814],[13.88046,56.28806],[13.88086,56.28819],[13.88114,56.28811],[13.88102,56.28777],[13.88099,56.28775],[13.88061,56.28804],[13.88056,56.28832],[13.88097,56.28861],[13.88146,56.2887],[13.88162,56.2889],[13.88205,56.28919],[13.8827,56.28946],[13.88339,56.28968],[13.88372,56.28985],[13.88435,56.29],[13.88447,56.29025],[13.88509,56.29049],[13.8854,56.29059],[13.88567,56.29087],[13.8858,56.29117],[13.8861,56.29143],[13.88611,56.29166],[13.88625,56.29194],[13.88675,56.29198],[13.88757,56.29182],[13.88838,56.29155],[13.88893,56.29155],[13.88932,56.29118],[13.8898,56.29105],[13.88985,56.29079],[13.88986,56.29048],[13.88944,56.29019],[13.88933,56.28979],[13.88961,56.28956],[13.88967,56.28918],[13.88978,56.28872],[13.88977,56.28838],[13.88996,56.28815],[13.88994,56.28794],[13.88966,56.28762],[13.88924,56.2876],[13.88952,56.28728],[13.88994,56.28696],[13.89028,56.28672],[13.89074,56.28636],[13.89103,56.2862],[13.89133,56.28603],[13.89174,56.28581],[13.89218,56.28565],[13.89286,56.28524],[13.89336,56.285],[13.89336,56.28466],[13.89304,56.2846],[13.8922,56.28454],[13.89145,56.28456],[13.89045,56.28457],[13.88948,56.28459],[13.88873,56.28434],[13.88763,56.2843],[13.88686,56.28455],[13.88631,56.28466],[13.88576,56.28498],[13.88546,56.28524],[13.88535,56.28514],[13.885,56.28507],[13.88427,56.28511],[13.88364,56.28516],[13.88312,56.28554],[13.8827,56.28553],[13.88227,56.28552],[13.88183,56.28558],[13.88151,56.2856],[13.88111,56.28548],[13.88061,56.28551],[13.88009,56.28566],[13.87938,56.28581],[13.879,56.2856],[13.8784,56.28535],[13.87768,56.28535],[13.87725,56.2853],[13.87671,56.28541],[13.87639,56.28537],[13.87607,56.28529],[13.87548,56.28526],[13.87491,56.28528],[13.87437,56.28522],[13.87392,56.28544],[13.8735,56.28555],[13.87329,56.28557],[13.87298,56.28538],[13.87231,56.28495],[13.87163,56.28486],[13.871,56.28475],[13.87036,56.28447],[13.87012,56.28409],[13.86998,56.28376],[13.86949,56.28354],[13.86884,56.28337],[13.86851,56.28305],[13.86815,56.28303],[13.86746,56.28287],[13.86665,56.28278],[13.86594,56.28257],[13.86542,56.28233],[13.86491,56.28224],[13.86391,56.28218],[13.86337,56.28222],[13.86275,56.28227],[13.86215,56.28243],[13.86167,56.28247],[13.86107,56.28251],[13.86041,56.28258],[13.85991,56.28263],[13.85953,56.28257],[13.85912,56.28242],[13.85863,56.2823],[13.85828,56.28216],[13.8576,56.28187],[13.85704,56.28181],[13.85618,56.2817],[13.85608,56.28126],[13.85531,56.28085],[13.85499,56.2805],[13.85505,56.27995],[13.8541,56.27953],[13.85271,56.27957],[13.85132,56.27982],[13.85005,56.28006],[13.84898,56.28027],[13.84789,56.28057],[13.84776,56.28055],[13.84777,56.28064],[13.84778,56.28062],[13.84793,56.28068],[13.8483,56.28071],[13.84832,56.28073],[13.84832,56.28073]]}}