{"type":"Feature","properties":{},"geometry":{"type":"LineString","coordinates":[[18.76051,57.91073],[18.76077,57.91047],[18.76105,57.91022],[18.76118,57.91008],[18.7615,57.90982],[18.76164,57.90966],[18.76172,57.90946],[18.76193,57.90918],[18.76222,57.90891],[18.76253,57.9086],[18.76283,57.90825],[18.76309,57.9079],[18.76332,57.90755],[18.76355,57.9072],[18.76366,57.90685],[18.76368,57.90648],[18.76359,57.90615],[18.76327,57.90581],[18.76304,57.90546],[18.76297,57.9051],[18.76291,57.90477],[18.76293,57.90439],[18.76323,57.90408],[18.76352,57.90374],[18.7637,57.90342],[18.76384,57.90305],[18.76389,57.90271],[18.76386,57.90236],[18.76403,57.902],[18.7642,57.90166],[18.76437,57.90132],[18.7646,57.90099],[18.76489,57.90064],[18.765,57.90032],[18.76523,57.89999],[18.76545,57.89967],[18.76568,57.89935],[18.76587,57.89904],[18.76604,57.89869],[18.76626,57.89838],[18.76649,57.89806],[18.76656,57.89776],[18.76673,57.89746],[18.76704,57.89721],[18.76722,57.8969],[18.76742,57.8966],[18.76777,57.89636],[18.76806,57.89611],[18.76814,57.89584],[18.768,57.89556],[18.76811,57.89523],[18.76835,57.89491],[18.76855,57.8946],[18.76874,57.89429],[18.76889,57.89398],[18.76911,57.89366],[18.76915,57.89337],[18.76921,57.89305],[18.76945,57.89273],[18.76958,57.89239],[18.76983,57.89205],[18.77004,57.89171],[18.7704,57.89144],[18.7707,57.89114],[18.77093,57.89084],[18.77109,57.89061],[18.77131,57.89037],[18.77153,57.8901],[18.77172,57.8899],[18.77199,57.88961],[18.77217,57.88941],[18.77235,57.88915],[18.77254,57.88883],[18.77262,57.88854],[18.77281,57.88835],[18.77321,57.8882],[18.77357,57.88791],[18.77378,57.88766],[18.77389,57.88747],[18.77399,57.88715],[18.7741,57.88681],[18.77422,57.8865],[18.77434,57.88616],[18.77446,57.88585],[18.77459,57.88556],[18.77477,57.88523],[18.775,57.88488],[18.77504,57.88455],[18.77511,57.8842],[18.77524,57.88386],[18.77526,57.88351],[18.77531,57.88316],[18.77529,57.88282],[18.77535,57.88245],[18.77541,57.88208],[18.77546,57.88172],[18.77568,57.88141],[18.7758,57.88108],[18.77598,57.88069],[18.77623,57.88035],[18.77644,57.88],[18.77654,57.87981],[18.77653,57.87979],[18.77663,57.8797],[18.77675,57.87961],[18.777,57.87931],[18.77713,57.87901],[18.77736,57.87868],[18.77771,57.8785],[18.77803,57.8782],[18.77825,57.8779],[18.7784,57.87758],[18.77845,57.87735],[18.77833,57.8771],[18.77788,57.87686],[18.77734,57.87683],[18.7768,57.87672],[18.7768,57.87644],[18.77661,57.8762],[18.77636,57.87591],[18.77622,57.87563],[18.77612,57.87534],[18.776,57.87505],[18.77595,57.87475],[18.77582,57.87445],[18.77545,57.87438],[18.7751,57.8742],[18.77476,57.87392],[18.77445,57.87361],[18.77419,57.87327],[18.77408,57.87296],[18.77401,57.87259],[18.77406,57.87223],[18.77417,57.87189],[18.77409,57.87153],[18.77412,57.8712],[18.77417,57.87087],[18.77428,57.87054],[18.7743,57.87021],[18.77439,57.86985],[18.77459,57.86952],[18.77485,57.86922],[18.77517,57.86898],[18.77524,57.86895],[18.77525,57.86894],[18.77598,57.86736],[18.77612,57.86705],[18.77625,57.86673],[18.77635,57.86641],[18.77646,57.86608],[18.77661,57.86575],[18.77682,57.86545],[18.77708,57.86515],[18.77751,57.8649],[18.77784,57.86465],[18.77811,57.86435],[18.77823,57.86403],[18.77834,57.8637],[18.77847,57.86335],[18.77865,57.86304],[18.77901,57.86273],[18.7793,57.86246],[18.77965,57.86217],[18.7801,57.8619],[18.78051,57.86174],[18.78082,57.86145],[18.78085,57.86114],[18.78094,57.86078],[18.78097,57.86047],[18.78096,57.86017],[18.78103,57.8599],[18.78105,57.85956],[18.78112,57.85926],[18.78124,57.85903],[18.78135,57.85889],[18.78147,57.85872],[18.78163,57.85842],[18.78168,57.85808],[18.78154,57.85776],[18.78144,57.85743],[18.78142,57.85705],[18.78151,57.85672],[18.78157,57.85641],[18.78157,57.8561],[18.78158,57.85579],[18.78155,57.85544],[18.78145,57.85509],[18.7814,57.85474],[18.78137,57.8544],[18.78143,57.85404],[18.78154,57.85372],[18.78175,57.85341],[18.78211,57.85312],[18.7825,57.85287],[18.78298,57.85261],[18.78336,57.85234],[18.7831,57.85222],[18.78268,57.85235],[18.78217,57.85247],[18.78187,57.85257]]}}