{"type":"Feature","properties":{},"geometry":{"type":"LineString","coordinates":[[11.99818,57.87495],[11.99819,57.87477],[11.99822,57.87458],[11.9985,57.87436],[11.99869,57.87414],[11.99875,57.8739],[11.99898,57.87377],[11.99939,57.87369],[11.99978,57.87366],[12.0002,57.87364],[12.00052,57.87352],[12.00081,57.87336],[12.00108,57.87323],[12.00146,57.87313],[12.00178,57.87302],[12.00211,57.87293],[12.00245,57.87293],[12.00283,57.87296],[12.00319,57.87299],[12.00358,57.87299],[12.00395,57.87298],[12.00438,57.87296],[12.00477,57.87296],[12.00525,57.87292],[12.00566,57.8729],[12.00609,57.87291],[12.0065,57.87292],[12.00693,57.8729],[12.00729,57.8728],[12.00727,57.87259],[12.00721,57.87241],[12.00717,57.87221],[12.00715,57.87202],[12.00715,57.8718],[12.00717,57.87162],[12.00728,57.8714],[12.00755,57.87126],[12.00784,57.87113],[12.00813,57.87109],[12.00855,57.8711],[12.00886,57.87122],[12.00904,57.87138],[12.00927,57.87151],[12.00956,57.87168],[12.00989,57.87182],[12.01026,57.87195],[12.0104,57.87213],[12.01042,57.87234],[12.01052,57.87253],[12.01098,57.87265],[12.01132,57.87282],[12.01171,57.873],[12.01199,57.87319],[12.01226,57.87341],[12.0126,57.87359],[12.01294,57.87378],[12.0132,57.87395],[12.01349,57.87414],[12.01387,57.87432],[12.01423,57.87451],[12.01454,57.87469],[12.01487,57.87488],[12.01518,57.87507],[12.01546,57.87528],[12.01567,57.87545],[12.01589,57.87565],[12.01604,57.87586],[12.01629,57.87606],[12.01673,57.87615],[12.01723,57.87626],[12.01763,57.87638],[12.01796,57.87656],[12.01821,57.87674],[12.01841,57.87696],[12.0185,57.87716],[12.01828,57.87727],[12.01795,57.87733],[12.01754,57.87742],[12.01719,57.87747],[12.01684,57.87755],[12.01649,57.8776],[12.01619,57.87776],[12.01624,57.87797],[12.01632,57.87824],[12.01653,57.87846],[12.01678,57.87869],[12.01702,57.8789],[12.01715,57.87914],[12.01711,57.87936],[12.01709,57.87961],[12.01688,57.87977],[12.01653,57.87982],[12.01616,57.87977],[12.0158,57.8796],[12.01544,57.87947],[12.01498,57.87932],[12.01466,57.87917],[12.01443,57.87901],[12.01418,57.87888],[12.01388,57.87873],[12.0138,57.87853],[12.01354,57.87837],[12.01312,57.87826],[12.01277,57.87813],[12.01245,57.87801],[12.01217,57.87789],[12.0119,57.87777],[12.01162,57.87769],[12.01127,57.87758],[12.01099,57.87749],[12.01064,57.87742],[12.01026,57.87747],[12.00999,57.87769],[12.00984,57.8779],[12.00981,57.87817],[12.01011,57.87835],[12.0106,57.8783],[12.01097,57.87828],[12.01127,57.8784],[12.01141,57.87859],[12.01152,57.87882],[12.01144,57.87905],[12.01119,57.87929],[12.01091,57.87945],[12.01053,57.87958],[12.0101,57.87955],[12.00961,57.87952],[12.00921,57.87948],[12.00877,57.87941],[12.00836,57.87937],[12.00792,57.87933],[12.00751,57.87938],[12.00704,57.87942],[12.00664,57.87947],[12.00621,57.87948],[12.00583,57.87951],[12.00537,57.87966],[12.00502,57.87977],[12.00459,57.87981],[12.0042,57.87981],[12.00379,57.87979],[12.00344,57.87972],[12.00298,57.87976],[12.00255,57.87986],[12.00209,57.88003],[12.00171,57.8801],[12.0013,57.88008],[12.00105,57.87993],[12.0008,57.87979],[12.00047,57.87968],[12.00008,57.87958],[11.99975,57.87952],[11.99939,57.87947],[11.99905,57.87942],[11.9988,57.87937],[11.99888,57.87935],[11.99907,57.87935],[11.99929,57.87935],[11.99962,57.87931],[11.99998,57.87927],[12.00037,57.8793],[12.00074,57.8793],[12.0011,57.87938],[12.00136,57.87935],[12.00154,57.87926],[12.00166,57.87916],[12.00183,57.87906],[12.00199,57.87895],[12.00193,57.87868],[12.00161,57.87861],[12.00112,57.87862],[12.00078,57.87858],[12.00054,57.87851],[12.00038,57.87847],[12.00018,57.87844],[12.00001,57.87839],[11.99972,57.87827],[11.99937,57.87816],[11.999,57.87806],[11.99876,57.87801],[11.99856,57.87797],[11.99838,57.87793],[11.99815,57.87786],[11.99782,57.87778],[11.99743,57.87764],[11.99708,57.87746],[11.99702,57.87727],[11.99725,57.8771],[11.9975,57.87695],[11.99775,57.87684],[11.99802,57.87672],[11.99823,57.87658],[11.99839,57.8764],[11.99837,57.87621],[11.99831,57.876],[11.99848,57.87583],[11.99868,57.87568],[11.9987,57.87548],[11.99867,57.87522],[11.99822,57.87487]]}}