{"type":"Feature","properties":{},"geometry":{"type":"LineString","coordinates":[[13.31767,56.06127],[13.31768,56.06126],[13.31728,56.06109],[13.31644,56.06106],[13.31559,56.06115],[13.31526,56.06149],[13.31526,56.06178],[13.315,56.06201],[13.31456,56.06221],[13.31441,56.06222],[13.31393,56.06204],[13.31339,56.06191],[13.31276,56.06172],[13.31204,56.06161],[13.3117,56.06159],[13.31195,56.06162],[13.31263,56.0615],[13.31319,56.06132],[13.31327,56.06107],[13.31332,56.06078],[13.31339,56.06063],[13.31379,56.06048],[13.31429,56.06026],[13.31457,56.06006],[13.31503,56.05991],[13.31556,56.05973],[13.31613,56.05961],[13.31642,56.05956],[13.31645,56.05939],[13.31643,56.05914],[13.31626,56.05893],[13.31603,56.05847],[13.31567,56.05816],[13.31546,56.05789],[13.31527,56.05774],[13.31484,56.05772],[13.31436,56.05769],[13.31411,56.05754],[13.31382,56.05741],[13.31353,56.05717],[13.31322,56.05717],[13.31296,56.05721],[13.31275,56.05719],[13.31231,56.05711],[13.31219,56.05709],[13.31232,56.05687],[13.3121,56.05677],[13.31173,56.05668],[13.3115,56.05653],[13.31128,56.05619],[13.3111,56.05595],[13.3109,56.0558],[13.31055,56.05561],[13.31011,56.05557],[13.31021,56.0555],[13.3106,56.05527],[13.31117,56.05504],[13.31165,56.05479],[13.31193,56.05468],[13.31221,56.05457],[13.31241,56.05459],[13.31282,56.05476],[13.31312,56.05493],[13.3137,56.05507],[13.31413,56.05523],[13.31471,56.05534],[13.31512,56.05555],[13.31541,56.0557],[13.3158,56.05595],[13.31602,56.05616],[13.31632,56.05635],[13.31664,56.05648],[13.31685,56.05659],[13.31708,56.05663],[13.31695,56.05658],[13.31672,56.05664],[13.31618,56.05678],[13.31594,56.05682],[13.3157,56.05693],[13.31517,56.05705],[13.31463,56.05709],[13.31433,56.05702],[13.31414,56.05706],[13.31369,56.05707],[13.31339,56.05706],[13.31321,56.05725],[13.31301,56.05728],[13.3126,56.05732],[13.31186,56.05737],[13.31126,56.0574],[13.31099,56.05738],[13.3107,56.05729],[13.31036,56.05728],[13.30996,56.05739],[13.30981,56.05759],[13.3097,56.05774],[13.3094,56.05784],[13.30888,56.05802],[13.30846,56.05801],[13.30802,56.05805],[13.30744,56.05808],[13.30671,56.05823],[13.3062,56.0586],[13.30563,56.05894],[13.30544,56.05933],[13.30509,56.05954],[13.30477,56.05971],[13.3042,56.05992],[13.30357,56.05999],[13.30304,56.06018],[13.30278,56.06028],[13.30258,56.06039],[13.30242,56.06055],[13.30236,56.06089],[13.30241,56.06116],[13.30216,56.06137],[13.30183,56.06173],[13.30176,56.06197],[13.30138,56.06203],[13.30087,56.06206],[13.30062,56.06219],[13.30037,56.06221],[13.30005,56.06244],[13.29991,56.06265],[13.29989,56.06285],[13.29997,56.06305],[13.30037,56.06326],[13.30068,56.06344],[13.30097,56.06352],[13.30123,56.06362],[13.30142,56.06367],[13.3017,56.06371],[13.30198,56.06377],[13.30252,56.06381],[13.30314,56.06381],[13.30368,56.06396],[13.30396,56.06416],[13.3042,56.06424],[13.30472,56.06427],[13.30482,56.06432],[13.30499,56.06452],[13.30511,56.06481],[13.30506,56.06517],[13.30492,56.06535],[13.30527,56.06538],[13.30581,56.06523],[13.30614,56.06521],[13.30658,56.06507],[13.30674,56.06506],[13.30668,56.06488],[13.30658,56.06477],[13.30676,56.06476],[13.3069,56.0646],[13.30698,56.06443],[13.307,56.06431],[13.3064,56.06437],[13.30646,56.06445],[13.30695,56.06454],[13.30744,56.06451],[13.30785,56.06456],[13.30783,56.06474],[13.30757,56.06494],[13.30743,56.06527],[13.30733,56.06551],[13.3072,56.06586],[13.3071,56.06623],[13.30685,56.06663],[13.30673,56.06695],[13.30763,56.06692],[13.3084,56.0668],[13.30919,56.06669],[13.30927,56.06666],[13.30935,56.06665],[13.30927,56.06667],[13.30919,56.06669],[13.30925,56.0667],[13.30925,56.06668],[13.30927,56.06669],[13.30927,56.06669],[13.30925,56.06668],[13.30926,56.06668],[13.30925,56.06669],[13.30927,56.0667],[13.30927,56.06669],[13.30929,56.06669],[13.30928,56.06669],[13.30927,56.06668],[13.30928,56.06667],[13.30928,56.06668],[13.30927,56.06668],[13.30927,56.06668],[13.30929,56.06669],[13.30929,56.06668],[13.30928,56.06669],[13.30927,56.06667],[13.30927,56.06667],[13.30928,56.06668],[13.30926,56.06668],[13.30925,56.06668],[13.30924,56.06667]]}}