{"type":"Feature","properties":{},"geometry":{"type":"LineString","coordinates":[[18.5954,57.83996],[18.59637,57.84043],[18.59747,57.84074],[18.59859,57.84121],[18.59961,57.84176],[18.60109,57.84215],[18.60241,57.84264],[18.6036,57.84312],[18.6047,57.84313],[18.60584,57.84306],[18.60672,57.84319],[18.60771,57.84343],[18.60854,57.84404],[18.60964,57.84453],[18.61039,57.84489],[18.61054,57.84511],[18.61037,57.84512],[18.61073,57.84522],[18.61661,57.8585],[18.61667,57.85853],[18.61715,57.8587],[18.61701,57.85915],[18.61697,57.85951],[18.617,57.86008],[18.61668,57.86059],[18.61699,57.86143],[18.61717,57.86227],[18.61732,57.86321],[18.61746,57.86407],[18.61738,57.865],[18.61748,57.86597],[18.61801,57.86686],[18.61798,57.86778],[18.61831,57.86869],[18.61859,57.86917],[18.61894,57.86994],[18.61899,57.86992],[18.61899,57.86996],[18.61895,57.86999],[18.61896,57.86998],[18.61895,57.86997],[18.61884,57.86976],[18.61914,57.87018],[18.61949,57.87076],[18.61899,57.86995],[18.61939,57.87077],[18.61948,57.8708],[18.61958,57.87113],[18.61968,57.87157],[18.61993,57.87232],[18.62016,57.87308],[18.61995,57.87374],[18.61981,57.8744],[18.61998,57.87494],[18.62011,57.87562],[18.62059,57.87629],[18.62109,57.87687],[18.62138,57.87708],[18.62254,57.87773],[18.62316,57.87856],[18.6235,57.87943],[18.62363,57.88034],[18.62347,57.88124],[18.62373,57.882],[18.62393,57.8826],[18.62398,57.88336],[18.62408,57.8839],[18.62404,57.88402],[18.62406,57.88401],[18.62504,57.88418],[18.62556,57.88497],[18.62629,57.88525],[18.62621,57.88609],[18.62683,57.88693],[18.62776,57.88765],[18.62903,57.88827],[18.62957,57.88893],[18.63045,57.88945],[18.63147,57.88994],[18.63237,57.89044],[18.63373,57.89092],[18.63505,57.89135],[18.63545,57.89209],[18.63601,57.8928],[18.63724,57.89348],[18.63857,57.8941],[18.63996,57.89464],[18.64145,57.89513],[18.64198,57.89511],[18.6419,57.89512],[18.6417,57.89509],[18.64165,57.89507],[18.64214,57.89528],[18.6438,57.89571],[18.64554,57.89624],[18.64706,57.89678],[18.6486,57.89737],[18.65024,57.89794],[18.65182,57.89854],[18.65338,57.89911],[18.65496,57.89968],[18.6565,57.90034],[18.65805,57.90095],[18.65961,57.90154],[18.66117,57.90213],[18.66256,57.90275],[18.66404,57.90344],[18.66529,57.90415],[18.6661,57.90457],[18.66743,57.90514],[18.66826,57.90594],[18.66975,57.90658],[18.67053,57.90691],[18.67212,57.90753],[18.67362,57.90818],[18.67479,57.90876],[18.67613,57.90939],[18.67763,57.91005],[18.67908,57.91062],[18.68028,57.91124],[18.68158,57.91175],[18.68268,57.91217],[18.68415,57.91278],[18.68549,57.91328],[18.68638,57.9137],[18.68653,57.91372],[18.68765,57.91448],[18.68859,57.91499],[18.68945,57.91559],[18.69064,57.91635],[18.69189,57.91706],[18.69299,57.91777],[18.69405,57.91855],[18.69515,57.91934],[18.69598,57.92013],[18.69708,57.92089],[18.6983,57.9214],[18.69853,57.92154],[18.70015,57.92136],[18.70185,57.92146],[18.70362,57.9217],[18.70515,57.92161],[18.70594,57.921],[18.70675,57.92103],[18.708,57.92112],[18.70919,57.92049],[18.71048,57.92002],[18.7106,57.91931],[18.71029,57.9187],[18.71024,57.91875],[18.71041,57.91851],[18.71041,57.9185],[18.71041,57.91849],[18.71043,57.91848],[18.71043,57.91852],[18.71046,57.91851],[18.71045,57.91851],[18.71044,57.91852],[18.71045,57.91852],[18.71043,57.91851],[18.71046,57.91852],[18.71043,57.91848],[18.71041,57.9185],[18.71039,57.91848],[18.71044,57.91885],[18.71109,57.9193],[18.71247,57.91935],[18.71383,57.91962],[18.7136,57.92034],[18.71349,57.92098],[18.715,57.92152],[18.71665,57.922],[18.71799,57.92265],[18.71918,57.92323],[18.72047,57.92389],[18.72182,57.92454],[18.72129,57.92506],[18.72116,57.92587],[18.72181,57.92674],[18.72257,57.9274],[18.72366,57.92752],[18.72479,57.92812],[18.72602,57.92851],[18.72772,57.92893],[18.72932,57.92922],[18.73096,57.92953],[18.73276,57.92938],[18.73451,57.92912],[18.73613,57.92878],[18.73784,57.92839],[18.73941,57.92796],[18.74045,57.92762],[18.74165,57.92709],[18.74284,57.92652],[18.74383,57.92594],[18.74505,57.9254],[18.74523,57.92513],[18.74541,57.92498],[18.74524,57.92452],[18.74441,57.92551]]}}