{"type":"Feature","properties":{},"geometry":{"type":"LineString","coordinates":[[12.99251,55.59137],[12.9925,55.59133],[12.99246,55.59121],[12.99246,55.59117],[12.9923,55.59103],[12.99228,55.59086],[12.99213,55.5908],[12.99195,55.59071],[12.99183,55.59059],[12.9918,55.59042],[12.99182,55.59024],[12.9917,55.5901],[12.99163,55.59002],[12.99142,55.58991],[12.99132,55.58974],[12.9914,55.58961],[12.99153,55.5895],[12.99168,55.58933],[12.99177,55.58922],[12.9918,55.58917],[12.99175,55.58915],[12.99168,55.58908],[12.99176,55.58908],[12.99197,55.58912],[12.99203,55.58915],[12.99201,55.58918],[12.99201,55.58919],[12.99217,55.58921],[12.99219,55.58918],[12.99229,55.58914],[12.99243,55.58902],[12.99249,55.58886],[12.99265,55.58886],[12.99266,55.58897],[12.99272,55.58908],[12.99295,55.58909],[12.9931,55.58916],[12.99307,55.58921],[12.99268,55.58917],[12.99266,55.58936],[12.99264,55.58958],[12.99262,55.58979],[12.99298,55.58988],[12.9932,55.58973],[12.99327,55.5896],[12.99339,55.58943],[12.99342,55.58929],[12.99338,55.58914],[12.99338,55.58899],[12.99337,55.589],[12.99335,55.58906],[12.99336,55.58906],[12.99328,55.58891],[12.99332,55.58886],[12.99363,55.58884],[12.99411,55.58884],[12.99447,55.58876],[12.99473,55.58861],[12.99494,55.58843],[12.99515,55.58829],[12.99529,55.58819],[12.9953,55.58808],[12.99516,55.58802],[12.99483,55.58802],[12.99457,55.588],[12.99441,55.58789],[12.99421,55.58777],[12.99396,55.58771],[12.9938,55.58779],[12.99376,55.58794],[12.99372,55.58812],[12.99365,55.58834],[12.99343,55.58847],[12.99306,55.5885],[12.99275,55.58859],[12.99237,55.58865],[12.99199,55.58865],[12.99163,55.58864],[12.99128,55.58862],[12.99095,55.58861],[12.99054,55.58864],[12.99021,55.58869],[12.98994,55.58875],[12.98962,55.58874],[12.98929,55.58877],[12.98907,55.5889],[12.98887,55.58906],[12.98883,55.58922],[12.98884,55.58942],[12.98891,55.58958],[12.989,55.58977],[12.98911,55.59001],[12.9892,55.59025],[12.98926,55.59045],[12.9893,55.59063],[12.9893,55.59077],[12.9894,55.59094],[12.98947,55.59115],[12.98957,55.59133],[12.98952,55.59147],[12.98929,55.59152],[12.98904,55.59153],[12.98879,55.59151],[12.9885,55.59153],[12.98826,55.59162],[12.98805,55.5918],[12.98798,55.59179],[12.9879,55.5917],[12.98805,55.59157],[12.98798,55.5914],[12.98778,55.59126],[12.98755,55.59113],[12.98726,55.591],[12.98695,55.59088],[12.98672,55.59078],[12.98641,55.59078],[12.98613,55.59076],[12.98604,55.59073],[12.98604,55.59061],[12.98596,55.59045],[12.98591,55.59028],[12.98581,55.59008],[12.98577,55.58992],[12.9858,55.58978],[12.98602,55.58974],[12.98625,55.58967],[12.98655,55.58966],[12.98679,55.58956],[12.98706,55.58943],[12.9872,55.58932],[12.98734,55.58937],[12.98755,55.58951],[12.9878,55.58965],[12.98812,55.58977],[12.98849,55.58987],[12.98878,55.58992],[12.98909,55.59],[12.98934,55.59008],[12.98962,55.59017],[12.98991,55.59025],[12.99018,55.59028],[12.99038,55.59037],[12.99057,55.59052],[12.9907,55.59066],[12.99077,55.59082],[12.99086,55.59098],[12.99104,55.59115],[12.99115,55.59132],[12.99122,55.59148],[12.99137,55.59166],[12.99145,55.59185],[12.99141,55.59203],[12.99142,55.59219],[12.99144,55.5923],[12.99128,55.59229],[12.99103,55.59229],[12.99095,55.59236],[12.9909,55.59249],[12.99103,55.59261],[12.99125,55.59275],[12.99124,55.59283],[12.99128,55.59288],[12.9913,55.59288],[12.99138,55.59284],[12.99161,55.59283],[12.99185,55.59279],[12.99176,55.59289],[12.99156,55.59305],[12.99155,55.59322],[12.99179,55.59341],[12.9921,55.59353],[12.99248,55.59364],[12.99281,55.5937],[12.9931,55.59366],[12.99321,55.59375],[12.99315,55.59394],[12.99307,55.59413],[12.99299,55.59424],[12.99317,55.59413],[12.99343,55.59397],[12.99368,55.59377],[12.99392,55.59364],[12.99412,55.59351],[12.99435,55.59342],[12.99448,55.59331],[12.99446,55.59311],[12.99448,55.59291],[12.99451,55.59269],[12.99449,55.59246],[12.99444,55.59227],[12.99437,55.59209],[12.99432,55.59195],[12.99405,55.59187],[12.99388,55.59178],[12.99383,55.59165],[12.9935,55.5916],[12.99313,55.59156],[12.99277,55.59157],[12.99265,55.59156],[12.99248,55.5915]]}}