{"type":"Feature","properties":{},"geometry":{"type":"LineString","coordinates":[[13.94734,55.90659],[13.94744,55.90657],[13.94733,55.90636],[13.94724,55.90606],[13.94729,55.90578],[13.94741,55.90567],[13.9475,55.90552],[13.94757,55.90536],[13.94757,55.90516],[13.94753,55.905],[13.94758,55.90486],[13.94766,55.9047],[13.94783,55.90453],[13.94771,55.90446],[13.94749,55.90435],[13.94752,55.90417],[13.94762,55.90405],[13.94775,55.90397],[13.94779,55.9038],[13.94795,55.90369],[13.94819,55.90353],[13.94841,55.90337],[13.94857,55.90324],[13.9488,55.90315],[13.9491,55.90309],[13.94932,55.903],[13.94956,55.90296],[13.94976,55.90281],[13.94989,55.90275],[13.95012,55.90262],[13.95013,55.90245],[13.95021,55.90228],[13.9503,55.90224],[13.95062,55.90225],[13.95089,55.90231],[13.95107,55.9024],[13.95126,55.90254],[13.95156,55.90261],[13.95177,55.90271],[13.95192,55.90274],[13.95222,55.90275],[13.95256,55.90282],[13.95279,55.90288],[13.95301,55.903],[13.953,55.90303],[13.95283,55.90315],[13.95266,55.90339],[13.95255,55.90362],[13.95231,55.9038],[13.95192,55.90385],[13.9516,55.90399],[13.95144,55.90411],[13.95123,55.90421],[13.95111,55.90431],[13.95097,55.9045],[13.95087,55.90475],[13.95066,55.90485],[13.95049,55.90485],[13.95059,55.90495],[13.95104,55.90506],[13.95151,55.90514],[13.95188,55.90521],[13.95231,55.90532],[13.95261,55.90539],[13.95286,55.90552],[13.95329,55.90563],[13.95363,55.90568],[13.95383,55.90586],[13.95418,55.906],[13.95458,55.9061],[13.95491,55.90623],[13.95524,55.90628],[13.95544,55.90638],[13.95577,55.90652],[13.95607,55.90666],[13.95626,55.90673],[13.95649,55.90675],[13.95671,55.90684],[13.95681,55.90695],[13.95683,55.90708],[13.95684,55.90716],[13.95707,55.90725],[13.95714,55.90732],[13.95737,55.90745],[13.95757,55.90762],[13.9577,55.90777],[13.95781,55.9079],[13.958,55.90799],[13.95827,55.9081],[13.95859,55.90821],[13.95878,55.90825],[13.95881,55.90838],[13.95905,55.90858],[13.95923,55.90867],[13.95931,55.9087],[13.95962,55.90883],[13.95987,55.90896],[13.96013,55.90904],[13.96047,55.90918],[13.96055,55.90927],[13.96071,55.90935],[13.9611,55.90939],[13.96123,55.90937],[13.96113,55.9094],[13.96104,55.90958],[13.96087,55.90976],[13.96076,55.90993],[13.96081,55.91007],[13.96074,55.91015],[13.96066,55.91029],[13.9606,55.91043],[13.96061,55.91057],[13.9604,55.91072],[13.96025,55.91086],[13.96018,55.91083],[13.96005,55.91075],[13.95972,55.91063],[13.9595,55.91056],[13.95902,55.91052],[13.9587,55.91052],[13.95858,55.91046],[13.95831,55.91043],[13.95806,55.91043],[13.95828,55.91049],[13.95834,55.91064],[13.95814,55.91077],[13.95794,55.91098],[13.95782,55.91123],[13.95775,55.91147],[13.9575,55.91168],[13.9572,55.91191],[13.95705,55.91208],[13.95708,55.91226],[13.95718,55.91242],[13.9573,55.91252],[13.95738,55.91263],[13.95738,55.9127],[13.95737,55.9127],[13.95736,55.91274],[13.95725,55.91266],[13.957,55.91257],[13.95699,55.91238],[13.95681,55.91228],[13.95669,55.91215],[13.95682,55.91191],[13.95682,55.9117],[13.95673,55.91156],[13.9566,55.91141],[13.95625,55.91127],[13.95592,55.91119],[13.95577,55.91103],[13.95574,55.91095],[13.95562,55.9108],[13.9555,55.91061],[13.95541,55.9105],[13.95516,55.91049],[13.95472,55.91051],[13.9544,55.91064],[13.95415,55.91073],[13.95386,55.91084],[13.95358,55.91104],[13.95352,55.91124],[13.95339,55.91137],[13.95327,55.91147],[13.95311,55.91159],[13.95299,55.91159],[13.95273,55.91173],[13.95245,55.91189],[13.95243,55.91196],[13.95227,55.9119],[13.95186,55.91185],[13.95138,55.91194],[13.95114,55.91204],[13.95092,55.91209],[13.95061,55.91202],[13.95033,55.91199],[13.95011,55.91199],[13.95001,55.91193],[13.94986,55.91186],[13.94973,55.91181],[13.94982,55.91172],[13.94978,55.91145],[13.94956,55.9112],[13.94928,55.91097],[13.9492,55.91079],[13.94922,55.91071],[13.94928,55.91058],[13.9493,55.91046],[13.94928,55.91038],[13.94926,55.91018],[13.94921,55.90999],[13.94912,55.90983],[13.94912,55.90971],[13.94913,55.90961],[13.94909,55.90948],[13.94873,55.90935],[13.94809,55.90939],[13.94747,55.90933],[13.94708,55.90908],[13.9469,55.90889]]}}