{"type":"Feature","properties":{},"geometry":{"type":"LineString","coordinates":[[13.21413,55.56906],[13.21439,55.5689],[13.21464,55.56909],[13.21466,55.56943],[13.21495,55.56972],[13.21543,55.56998],[13.21577,55.57033],[13.21613,55.57067],[13.21685,55.57062],[13.21749,55.57048],[13.21786,55.57012],[13.2184,55.56993],[13.21904,55.5699],[13.21971,55.56987],[13.22039,55.56993],[13.22104,55.56999],[13.22147,55.57007],[13.22182,55.57022],[13.22226,55.57031],[13.22242,55.57044],[13.22268,55.57056],[13.22278,55.57066],[13.22298,55.57082],[13.22351,55.57072],[13.22382,55.57077],[13.22374,55.57082],[13.22393,55.57094],[13.22392,55.57102],[13.22383,55.5711],[13.22378,55.57116],[13.22367,55.57119],[13.2234,55.5713],[13.22317,55.5715],[13.22302,55.57182],[13.22303,55.57196],[13.223,55.572],[13.22297,55.57217],[13.22302,55.57233],[13.22303,55.57253],[13.22294,55.57278],[13.22277,55.57294],[13.22264,55.57326],[13.22238,55.57347],[13.22172,55.57345],[13.22115,55.57361],[13.22068,55.57388],[13.22036,55.57406],[13.22026,55.57417],[13.22033,55.57439],[13.2203,55.57458],[13.22041,55.57472],[13.22034,55.57481],[13.22054,55.57503],[13.2206,55.57521],[13.22069,55.57532],[13.22092,55.5756],[13.22118,55.57572],[13.22167,55.57571],[13.22225,55.57562],[13.22281,55.57566],[13.22334,55.57567],[13.22369,55.57578],[13.22407,55.57592],[13.22441,55.57601],[13.22482,55.57599],[13.2251,55.57581],[13.22532,55.5758],[13.22561,55.57577],[13.22589,55.57569],[13.22621,55.57557],[13.2263,55.57544],[13.22632,55.57525],[13.22643,55.57516],[13.22655,55.57502],[13.22667,55.57483],[13.22675,55.57474],[13.22683,55.57464],[13.22687,55.57454],[13.22703,55.57443],[13.22715,55.57431],[13.22728,55.57411],[13.22725,55.57387],[13.22728,55.57366],[13.22731,55.57359],[13.22746,55.57346],[13.22773,55.57339],[13.22791,55.57336],[13.22809,55.57326],[13.22825,55.57299],[13.22813,55.57283],[13.22792,55.57277],[13.22753,55.57274],[13.22694,55.57278],[13.22634,55.5728],[13.22581,55.57282],[13.22527,55.57288],[13.22489,55.57286],[13.2246,55.57278],[13.22401,55.57263],[13.22364,55.57267],[13.22306,55.57292],[13.22264,55.57307],[13.22245,55.57312],[13.22217,55.57302],[13.22192,55.57289],[13.22173,55.5727],[13.22157,55.57266],[13.22183,55.57258],[13.222,55.57237],[13.22204,55.57224],[13.2221,55.57212],[13.22206,55.57203],[13.22161,55.57204],[13.22137,55.57205],[13.22111,55.57203],[13.22073,55.57217],[13.22018,55.57231],[13.21976,55.57236],[13.21944,55.57227],[13.21896,55.57225],[13.2186,55.5725],[13.21812,55.57264],[13.21767,55.57298],[13.21739,55.57305],[13.21706,55.57285],[13.21683,55.57275],[13.21649,55.57272],[13.21602,55.57267],[13.21597,55.57237],[13.21551,55.57213],[13.21491,55.57208],[13.21467,55.57201],[13.21478,55.57195],[13.2148,55.57178],[13.21504,55.57156],[13.2152,55.57126],[13.21542,55.57116],[13.21561,55.57101],[13.21606,55.57094],[13.21668,55.57074],[13.21737,55.57054],[13.21779,55.57021],[13.21818,55.56989],[13.21832,55.56965],[13.21855,55.56936],[13.21867,55.56909],[13.21879,55.56897],[13.21891,55.56877],[13.21907,55.56855],[13.2191,55.56831],[13.21911,55.56801],[13.21921,55.56781],[13.21944,55.56753],[13.21971,55.56746],[13.2203,55.56735],[13.22078,55.5672],[13.22098,55.56717],[13.22109,55.56696],[13.22076,55.56675],[13.22056,55.56639],[13.2207,55.56601],[13.22084,55.56567],[13.22122,55.56542],[13.22135,55.56533],[13.2215,55.56501],[13.22156,55.56484],[13.22147,55.56472],[13.22113,55.56456],[13.22075,55.56442],[13.22037,55.56432],[13.21997,55.56428],[13.21956,55.56424],[13.21918,55.56417],[13.21858,55.56406],[13.21826,55.56395],[13.21825,55.56408],[13.2181,55.5643],[13.21781,55.56457],[13.21772,55.56473],[13.21759,55.56506],[13.21745,55.56542],[13.21733,55.56564],[13.21713,55.56593],[13.21681,55.56622],[13.21661,55.56643],[13.21641,55.5666],[13.21629,55.56675],[13.21629,55.56678],[13.21628,55.56679],[13.21631,55.56696],[13.21655,55.56714],[13.21656,55.56715],[13.21615,55.56731],[13.21575,55.56747],[13.21513,55.56758],[13.21491,55.56777],[13.21482,55.56806],[13.21444,55.56829],[13.21371,55.56842],[13.21392,55.56899]]}}