{"type":"Feature","properties":{},"geometry":{"type":"LineString","coordinates":[[13.21112,55.56091],[13.21101,55.5607],[13.21063,55.56027],[13.21032,55.56006],[13.20992,55.56012],[13.20983,55.55995],[13.20965,55.55965],[13.20995,55.5593],[13.20996,55.55889],[13.20965,55.55871],[13.20981,55.55864],[13.20968,55.55857],[13.2097,55.55875],[13.20979,55.55914],[13.20946,55.55949],[13.20913,55.55991],[13.20863,55.56026],[13.20807,55.56056],[13.20753,55.5608],[13.20713,55.56093],[13.20663,55.56101],[13.20641,55.56108],[13.20631,55.56126],[13.20587,55.56139],[13.20542,55.56145],[13.20492,55.56164],[13.20467,55.5619],[13.20462,55.56205],[13.20446,55.56213],[13.20411,55.56223],[13.20376,55.56223],[13.2037,55.56247],[13.20344,55.5627],[13.20316,55.56285],[13.20297,55.563],[13.20282,55.56317],[13.20269,55.5633],[13.2026,55.56352],[13.20278,55.56382],[13.20263,55.56401],[13.20232,55.56415],[13.20186,55.56444],[13.20169,55.56469],[13.20162,55.5645],[13.2012,55.56415],[13.20096,55.56399],[13.20057,55.56387],[13.20025,55.5637],[13.19976,55.5635],[13.19972,55.56348],[13.2001,55.56334],[13.20069,55.5632],[13.201,55.56315],[13.20146,55.56303],[13.2021,55.56279],[13.20238,55.56233],[13.20256,55.56188],[13.20286,55.56155],[13.20328,55.56119],[13.20328,55.56097],[13.20325,55.5608],[13.20323,55.56071],[13.2032,55.56038],[13.20316,55.56015],[13.203,55.55996],[13.20288,55.55983],[13.20271,55.55957],[13.20255,55.55924],[13.20224,55.55896],[13.20195,55.55873],[13.20205,55.55846],[13.20204,55.55816],[13.20198,55.55773],[13.20148,55.55744],[13.20139,55.55706],[13.20154,55.55688],[13.20168,55.55688],[13.20191,55.55671],[13.20218,55.55646],[13.20239,55.55612],[13.2027,55.55581],[13.20285,55.55565],[13.20304,55.55548],[13.20341,55.55515],[13.20368,55.55479],[13.20384,55.55452],[13.20417,55.55425],[13.20454,55.55386],[13.20472,55.55344],[13.20499,55.55305],[13.20548,55.55291],[13.20577,55.5529],[13.20591,55.5529],[13.20622,55.5529],[13.2066,55.55287],[13.20649,55.55272],[13.20618,55.55261],[13.20574,55.5527],[13.20522,55.55291],[13.20461,55.55315],[13.20393,55.55308],[13.20355,55.55301],[13.20307,55.5529],[13.20292,55.55291],[13.20283,55.55307],[13.20301,55.55346],[13.20314,55.55369],[13.2031,55.55382],[13.20273,55.55404],[13.20288,55.55424],[13.20346,55.55446],[13.20349,55.55483],[13.20412,55.55501],[13.2048,55.55516],[13.20564,55.55505],[13.20638,55.55497],[13.20652,55.55482],[13.20677,55.55469],[13.20708,55.55457],[13.20765,55.55443],[13.20841,55.55428],[13.2092,55.55419],[13.21001,55.55408],[13.21069,55.554],[13.2113,55.55394],[13.21212,55.55393],[13.21275,55.55393],[13.21313,55.55397],[13.21354,55.55394],[13.21392,55.55401],[13.21443,55.55399],[13.21519,55.554],[13.21599,55.55409],[13.2167,55.55402],[13.21718,55.55409],[13.21788,55.55409],[13.21823,55.55409],[13.21865,55.55403],[13.21917,55.5538],[13.21948,55.55377],[13.21974,55.55371],[13.22013,55.55366],[13.22067,55.55357],[13.22093,55.55355],[13.22143,55.55354],[13.22177,55.55362],[13.22227,55.55374],[13.22298,55.55372],[13.22342,55.5537],[13.22388,55.55355],[13.22451,55.55353],[13.22469,55.55359],[13.22476,55.5538],[13.22553,55.55393],[13.22587,55.55423],[13.22588,55.55445],[13.2257,55.55487],[13.22558,55.5552],[13.22549,55.55548],[13.22541,55.55582],[13.22545,55.55609],[13.22538,55.55618],[13.22531,55.556],[13.22474,55.55578],[13.224,55.55563],[13.22355,55.55562],[13.22318,55.55582],[13.22256,55.556],[13.22194,55.55618],[13.2218,55.55636],[13.22161,55.55647],[13.22152,55.55661],[13.22137,55.55678],[13.22107,55.55686],[13.22085,55.55683],[13.22037,55.55676],[13.2199,55.55672],[13.21968,55.55696],[13.21916,55.55726],[13.21854,55.55729],[13.21807,55.55761],[13.21774,55.55759],[13.21735,55.55742],[13.21705,55.55748],[13.21711,55.55768],[13.21664,55.55782],[13.21619,55.55805],[13.21617,55.55821],[13.21567,55.55841],[13.21492,55.5585],[13.21434,55.55855],[13.21365,55.55867],[13.21332,55.55887],[13.21275,55.55919],[13.21261,55.55947],[13.21244,55.55975],[13.21201,55.56004],[13.21206,55.56045],[13.21218,55.56057],[13.21187,55.56054]]}}