{"type":"Feature","properties":{},"geometry":{"type":"LineString","coordinates":[[16.47546,57.24428],[16.47574,57.24413],[16.47581,57.24383],[16.47546,57.24365],[16.47483,57.24361],[16.47411,57.24366],[16.47345,57.24357],[16.4729,57.24339],[16.47261,57.24326],[16.47225,57.24301],[16.4719,57.24281],[16.4719,57.24275],[16.47178,57.24255],[16.47159,57.24241],[16.4719,57.24231],[16.4722,57.24212],[16.47234,57.24193],[16.4725,57.24161],[16.4726,57.24131],[16.47274,57.24105],[16.47295,57.24085],[16.47314,57.24063],[16.47337,57.24045],[16.47362,57.24033],[16.47382,57.24036],[16.47408,57.24039],[16.4741,57.24044],[16.47408,57.24029],[16.47393,57.24011],[16.47378,57.23998],[16.47417,57.23985],[16.4738,57.23964],[16.47351,57.23957],[16.47312,57.23951],[16.47272,57.23939],[16.47232,57.23941],[16.47201,57.23929],[16.47195,57.23901],[16.47158,57.23883],[16.47152,57.23864],[16.47163,57.23846],[16.47154,57.23843],[16.47135,57.23842],[16.471,57.23844],[16.47054,57.23851],[16.47059,57.23823],[16.47042,57.23804],[16.47018,57.23791],[16.47037,57.23779],[16.47061,57.23748],[16.47075,57.23721],[16.47048,57.23707],[16.47039,57.23694],[16.47041,57.23683],[16.47049,57.23667],[16.47065,57.23648],[16.47073,57.23651],[16.47117,57.23648],[16.47159,57.23633],[16.4719,57.23617],[16.47197,57.23618],[16.47236,57.23639],[16.47251,57.23664],[16.47242,57.23685],[16.47262,57.23706],[16.4728,57.23741],[16.47309,57.23754],[16.47338,57.23767],[16.47376,57.23788],[16.47403,57.23807],[16.47441,57.23823],[16.47487,57.23821],[16.47534,57.23819],[16.47566,57.23834],[16.47619,57.23847],[16.47642,57.23842],[16.47651,57.2383],[16.47689,57.23802],[16.47749,57.23804],[16.47791,57.23808],[16.47826,57.23793],[16.47845,57.23772],[16.47877,57.23743],[16.47924,57.23706],[16.47961,57.23695],[16.48023,57.23697],[16.48044,57.2369],[16.48067,57.23687],[16.4809,57.23678],[16.48132,57.23658],[16.48181,57.23643],[16.48203,57.23627],[16.48233,57.23622],[16.48278,57.23629],[16.4832,57.23641],[16.48371,57.23643],[16.48427,57.2366],[16.48469,57.23672],[16.48513,57.23666],[16.48578,57.23669],[16.48643,57.23673],[16.487,57.23665],[16.48743,57.23658],[16.48791,57.23665],[16.48846,57.23667],[16.48885,57.23666],[16.48924,57.23673],[16.48952,57.23686],[16.48978,57.23709],[16.49022,57.2373],[16.49068,57.23731],[16.49135,57.23739],[16.49156,57.23754],[16.49181,57.23761],[16.49187,57.23774],[16.49171,57.23794],[16.49134,57.23795],[16.49139,57.23799],[16.49177,57.23804],[16.4919,57.23809],[16.49197,57.23824],[16.49242,57.23829],[16.49277,57.2383],[16.4929,57.23834],[16.49308,57.23847],[16.49323,57.2386],[16.49351,57.2387],[16.49368,57.23879],[16.49388,57.23895],[16.49441,57.23907],[16.49501,57.23911],[16.49542,57.2393],[16.49554,57.23964],[16.49607,57.23994],[16.49605,57.24029],[16.49602,57.24047],[16.49617,57.24068],[16.49623,57.24087],[16.49615,57.24108],[16.49592,57.24124],[16.49565,57.24129],[16.4954,57.24134],[16.49514,57.24144],[16.49501,57.24159],[16.49473,57.24188],[16.49457,57.24213],[16.49441,57.2423],[16.49413,57.24241],[16.49378,57.24263],[16.49348,57.24285],[16.49303,57.24308],[16.49279,57.24343],[16.4926,57.24375],[16.49243,57.24392],[16.49222,57.24407],[16.4919,57.24437],[16.49154,57.24466],[16.49138,57.2449],[16.49132,57.24512],[16.49148,57.24521],[16.49174,57.2453],[16.49179,57.24556],[16.4916,57.24565],[16.49118,57.24576],[16.49056,57.24589],[16.49032,57.24596],[16.4901,57.24597],[16.48987,57.24605],[16.48955,57.24617],[16.48906,57.24629],[16.48896,57.24632],[16.48874,57.24621],[16.48843,57.24611],[16.48837,57.24609],[16.48805,57.24613],[16.4877,57.24619],[16.48733,57.24622],[16.48726,57.24637],[16.48724,57.24652],[16.48732,57.24677],[16.48743,57.24702],[16.4876,57.24715],[16.48758,57.24714],[16.48821,57.24723],[16.48871,57.24751],[16.4889,57.24787],[16.48929,57.24817],[16.48938,57.24838],[16.48905,57.24865],[16.48866,57.24888],[16.48834,57.24898],[16.48809,57.24909],[16.48785,57.2492],[16.48774,57.24919],[16.48806,57.2494],[16.48811,57.24962],[16.48761,57.24996],[16.48686,57.2501],[16.48607,57.25032],[16.48678,57.25026]]}}