{"type":"Feature","properties":{},"geometry":{"type":"LineString","coordinates":[[13.08529,55.65809],[13.0853,55.65806],[13.08526,55.65802],[13.0854,55.65803],[13.08582,55.65805],[13.08606,55.65789],[13.08637,55.65778],[13.08675,55.65775],[13.08675,55.65771],[13.08658,55.65755],[13.08677,55.65738],[13.08679,55.65719],[13.08643,55.65712],[13.08624,55.65704],[13.08599,55.65706],[13.08591,55.65719],[13.08582,55.65735],[13.08581,55.65758],[13.08563,55.65768],[13.0852,55.65772],[13.08474,55.65773],[13.08429,55.65768],[13.08388,55.65758],[13.0835,55.65748],[13.08321,55.65742],[13.08315,55.6574],[13.08294,55.65726],[13.08293,55.65704],[13.08302,55.6568],[13.08274,55.65663],[13.08234,55.65653],[13.08213,55.65641],[13.08216,55.65628],[13.08232,55.65619],[13.08229,55.6561],[13.08254,55.65613],[13.08292,55.65603],[13.08305,55.65585],[13.08317,55.65577],[13.08317,55.65562],[13.08353,55.65557],[13.08382,55.65552],[13.08401,55.65535],[13.08435,55.65527],[13.0846,55.65541],[13.08479,55.65546],[13.08455,55.65538],[13.0843,55.65521],[13.08396,55.65512],[13.08361,55.65502],[13.08329,55.65502],[13.08296,55.65515],[13.08273,55.65529],[13.08261,55.65532],[13.08242,55.65535],[13.08236,55.65523],[13.08233,55.65507],[13.08218,55.65503],[13.08188,55.655],[13.08145,55.65497],[13.08106,55.65495],[13.08069,55.65488],[13.08031,55.65482],[13.07996,55.65485],[13.07971,55.65492],[13.07953,55.65494],[13.07943,55.65504],[13.07926,55.6552],[13.07928,55.65524],[13.07949,55.65508],[13.07962,55.65487],[13.07957,55.65467],[13.07987,55.65459],[13.0801,55.65471],[13.08042,55.65472],[13.08084,55.65462],[13.08122,55.6545],[13.08145,55.65427],[13.0814,55.65402],[13.08142,55.65396],[13.08124,55.65387],[13.08091,55.65376],[13.08057,55.65365],[13.08025,55.65357],[13.08014,55.65359],[13.08012,55.65358],[13.07985,55.65351],[13.07965,55.65332],[13.07948,55.65316],[13.07934,55.65298],[13.07913,55.65294],[13.07874,55.65292],[13.07829,55.65288],[13.07788,55.65283],[13.07772,55.65295],[13.07781,55.65315],[13.0779,55.65335],[13.0781,55.65353],[13.07835,55.6537],[13.07846,55.65388],[13.07852,55.65396],[13.07886,55.65397],[13.07918,55.65395],[13.07952,55.65382],[13.0799,55.65375],[13.0803,55.65366],[13.08044,55.6535],[13.08058,55.65325],[13.08092,55.65313],[13.08121,55.6531],[13.08134,55.65303],[13.08125,55.65293],[13.08125,55.65296],[13.08122,55.65309],[13.08128,55.65327],[13.08123,55.65347],[13.08109,55.65365],[13.08116,55.65384],[13.08126,55.65393],[13.08132,55.65405],[13.08138,55.6542],[13.0812,55.65436],[13.08089,55.65448],[13.08055,55.65463],[13.08061,55.65486],[13.08075,55.65508],[13.08091,55.65532],[13.08077,55.65554],[13.08065,55.65577],[13.0805,55.65598],[13.08046,55.65621],[13.08091,55.65622],[13.08116,55.65616],[13.08109,55.65628],[13.08123,55.65646],[13.08137,55.65665],[13.08146,55.65686],[13.08155,55.65707],[13.08182,55.6572],[13.08192,55.65719],[13.08161,55.6572],[13.08121,55.65726],[13.08101,55.6575],[13.08083,55.6577],[13.08049,55.65775],[13.08031,55.6577],[13.08027,55.65753],[13.07995,55.65741],[13.07963,55.65731],[13.07925,55.65726],[13.07883,55.65718],[13.07887,55.65708],[13.07905,55.65703],[13.07904,55.65692],[13.07892,55.6568],[13.07884,55.65679],[13.07882,55.65679],[13.07881,55.65679],[13.07876,55.65685],[13.0786,55.65688],[13.0784,55.65696],[13.07842,55.65711],[13.07827,55.65716],[13.07787,55.65713],[13.0779,55.65727],[13.07784,55.65727],[13.07779,55.65718],[13.07813,55.65722],[13.07839,55.65738],[13.07859,55.65755],[13.07885,55.65755],[13.07905,55.65757],[13.07939,55.65758],[13.07963,55.65759],[13.07989,55.65755],[13.0802,55.65753],[13.08033,55.6577],[13.08074,55.65779],[13.08102,55.65762],[13.08107,55.65738],[13.08102,55.65731],[13.08102,55.65741],[13.081,55.65751],[13.08095,55.65769],[13.08099,55.65795],[13.081,55.6582],[13.08116,55.65845],[13.08138,55.6587],[13.08177,55.65882],[13.08213,55.65884],[13.08239,55.65887],[13.08242,55.65884],[13.08263,55.65876],[13.08292,55.65884],[13.08321,55.65888],[13.08365,55.65887],[13.0841,55.65888],[13.0845,55.65883],[13.08476,55.65871],[13.08522,55.65864]]}}