{"type":"Feature","properties":{},"geometry":{"type":"LineString","coordinates":[[12.97995,55.61547],[12.97978,55.61549],[12.97962,55.61545],[12.97958,55.61538],[12.97943,55.6153],[12.9792,55.61515],[12.9791,55.61503],[12.97892,55.61492],[12.9787,55.61498],[12.97847,55.61508],[12.97822,55.61509],[12.97789,55.61516],[12.97755,55.61516],[12.97739,55.61498],[12.97749,55.61484],[12.9776,55.61501],[12.97763,55.615],[12.97756,55.61488],[12.97732,55.61476],[12.97731,55.61455],[12.97728,55.61434],[12.97725,55.61413],[12.97706,55.61393],[12.97708,55.61372],[12.97715,55.61372],[12.97714,55.61378],[12.97714,55.61369],[12.97691,55.61362],[12.97653,55.61357],[12.97622,55.61343],[12.97603,55.61327],[12.97575,55.61318],[12.97532,55.61316],[12.97505,55.61327],[12.97498,55.61345],[12.97473,55.61354],[12.97431,55.61352],[12.97427,55.61336],[12.97439,55.61329],[12.97416,55.61337],[12.97408,55.61357],[12.97398,55.61377],[12.97391,55.61396],[12.97413,55.61396],[12.97445,55.61401],[12.97443,55.61418],[12.97438,55.61438],[12.97429,55.61459],[12.97448,55.61472],[12.97435,55.61496],[12.9742,55.61519],[12.9742,55.61525],[12.97402,55.61519],[12.9739,55.61515],[12.97368,55.61509],[12.97373,55.61489],[12.97377,55.61472],[12.97353,55.61458],[12.97325,55.61463],[12.97326,55.6146],[12.97315,55.61445],[12.97318,55.61425],[12.97331,55.61408],[12.97372,55.61403],[12.97395,55.61388],[12.97394,55.61369],[12.97379,55.61361],[12.9735,55.61363],[12.97341,55.61372],[12.97341,55.6136],[12.97329,55.61339],[12.97317,55.61322],[12.97288,55.61309],[12.97278,55.61286],[12.97277,55.6127],[12.97296,55.61265],[12.9732,55.61264],[12.97345,55.61268],[12.97363,55.61261],[12.9737,55.6124],[12.97384,55.6122],[12.9742,55.61213],[12.9743,55.61191],[12.9744,55.61174],[12.97447,55.61155],[12.97426,55.61137],[12.97398,55.61135],[12.97382,55.61143],[12.97367,55.61149],[12.97358,55.61146],[12.97354,55.6113],[12.97355,55.61113],[12.97356,55.6109],[12.97334,55.61075],[12.97332,55.61052],[12.97352,55.61038],[12.97383,55.61041],[12.97408,55.61044],[12.97422,55.61052],[12.97425,55.61051],[12.9743,55.61054],[12.97414,55.61055],[12.97422,55.61042],[12.97465,55.61035],[12.97493,55.61036],[12.97485,55.61048],[12.97483,55.61063],[12.97518,55.61071],[12.97554,55.6108],[12.9755,55.61094],[12.97545,55.61101],[12.97542,55.61112],[12.97539,55.61137],[12.9755,55.61157],[12.97571,55.61157],[12.97587,55.61162],[12.976,55.61163],[12.97614,55.61159],[12.97625,55.61156],[12.97613,55.61161],[12.97611,55.61175],[12.9761,55.61191],[12.9761,55.6121],[12.97603,55.61222],[12.97609,55.61229],[12.9762,55.61232],[12.97635,55.61223],[12.97658,55.6121],[12.97697,55.61215],[12.97732,55.61219],[12.9776,55.61229],[12.97796,55.61234],[12.97835,55.61239],[12.97866,55.61242],[12.97898,55.61245],[12.97907,55.61255],[12.97889,55.61267],[12.97854,55.61263],[12.97824,55.61277],[12.97797,55.61296],[12.97782,55.61303],[12.97805,55.61296],[12.97837,55.61288],[12.9785,55.61299],[12.97845,55.61316],[12.97884,55.61325],[12.97916,55.61328],[12.97939,55.61318],[12.97942,55.61305],[12.97935,55.61322],[12.97929,55.61334],[12.9792,55.61341],[12.979,55.61348],[12.97871,55.61355],[12.97863,55.6138],[12.97858,55.61403],[12.97842,55.61413],[12.97818,55.61429],[12.97807,55.61422],[12.97793,55.61416],[12.97775,55.61413],[12.97778,55.61401],[12.97764,55.61386],[12.97721,55.61369],[12.97696,55.61373],[12.97686,55.61394],[12.97675,55.6141],[12.97664,55.6143],[12.9766,55.61449],[12.97679,55.61454],[12.97673,55.61464],[12.97675,55.61478],[12.97694,55.61488],[12.97709,55.61485],[12.97698,55.61482],[12.97711,55.61485],[12.97728,55.61492],[12.97744,55.6151],[12.9778,55.61516],[12.97791,55.61496],[12.97802,55.61473],[12.97825,55.61465],[12.97853,55.61458],[12.97856,55.61446],[12.97853,55.61446],[12.97849,55.6144],[12.97874,55.61437],[12.97916,55.61434],[12.97946,55.6145],[12.97964,55.6146],[12.97971,55.61464],[12.97975,55.61465],[12.97976,55.61465],[12.97976,55.61466],[12.97981,55.61465],[12.97981,55.61464],[12.97981,55.61464],[12.97982,55.61464],[12.97982,55.61464],[12.97983,55.61464]]}}