{"type":"Feature","properties":{},"geometry":{"type":"LineString","coordinates":[[12.97591,55.41698],[12.97566,55.41702],[12.97549,55.41711],[12.97542,55.41722],[12.97543,55.41735],[12.97546,55.41755],[12.97548,55.41776],[12.97551,55.41793],[12.97563,55.41811],[12.97598,55.41812],[12.97634,55.41811],[12.97674,55.4181],[12.97705,55.4181],[12.97715,55.41827],[12.97722,55.41849],[12.97728,55.41869],[12.97733,55.41894],[12.97737,55.41913],[12.97737,55.41932],[12.9774,55.41954],[12.97739,55.41974],[12.97754,55.41987],[12.97791,55.41992],[12.97812,55.42004],[12.97832,55.42019],[12.97827,55.42031],[12.97797,55.42038],[12.97763,55.42046],[12.9773,55.42055],[12.97703,55.42064],[12.97674,55.42078],[12.97645,55.42088],[12.97614,55.421],[12.97586,55.42112],[12.97558,55.42123],[12.97528,55.42139],[12.97497,55.42148],[12.97463,55.42148],[12.97454,55.42162],[12.97457,55.42154],[12.97477,55.42136],[12.97488,55.42115],[12.97496,55.42095],[12.97503,55.42073],[12.97507,55.42054],[12.97511,55.42038],[12.97518,55.42023],[12.9752,55.42008],[12.97499,55.41989],[12.97482,55.41973],[12.97464,55.41958],[12.97443,55.41943],[12.97416,55.4193],[12.97386,55.41919],[12.97354,55.41907],[12.97328,55.41898],[12.97294,55.41885],[12.97263,55.41872],[12.9723,55.41859],[12.97227,55.4184],[12.97248,55.41822],[12.97267,55.41807],[12.97285,55.41789],[12.97291,55.41771],[12.97262,55.41752],[12.97266,55.41732],[12.97287,55.41716],[12.97308,55.41698],[12.97327,55.41684],[12.97347,55.41673],[12.97362,55.41659],[12.97377,55.41654],[12.97401,55.41641],[12.97428,55.4163],[12.97454,55.41619],[12.97485,55.41609],[12.97514,55.4161],[12.9754,55.41605],[12.97554,55.41587],[12.97563,55.41566],[12.97564,55.41543],[12.9758,55.41532],[12.97612,55.41539],[12.97643,55.41545],[12.97643,55.41562],[12.97651,55.41575],[12.97655,55.41581],[12.97648,55.41566],[12.97644,55.41547],[12.97633,55.41533],[12.97601,55.41526],[12.97578,55.41519],[12.97578,55.41505],[12.97595,55.41487],[12.97614,55.41467],[12.97643,55.41457],[12.97681,55.41464],[12.97714,55.4146],[12.9774,55.41444],[12.97762,55.41426],[12.97787,55.41421],[12.9782,55.4143],[12.97857,55.41436],[12.97886,55.41433],[12.9792,55.41437],[12.97931,55.41429],[12.97944,55.41415],[12.97962,55.41397],[12.97979,55.4138],[12.97996,55.41362],[12.98022,55.41352],[12.98047,55.4136],[12.98066,55.41371],[12.98082,55.41381],[12.98075,55.41396],[12.98075,55.41405],[12.98074,55.41409],[12.98073,55.41412],[12.98064,55.41417],[12.98057,55.41426],[12.98034,55.41433],[12.98002,55.41432],[12.97974,55.4143],[12.97946,55.41446],[12.97925,55.41461],[12.97903,55.41479],[12.97886,55.415],[12.97902,55.41516],[12.97929,55.41532],[12.97931,55.41549],[12.97943,55.41564],[12.97957,55.41579],[12.97945,55.41581],[12.97925,55.41587],[12.97912,55.41595],[12.97904,55.41606],[12.97896,55.4161],[12.97907,55.41597],[12.97912,55.41583],[12.97879,55.41581],[12.97845,55.41583],[12.97812,55.41584],[12.97774,55.41592],[12.97741,55.41602],[12.97705,55.41607],[12.97679,55.41595],[12.97661,55.41584],[12.97656,55.4158],[12.97657,55.41582],[12.97656,55.4158],[12.97658,55.41582],[12.97667,55.41589],[12.97701,55.41603],[12.97738,55.41609],[12.97768,55.41617],[12.97803,55.41619],[12.97826,55.41617],[12.97835,55.41607],[12.97854,55.41589],[12.97867,55.41585],[12.97877,55.41585],[12.97875,55.41592],[12.97871,55.41599],[12.97865,55.41608],[12.97858,55.41616],[12.97842,55.41614],[12.97825,55.41606],[12.9781,55.41594],[12.97788,55.4157],[12.9779,55.41575],[12.97798,55.41596],[12.97828,55.41612],[12.97857,55.41618],[12.97864,55.41632],[12.97853,55.41658],[12.97846,55.41681],[12.97838,55.41706],[12.97819,55.4172],[12.97771,55.4172],[12.97748,55.41717],[12.97746,55.41716],[12.97746,55.41716],[12.97746,55.41715],[12.97748,55.41713],[12.9775,55.41712],[12.9775,55.41711],[12.97749,55.41712],[12.97747,55.41712],[12.97742,55.41712],[12.97744,55.41714],[12.97746,55.41714],[12.97745,55.41713],[12.97743,55.41712],[12.97742,55.41713],[12.97744,55.41714],[12.97743,55.41714],[12.97744,55.41714],[12.97747,55.41714],[12.97749,55.41714],[12.97747,55.41713]]}}