{"type":"Feature","properties":{},"geometry":{"type":"LineString","coordinates":[[13.20899,55.55746],[13.20847,55.55766],[13.20792,55.55794],[13.20778,55.55822],[13.20775,55.55857],[13.2079,55.55888],[13.20785,55.55903],[13.20759,55.55924],[13.20755,55.55964],[13.20744,55.55983],[13.20719,55.56005],[13.20684,55.56026],[13.20645,55.56043],[13.20629,55.56047],[13.20673,55.56054],[13.20737,55.56073],[13.20796,55.56081],[13.2082,55.56111],[13.20792,55.56148],[13.20808,55.56179],[13.20806,55.56187],[13.20777,55.56157],[13.20713,55.56152],[13.20642,55.56148],[13.2058,55.56144],[13.20521,55.56142],[13.20483,55.56155],[13.20466,55.56176],[13.20433,55.56201],[13.2042,55.56208],[13.20401,55.56213],[13.20371,55.56219],[13.20348,55.56236],[13.20278,55.5626],[13.20241,55.56296],[13.20189,55.56273],[13.20125,55.56261],[13.20098,55.56284],[13.20109,55.56276],[13.20144,55.56273],[13.20211,55.56272],[13.20234,55.56231],[13.20252,55.56189],[13.20288,55.56152],[13.20325,55.56129],[13.20364,55.56108],[13.20363,55.56086],[13.20342,55.56064],[13.20336,55.56034],[13.20297,55.56015],[13.20294,55.56007],[13.20297,55.55991],[13.20279,55.55986],[13.20259,55.55982],[13.20211,55.55963],[13.20178,55.5596],[13.2015,55.55948],[13.20129,55.55932],[13.20152,55.55932],[13.20188,55.55917],[13.20221,55.55884],[13.20244,55.55861],[13.20237,55.55838],[13.2024,55.55828],[13.20262,55.55809],[13.20259,55.55792],[13.20256,55.55762],[13.20244,55.55742],[13.20227,55.55723],[13.20202,55.55704],[13.20162,55.55686],[13.20143,55.55679],[13.20155,55.55679],[13.20147,55.55668],[13.2017,55.55656],[13.20226,55.55638],[13.20246,55.55604],[13.20272,55.55573],[13.203,55.55548],[13.20323,55.55523],[13.20349,55.55499],[13.20382,55.55499],[13.20436,55.55508],[13.20508,55.55513],[13.20583,55.55509],[13.20626,55.55538],[13.20657,55.55551],[13.20693,55.55544],[13.20729,55.5554],[13.20741,55.55529],[13.2076,55.55517],[13.20792,55.5549],[13.20807,55.55466],[13.20803,55.55449],[13.20786,55.55435],[13.20768,55.55423],[13.20756,55.55409],[13.20724,55.55392],[13.2071,55.5538],[13.20683,55.55359],[13.20654,55.55338],[13.20627,55.5532],[13.20591,55.55297],[13.2056,55.55266],[13.20577,55.55257],[13.20604,55.55267],[13.20668,55.55272],[13.20704,55.55246],[13.20735,55.55235],[13.20797,55.55235],[13.20826,55.55226],[13.20849,55.5521],[13.20874,55.55204],[13.20905,55.55196],[13.20949,55.55176],[13.20952,55.55178],[13.2094,55.55199],[13.20922,55.5523],[13.20912,55.55249],[13.20889,55.5527],[13.20909,55.55273],[13.20929,55.55279],[13.20978,55.5528],[13.21004,55.55295],[13.21045,55.55302],[13.2109,55.55296],[13.21135,55.55306],[13.2119,55.55313],[13.21224,55.55308],[13.21261,55.55301],[13.21294,55.553],[13.2132,55.55299],[13.21353,55.55295],[13.21418,55.55293],[13.21453,55.55302],[13.21514,55.55299],[13.21578,55.55285],[13.2163,55.55269],[13.2168,55.5525],[13.21731,55.55236],[13.2179,55.55231],[13.21839,55.55214],[13.21862,55.55209],[13.21873,55.55221],[13.21937,55.55233],[13.21967,55.55242],[13.2199,55.55256],[13.22002,55.55291],[13.22001,55.55321],[13.2199,55.5534],[13.22003,55.55359],[13.22007,55.55372],[13.22002,55.55385],[13.21978,55.55391],[13.21952,55.55392],[13.21913,55.55402],[13.21867,55.55406],[13.21815,55.55408],[13.21741,55.55406],[13.2169,55.55407],[13.21667,55.55426],[13.21669,55.55444],[13.21659,55.55462],[13.21655,55.55489],[13.21635,55.55508],[13.21605,55.55524],[13.21576,55.55527],[13.21533,55.55526],[13.21496,55.55515],[13.21473,55.55514],[13.21427,55.55528],[13.21393,55.55536],[13.21339,55.55542],[13.21296,55.55541],[13.21247,55.55542],[13.21186,55.55573],[13.21141,55.55608],[13.21113,55.55634],[13.21056,55.55653],[13.20999,55.55653],[13.20957,55.5564],[13.20938,55.5562],[13.20956,55.55615],[13.20989,55.55644],[13.21045,55.55656],[13.21071,55.55665],[13.21111,55.55674],[13.21156,55.55698],[13.21183,55.55713],[13.21212,55.55735],[13.21236,55.55773],[13.21272,55.55805],[13.21257,55.55799],[13.21211,55.55801],[13.21191,55.55808],[13.21158,55.55834],[13.21124,55.55833],[13.21078,55.55829],[13.21033,55.55817],[13.20967,55.55758]]}}