{"type":"Feature","properties":{},"geometry":{"type":"LineString","coordinates":[[13.84857,55.43314],[13.84844,55.43284],[13.84835,55.43253],[13.84835,55.43209],[13.84803,55.43174],[13.84749,55.43182],[13.84709,55.43182],[13.84655,55.43175],[13.84618,55.43164],[13.84604,55.43167],[13.84567,55.43156],[13.8458,55.43162],[13.84645,55.43181],[13.84694,55.43172],[13.84719,55.43187],[13.84802,55.43169],[13.84843,55.43152],[13.84792,55.43137],[13.84739,55.43117],[13.8467,55.4312],[13.84657,55.43125],[13.84684,55.43116],[13.8475,55.43105],[13.84758,55.4312],[13.84836,55.43146],[13.84902,55.43178],[13.84993,55.43189],[13.85074,55.43201],[13.85143,55.43212],[13.85183,55.4317],[13.85271,55.43168],[13.85353,55.43179],[13.85423,55.43181],[13.8546,55.43211],[13.85466,55.43221],[13.85467,55.43234],[13.85445,55.43259],[13.85479,55.4324],[13.85466,55.43207],[13.85411,55.4318],[13.85356,55.43186],[13.85307,55.43168],[13.85297,55.43169],[13.85354,55.43191],[13.85357,55.43201],[13.85408,55.43182],[13.85458,55.43199],[13.85472,55.43227],[13.85483,55.43269],[13.85495,55.4332],[13.85482,55.43367],[13.85514,55.43388],[13.85522,55.43398],[13.85486,55.43411],[13.855,55.43451],[13.85544,55.43481],[13.85606,55.43503],[13.85639,55.4354],[13.85655,55.4358],[13.85681,55.43588],[13.85758,55.43598],[13.85836,55.43602],[13.85907,55.43612],[13.85901,55.43646],[13.85896,55.4367],[13.85891,55.43721],[13.85887,55.43776],[13.85872,55.43825],[13.85901,55.4385],[13.859,55.43881],[13.85913,55.43912],[13.8589,55.43941],[13.85886,55.43941],[13.85888,55.43943],[13.85874,55.43935],[13.85863,55.43933],[13.85859,55.43935],[13.85869,55.43936],[13.85939,55.43929],[13.85974,55.43928],[13.86047,55.43905],[13.86103,55.43881],[13.86174,55.43871],[13.86261,55.4388],[13.86348,55.43885],[13.86433,55.43885],[13.86517,55.43891],[13.86598,55.43903],[13.86651,55.43907],[13.86741,55.43921],[13.86818,55.43937],[13.86851,55.43974],[13.86862,55.43985],[13.86906,55.43955],[13.86943,55.4393],[13.87024,55.43935],[13.87111,55.43936],[13.87195,55.43941],[13.87277,55.43944],[13.87355,55.43947],[13.87429,55.43957],[13.87498,55.43972],[13.87556,55.43986],[13.87615,55.43999],[13.87656,55.44005],[13.8769,55.43998],[13.87758,55.4401],[13.87798,55.44022],[13.87836,55.4403],[13.87884,55.44029],[13.87889,55.44011],[13.87894,55.43981],[13.87885,55.43957],[13.87882,55.43948],[13.87873,55.43938],[13.87865,55.43929],[13.87868,55.43919],[13.87896,55.4393],[13.8791,55.43932],[13.8789,55.43932],[13.87861,55.43928],[13.87829,55.43917],[13.87822,55.43906],[13.87765,55.4388],[13.87701,55.43855],[13.87638,55.43835],[13.87566,55.43812],[13.87491,55.43789],[13.87423,55.43765],[13.87342,55.43786],[13.87277,55.43812],[13.87216,55.43799],[13.87133,55.43795],[13.87061,55.43792],[13.87019,55.43788],[13.86971,55.43787],[13.86945,55.43787],[13.86947,55.43803],[13.86947,55.43821],[13.8696,55.4384],[13.86968,55.43862],[13.8698,55.4385],[13.86981,55.43819],[13.86984,55.43807],[13.86931,55.43787],[13.86849,55.43782],[13.86816,55.43775],[13.86825,55.43735],[13.86787,55.43701],[13.86703,55.43691],[13.8662,55.43686],[13.86537,55.4368],[13.86457,55.43673],[13.86398,55.43669],[13.86392,55.43643],[13.86384,55.43619],[13.86383,55.43596],[13.86384,55.43567],[13.86376,55.43526],[13.86359,55.43492],[13.86332,55.43476],[13.86314,55.43459],[13.86232,55.4345],[13.86156,55.4344],[13.86075,55.43441],[13.8599,55.43441],[13.85975,55.43467],[13.85936,55.4348],[13.85902,55.43486],[13.85847,55.43513],[13.85829,55.43538],[13.85839,55.43565],[13.85867,55.43595],[13.85908,55.43615],[13.85876,55.43646],[13.85795,55.43639],[13.85729,55.43637],[13.85674,55.43633],[13.85646,55.43642],[13.85613,55.43666],[13.856,55.43689],[13.85608,55.43705],[13.85589,55.43712],[13.85582,55.43736],[13.85585,55.4374],[13.85584,55.43718],[13.85556,55.43694],[13.85521,55.43676],[13.85489,55.4365],[13.85463,55.43623],[13.85398,55.43607],[13.8538,55.43575],[13.85302,55.43566],[13.85277,55.43539],[13.85291,55.43519],[13.85332,55.43481],[13.8536,55.43438],[13.85365,55.43408],[13.85278,55.43404],[13.85197,55.43374]]}}