{"type":"Feature","properties":{},"geometry":{"type":"LineString","coordinates":[[13.21395,55.56908],[13.21394,55.56908],[13.21395,55.56908],[13.21395,55.56908],[13.21395,55.56908],[13.21395,55.56908],[13.21397,55.56908],[13.21399,55.5691],[13.21401,55.56909],[13.21401,55.56906],[13.21399,55.56908],[13.21398,55.56908],[13.21395,55.56908],[13.21393,55.56907],[13.21393,55.56906],[13.21395,55.56904],[13.21396,55.56904],[13.21398,55.56906],[13.21398,55.56907],[13.21398,55.56909],[13.21398,55.56909],[13.21398,55.56909],[13.21399,55.56908],[13.21399,55.56908],[13.21397,55.5691],[13.21394,55.56924],[13.21406,55.56948],[13.21424,55.56965],[13.21446,55.56983],[13.21466,55.57004],[13.21472,55.5702],[13.2147,55.57041],[13.21463,55.5706],[13.21466,55.57077],[13.21465,55.57095],[13.21473,55.57104],[13.21489,55.57111],[13.21493,55.57126],[13.21502,55.57138],[13.21517,55.57145],[13.21534,55.57145],[13.21541,55.57134],[13.21546,55.57117],[13.21552,55.57096],[13.21557,55.57079],[13.2154,55.57065],[13.2154,55.57053],[13.21552,55.57045],[13.21563,55.57027],[13.21555,55.57005],[13.21529,55.56982],[13.21492,55.5696],[13.21458,55.56945],[13.21434,55.56931],[13.21414,55.56917],[13.21408,55.56911],[13.21407,55.56909],[13.21407,55.5691],[13.2141,55.5691],[13.21406,55.56909],[13.21402,55.56909],[13.21403,55.56907],[13.21403,55.56906],[13.21401,55.56909],[13.21404,55.56912],[13.21406,55.56912],[13.21403,55.56911],[13.21401,55.5691],[13.21405,55.56908],[13.21406,55.56909],[13.21402,55.56911],[13.21402,55.56911],[13.21405,55.56911],[13.21405,55.56911],[13.21403,55.56912],[13.21405,55.56912],[13.21405,55.56914],[13.21403,55.56912],[13.21404,55.56912],[13.21406,55.56913],[13.21408,55.56914],[13.2141,55.56913],[13.2141,55.56912],[13.21408,55.56912],[13.21411,55.56919],[13.21433,55.5693],[13.21452,55.56943],[13.2148,55.56959],[13.2151,55.56977],[13.21537,55.56994],[13.21558,55.57014],[13.21592,55.57028],[13.21626,55.57033],[13.21656,55.57041],[13.21688,55.57042],[13.21723,55.57046],[13.21757,55.57036],[13.21775,55.57018],[13.21768,55.57008],[13.21741,55.5701],[13.21711,55.57013],[13.21677,55.57014],[13.21647,55.57012],[13.21618,55.57007],[13.21586,55.57006],[13.21557,55.56995],[13.21535,55.5698],[13.21511,55.56966],[13.21484,55.5695],[13.21457,55.56937],[13.21429,55.56921],[13.21412,55.56907],[13.21409,55.56907],[13.21408,55.56911],[13.21407,55.56911],[13.21407,55.56912],[13.21406,55.56914],[13.21403,55.56913],[13.21401,55.56912],[13.21399,55.56909],[13.214,55.56909],[13.21403,55.5691],[13.21406,55.5691],[13.21407,55.56908],[13.21403,55.56909],[13.21401,55.56909],[13.21401,55.56909],[13.21403,55.56911],[13.21405,55.56911],[13.21408,55.56911],[13.21409,55.56912],[13.21405,55.56913],[13.21404,55.56913],[13.21403,55.56914],[13.21403,55.56914],[13.21404,55.56914],[13.21407,55.56913],[13.21407,55.5691],[13.21402,55.56909],[13.21398,55.56909],[13.21396,55.56912],[13.2141,55.56923],[13.21432,55.56936],[13.2145,55.56953],[13.21471,55.56973],[13.21489,55.5699],[13.21504,55.57002],[13.21517,55.57003],[13.21522,55.5699],[13.21514,55.56976],[13.21495,55.56954],[13.21484,55.56931],[13.21477,55.56907],[13.21464,55.56882],[13.2147,55.56862],[13.21483,55.56847],[13.21478,55.56839],[13.21475,55.56835],[13.21475,55.5683],[13.21469,55.56825],[13.2145,55.56827],[13.21404,55.56836],[13.21365,55.56845],[13.21369,55.56865],[13.21384,55.56885],[13.21388,55.56892],[13.21391,55.56896],[13.21394,55.56897],[13.21399,55.56898],[13.21398,55.56899],[13.21399,55.569],[13.21401,55.56899],[13.21401,55.56898],[13.214,55.56899],[13.21399,55.569],[13.21398,55.56902],[13.214,55.56902],[13.21401,55.56902],[13.214,55.56904],[13.21399,55.56904],[13.21399,55.56904],[13.21397,55.56904],[13.21397,55.56903],[13.21394,55.56902],[13.21391,55.569],[13.21391,55.56899],[13.21392,55.56901],[13.21392,55.56902],[13.21393,55.569],[13.21393,55.56898],[13.21394,55.56897],[13.21398,55.56898],[13.21397,55.56895],[13.21398,55.56896],[13.21401,55.56898],[13.21402,55.56898],[13.21403,55.56899],[13.21403,55.56899],[13.21406,55.56898],[13.2141,55.56898]]}}