{"type":"Feature","properties":{},"geometry":{"type":"LineString","coordinates":[[13.43661,56.28995],[13.43674,56.28999],[13.43697,56.29028],[13.43706,56.29066],[13.43708,56.29098],[13.43673,56.29118],[13.43624,56.2913],[13.43585,56.29137],[13.43578,56.29152],[13.43574,56.29166],[13.43579,56.29187],[13.43576,56.29208],[13.43562,56.29224],[13.43547,56.29239],[13.43538,56.29264],[13.43532,56.29276],[13.43527,56.29299],[13.43505,56.2931],[13.43485,56.29332],[13.43462,56.29346],[13.43458,56.29373],[13.43456,56.29388],[13.43442,56.29411],[13.43453,56.29429],[13.43489,56.29435],[13.43531,56.29445],[13.43584,56.29452],[13.4362,56.29455],[13.43586,56.29471],[13.43543,56.29487],[13.43501,56.29502],[13.43464,56.29527],[13.4342,56.29538],[13.43368,56.29548],[13.43334,56.29557],[13.43306,56.29575],[13.43298,56.29598],[13.43285,56.29597],[13.43248,56.29601],[13.43198,56.29605],[13.43158,56.29604],[13.43122,56.29598],[13.43072,56.29597],[13.43027,56.29593],[13.42995,56.29596],[13.42963,56.29596],[13.42931,56.29599],[13.42902,56.29601],[13.4286,56.29603],[13.42819,56.2962],[13.42768,56.29621],[13.42754,56.29607],[13.42737,56.29604],[13.42693,56.29602],[13.42656,56.29585],[13.42631,56.29588],[13.42598,56.29598],[13.42563,56.29614],[13.42527,56.29623],[13.42515,56.29635],[13.42478,56.29627],[13.42424,56.2962],[13.424,56.29612],[13.42352,56.29605],[13.42312,56.29595],[13.42278,56.29581],[13.42251,56.2958],[13.42252,56.29576],[13.42285,56.29561],[13.42296,56.29563],[13.42295,56.29585],[13.42285,56.29609],[13.42265,56.29614],[13.42281,56.2961],[13.42302,56.29595],[13.42319,56.29564],[13.4234,56.29557],[13.42344,56.29533],[13.42365,56.2953],[13.42414,56.2952],[13.42451,56.29504],[13.42475,56.29471],[13.42512,56.2946],[13.4254,56.29454],[13.42566,56.29448],[13.42603,56.29435],[13.42649,56.2943],[13.42669,56.29432],[13.42707,56.2942],[13.42753,56.2942],[13.428,56.2942],[13.4284,56.29437],[13.42863,56.29441],[13.42899,56.29436],[13.4296,56.29425],[13.42989,56.29406],[13.43017,56.29387],[13.43044,56.29384],[13.43086,56.29365],[13.4313,56.29356],[13.43156,56.29352],[13.43189,56.29341],[13.43215,56.29331],[13.43238,56.29318],[13.4329,56.29308],[13.43323,56.29291],[13.43347,56.29292],[13.43367,56.29303],[13.43387,56.29321],[13.4341,56.29318],[13.43454,56.29308],[13.43482,56.29307],[13.43533,56.29304],[13.43587,56.29299],[13.43627,56.29293],[13.43647,56.29291],[13.43694,56.29289],[13.43735,56.29288],[13.43782,56.29284],[13.43814,56.29281],[13.43856,56.29292],[13.43901,56.29298],[13.43942,56.29309],[13.43969,56.29334],[13.44009,56.2935],[13.44035,56.29364],[13.44062,56.29361],[13.44083,56.29352],[13.44116,56.29332],[13.44162,56.29314],[13.44186,56.2931],[13.44205,56.29293],[13.44216,56.29273],[13.4423,56.29253],[13.44251,56.29219],[13.44276,56.29195],[13.44304,56.29186],[13.44326,56.29173],[13.44359,56.29171],[13.44381,56.2916],[13.4441,56.29146],[13.44433,56.29117],[13.44441,56.29074],[13.44485,56.2904],[13.44535,56.29039],[13.44572,56.2904],[13.44629,56.2903],[13.44662,56.29033],[13.44703,56.29027],[13.4472,56.29017],[13.4475,56.29011],[13.44792,56.29001],[13.44815,56.28996],[13.44848,56.28985],[13.44887,56.28973],[13.44918,56.28964],[13.44966,56.28957],[13.4499,56.28956],[13.45021,56.28936],[13.44996,56.28916],[13.45014,56.28908],[13.45023,56.28878],[13.45026,56.28852],[13.45029,56.28822],[13.45004,56.28804],[13.44983,56.28791],[13.44984,56.28775],[13.44986,56.28746],[13.45002,56.28738],[13.45021,56.2873],[13.45059,56.28717],[13.45086,56.28691],[13.4511,56.28661],[13.4515,56.2864],[13.45172,56.28622],[13.45205,56.28606],[13.45218,56.28599],[13.4522,56.28581],[13.45242,56.28562],[13.45262,56.28555],[13.45283,56.28552],[13.45311,56.28556],[13.45347,56.28546],[13.45364,56.28524],[13.45374,56.28508],[13.45416,56.28501],[13.4545,56.28493],[13.45496,56.28479],[13.45536,56.28475],[13.45577,56.28466],[13.45613,56.2845],[13.4565,56.28441],[13.4568,56.28416],[13.45731,56.28403],[13.45776,56.28397],[13.45786,56.28353],[13.4584,56.28329],[13.45921,56.28329],[13.45983,56.28299],[13.4601,56.28284]]}}