{"type":"Feature","properties":{},"geometry":{"type":"LineString","coordinates":[[13.1491,56.00641],[13.14894,56.00618],[13.14863,56.00585],[13.14896,56.00563],[13.14978,56.00544],[13.1509,56.00541],[13.15181,56.00516],[13.15216,56.00478],[13.15215,56.00431],[13.15202,56.00411],[13.15175,56.00393],[13.15153,56.00377],[13.15142,56.00366],[13.15112,56.00339],[13.15092,56.00313],[13.15077,56.0029],[13.15053,56.00279],[13.15002,56.00262],[13.14942,56.0025],[13.14891,56.00233],[13.14819,56.00245],[13.14743,56.00265],[13.14661,56.00275],[13.14578,56.0029],[13.14495,56.00313],[13.14411,56.00333],[13.14336,56.00352],[13.14255,56.00373],[13.14208,56.00369],[13.14162,56.00345],[13.14104,56.00318],[13.14059,56.00295],[13.14027,56.00293],[13.14016,56.0029],[13.13987,56.00281],[13.13954,56.00273],[13.13929,56.0026],[13.13892,56.00255],[13.1385,56.00244],[13.13793,56.00237],[13.13752,56.00219],[13.13698,56.00198],[13.13634,56.0018],[13.13609,56.00163],[13.13599,56.00145],[13.13557,56.00113],[13.13535,56.00091],[13.1352,56.00071],[13.13477,56.00074],[13.13402,56.00085],[13.13345,56.00089],[13.13294,56.00101],[13.13297,56.00128],[13.1335,56.00155],[13.13337,56.00184],[13.13323,56.00218],[13.13335,56.0026],[13.13355,56.00298],[13.13353,56.00321],[13.13308,56.00311],[13.13246,56.00291],[13.13173,56.00266],[13.13091,56.00245],[13.13008,56.00231],[13.12925,56.00216],[13.12848,56.00228],[13.12794,56.00238],[13.12748,56.00257],[13.12695,56.00289],[13.12647,56.00303],[13.12624,56.00331],[13.12609,56.00362],[13.12592,56.00394],[13.12578,56.00411],[13.12581,56.00421],[13.12646,56.00421],[13.1272,56.00426],[13.12786,56.00434],[13.12854,56.00445],[13.12892,56.00462],[13.12959,56.00466],[13.12987,56.00481],[13.13019,56.00496],[13.1308,56.00523],[13.13067,56.0053],[13.13036,56.00559],[13.13012,56.00577],[13.12976,56.00594],[13.12929,56.00614],[13.12899,56.00631],[13.12889,56.00631],[13.12871,56.00639],[13.12828,56.00667],[13.12798,56.00678],[13.128,56.00698],[13.12766,56.00707],[13.12711,56.00733],[13.12655,56.00754],[13.12597,56.00773],[13.12562,56.008],[13.12542,56.00815],[13.12542,56.00836],[13.12542,56.00851],[13.12536,56.00868],[13.12506,56.00868],[13.12495,56.00878],[13.12488,56.00892],[13.12484,56.00917],[13.12511,56.00938],[13.12514,56.00957],[13.12513,56.00976],[13.1251,56.00993],[13.12526,56.0101],[13.12541,56.01047],[13.12565,56.01088],[13.12584,56.01112],[13.12602,56.01137],[13.12607,56.01154],[13.12629,56.01185],[13.12661,56.01218],[13.12667,56.01242],[13.12704,56.0127],[13.12741,56.01293],[13.1278,56.01305],[13.12818,56.01332],[13.1286,56.01365],[13.12904,56.01384],[13.12949,56.01397],[13.12979,56.01394],[13.13003,56.01383],[13.13005,56.01356],[13.12988,56.01335],[13.13019,56.01309],[13.13081,56.01289],[13.13096,56.01267],[13.13109,56.01244],[13.13138,56.01197],[13.1315,56.01168],[13.13172,56.01143],[13.13205,56.01119],[13.13211,56.01129],[13.13281,56.01143],[13.1336,56.01139],[13.13417,56.01118],[13.13483,56.01089],[13.13537,56.0106],[13.13581,56.01029],[13.13623,56.0099],[13.13676,56.00958],[13.13747,56.00937],[13.13799,56.00907],[13.13836,56.00901],[13.13899,56.00888],[13.13943,56.00889],[13.13994,56.00891],[13.14084,56.00889],[13.14126,56.0089],[13.14204,56.00895],[13.14222,56.00896],[13.14262,56.00916],[13.14293,56.00939],[13.14329,56.0095],[13.14383,56.00957],[13.14444,56.00958],[13.14508,56.0096],[13.14566,56.00973],[13.14641,56.00986],[13.14686,56.00982],[13.14707,56.0099],[13.14706,56.01002],[13.14727,56.01013],[13.14773,56.01018],[13.14803,56.01025],[13.14844,56.01006],[13.14883,56.01008],[13.1492,56.0102],[13.14949,56.01026],[13.14988,56.0102],[13.15014,56.0102],[13.15053,56.01018],[13.15083,56.01025],[13.15118,56.01021],[13.15157,56.01016],[13.15144,56.01028],[13.1516,56.01049],[13.15165,56.01079],[13.15188,56.01114],[13.15255,56.0114],[13.15316,56.01163],[13.15361,56.01185],[13.15386,56.01195],[13.15405,56.0121],[13.1543,56.01223],[13.15437,56.0124],[13.15427,56.01255],[13.15459,56.01265],[13.15532,56.01268],[13.156,56.01265],[13.15649,56.01267],[13.15783,56.01278]]}}