{"type":"Feature","properties":{},"geometry":{"type":"LineString","coordinates":[[13.18187,56.0441],[13.18188,56.04404],[13.18179,56.04391],[13.18156,56.04384],[13.18139,56.04378],[13.18114,56.04373],[13.1809,56.04364],[13.18075,56.04357],[13.18044,56.04345],[13.18028,56.04337],[13.17999,56.04328],[13.17966,56.04322],[13.17954,56.04311],[13.17937,56.04305],[13.17907,56.04293],[13.17896,56.04287],[13.17862,56.04279],[13.17845,56.04268],[13.17832,56.0426],[13.178,56.04247],[13.17779,56.04234],[13.17754,56.04228],[13.17732,56.04219],[13.17704,56.04204],[13.17674,56.04189],[13.17662,56.04185],[13.17663,56.04182],[13.17643,56.04175],[13.17613,56.04157],[13.17599,56.04141],[13.17585,56.04133],[13.17556,56.04117],[13.17533,56.04101],[13.17518,56.04092],[13.17493,56.04078],[13.17485,56.04068],[13.17465,56.04055],[13.17447,56.04037],[13.17434,56.04027],[13.17416,56.04019],[13.17384,56.04007],[13.17363,56.03991],[13.17346,56.03989],[13.17338,56.0399],[13.1731,56.04003],[13.17287,56.04018],[13.17272,56.04028],[13.17248,56.04044],[13.17239,56.04049],[13.17226,56.04058],[13.17201,56.04075],[13.1718,56.04083],[13.17164,56.04095],[13.17144,56.04108],[13.17128,56.04115],[13.1712,56.04124],[13.17105,56.04139],[13.17085,56.04149],[13.1707,56.04156],[13.17059,56.04173],[13.17045,56.04192],[13.17045,56.04212],[13.17047,56.04219],[13.17048,56.04227],[13.17047,56.04227],[13.17038,56.04228],[13.17021,56.04228],[13.17009,56.04232],[13.16996,56.04235],[13.16984,56.04238],[13.16973,56.04243],[13.16955,56.04249],[13.16938,56.04254],[13.16926,56.04263],[13.16917,56.04265],[13.16896,56.04274],[13.1687,56.04282],[13.16854,56.04275],[13.16835,56.04268],[13.16814,56.04276],[13.16794,56.04281],[13.16772,56.04285],[13.16748,56.04286],[13.16715,56.04285],[13.16686,56.04283],[13.16654,56.04285],[13.16633,56.04291],[13.16605,56.04298],[13.16584,56.0431],[13.16574,56.04319],[13.16556,56.04333],[13.16532,56.04341],[13.16503,56.04342],[13.16484,56.04354],[13.16485,56.04357],[13.16483,56.04364],[13.16493,56.04372],[13.16502,56.0438],[13.16524,56.04389],[13.1655,56.044],[13.16581,56.04417],[13.16609,56.04437],[13.16641,56.04453],[13.16648,56.04463],[13.16655,56.04478],[13.16661,56.04495],[13.16681,56.04508],[13.16689,56.0451],[13.16693,56.04516],[13.16693,56.04516],[13.1671,56.04518],[13.1675,56.04516],[13.16787,56.04513],[13.16813,56.04515],[13.16852,56.04512],[13.16878,56.0451],[13.16911,56.04506],[13.16941,56.04498],[13.16971,56.04497],[13.16994,56.04493],[13.17015,56.04492],[13.17049,56.04489],[13.17067,56.04486],[13.17069,56.04489],[13.17091,56.045],[13.17113,56.04512],[13.17126,56.04517],[13.17154,56.04533],[13.17176,56.04547],[13.17188,56.04556],[13.17204,56.04564],[13.17212,56.04571],[13.17235,56.0459],[13.17247,56.04608],[13.17263,56.04616],[13.17283,56.04625],[13.17292,56.04633],[13.17299,56.0464],[13.17312,56.04646],[13.17346,56.0466],[13.17365,56.0467],[13.17386,56.04683],[13.17403,56.04695],[13.17424,56.04705],[13.17444,56.04705],[13.17445,56.0469],[13.17436,56.04668],[13.17419,56.04649],[13.17418,56.04639],[13.17429,56.04616],[13.17445,56.04596],[13.17451,56.0458],[13.17455,56.04579],[13.17471,56.04579],[13.17482,56.04574],[13.17505,56.04568],[13.17525,56.04568],[13.17549,56.04567],[13.17565,56.04559],[13.17576,56.04536],[13.17583,56.04518],[13.17588,56.0451],[13.17592,56.04499],[13.17596,56.04489],[13.17598,56.04482],[13.17615,56.04471],[13.17628,56.0446],[13.17632,56.04458],[13.17638,56.04453],[13.17653,56.04449],[13.17667,56.04443],[13.17666,56.0443],[13.1766,56.04417],[13.17659,56.04404],[13.1767,56.04394],[13.17674,56.04382],[13.17677,56.04378],[13.17699,56.04364],[13.17714,56.0436],[13.17733,56.04343],[13.17749,56.04329],[13.1776,56.04333],[13.17782,56.04332],[13.17806,56.0433],[13.17826,56.04332],[13.1785,56.04333],[13.17869,56.04334],[13.17904,56.04336],[13.17921,56.0434],[13.17932,56.04341],[13.17963,56.04343],[13.18004,56.0435],[13.1802,56.0435],[13.18045,56.04351],[13.18079,56.04352],[13.18125,56.0436],[13.18158,56.04368],[13.18182,56.04373],[13.18211,56.04383],[13.18257,56.04408]]}}