{"type":"Feature","properties":{},"geometry":{"type":"LineString","coordinates":[[13.20674,55.55437],[13.20695,55.55449],[13.20714,55.55455],[13.20742,55.55462],[13.20758,55.55472],[13.20767,55.55484],[13.2078,55.55503],[13.20805,55.55514],[13.20849,55.55518],[13.20856,55.55523],[13.20869,55.5553],[13.20906,55.55536],[13.20942,55.55543],[13.20971,55.55549],[13.20997,55.55542],[13.21026,55.55535],[13.21047,55.55529],[13.21074,55.55527],[13.21083,55.5553],[13.21092,55.55511],[13.21106,55.55493],[13.21115,55.55492],[13.21132,55.55485],[13.21155,55.55474],[13.2118,55.55466],[13.21192,55.55448],[13.21212,55.5543],[13.21232,55.55406],[13.21259,55.55384],[13.21265,55.55364],[13.21276,55.55347],[13.21285,55.55327],[13.21275,55.55306],[13.21278,55.55301],[13.21289,55.55293],[13.21302,55.55283],[13.2131,55.55262],[13.21321,55.55237],[13.21354,55.55221],[13.21358,55.5522],[13.21373,55.55223],[13.21404,55.5523],[13.21433,55.55234],[13.21472,55.55238],[13.21511,55.55242],[13.21548,55.5524],[13.21586,55.55242],[13.21631,55.55245],[13.2168,55.55249],[13.21733,55.55248],[13.21784,55.55248],[13.21827,55.55244],[13.21877,55.55246],[13.21923,55.55242],[13.21941,55.55234],[13.21968,55.55239],[13.22007,55.55246],[13.22,55.55267],[13.22006,55.55294],[13.22051,55.55305],[13.22108,55.55303],[13.22155,55.553],[13.22187,55.55297],[13.22201,55.55292],[13.2223,55.55299],[13.22268,55.55307],[13.22305,55.55307],[13.22341,55.55324],[13.2237,55.55339],[13.22392,55.55353],[13.22409,55.55361],[13.2244,55.5538],[13.2249,55.55394],[13.22546,55.55399],[13.22571,55.55415],[13.2258,55.55446],[13.22572,55.55481],[13.22544,55.55504],[13.22487,55.55503],[13.22462,55.55526],[13.22444,55.55556],[13.22425,55.55584],[13.22391,55.55597],[13.22359,55.55607],[13.22341,55.55601],[13.22303,55.556],[13.22261,55.556],[13.22225,55.55607],[13.22194,55.55625],[13.22173,55.55646],[13.22168,55.55657],[13.22169,55.55669],[13.2216,55.55682],[13.22118,55.55689],[13.22097,55.55688],[13.22071,55.5568],[13.22052,55.55663],[13.22037,55.55651],[13.22024,55.55637],[13.22002,55.55625],[13.21973,55.5562],[13.21951,55.55609],[13.2192,55.55601],[13.21888,55.55591],[13.21872,55.55582],[13.21848,55.5557],[13.21824,55.55567],[13.21779,55.55568],[13.21747,55.55576],[13.21702,55.5558],[13.2167,55.55586],[13.21635,55.556],[13.21594,55.55624],[13.21555,55.55648],[13.21537,55.55676],[13.21517,55.55709],[13.21487,55.55732],[13.21447,55.55743],[13.21396,55.55733],[13.21357,55.5575],[13.21342,55.55756],[13.21344,55.55747],[13.21306,55.55734],[13.2127,55.55747],[13.21239,55.55763],[13.21199,55.55777],[13.21147,55.55782],[13.21106,55.55786],[13.21069,55.55803],[13.21043,55.55818],[13.21025,55.55825],[13.21005,55.55842],[13.20981,55.55852],[13.20957,55.55859],[13.20934,55.55872],[13.2089,55.5587],[13.2086,55.55882],[13.20837,55.55901],[13.2081,55.55922],[13.20807,55.55932],[13.20792,55.55942],[13.20779,55.55956],[13.20776,55.55982],[13.20766,55.56007],[13.20745,55.56011],[13.20706,55.56011],[13.20672,55.56017],[13.20637,55.56001],[13.206,55.5598],[13.2056,55.55972],[13.20525,55.55967],[13.20506,55.55965],[13.20472,55.55976],[13.20432,55.55981],[13.20404,55.55982],[13.20358,55.55985],[13.2031,55.55988],[13.20315,55.55987],[13.20325,55.55974],[13.20333,55.55949],[13.20333,55.55936],[13.20333,55.55926],[13.20328,55.5591],[13.20343,55.55898],[13.2034,55.55872],[13.20323,55.55847],[13.20312,55.55821],[13.20316,55.55808],[13.20326,55.5579],[13.20334,55.5577],[13.20312,55.55759],[13.20308,55.55753],[13.2029,55.55737],[13.20277,55.55716],[13.20266,55.55708],[13.20253,55.55704],[13.20246,55.55693],[13.20236,55.55672],[13.20233,55.55654],[13.2023,55.55631],[13.20242,55.55606],[13.20236,55.55578],[13.20217,55.55557],[13.20221,55.5554],[13.20219,55.5552],[13.20223,55.55512],[13.20225,55.555],[13.20232,55.55481],[13.20228,55.55459],[13.20248,55.55439],[13.20271,55.55422],[13.20302,55.55429],[13.20332,55.55436],[13.20374,55.55445],[13.20408,55.55454],[13.2044,55.55458],[13.20478,55.55455],[13.20507,55.55437],[13.2055,55.55429],[13.20602,55.55423]]}}