{"type":"Feature","properties":{},"geometry":{"type":"LineString","coordinates":[[13.21356,55.56862],[13.21365,55.56896],[13.21303,55.56924],[13.21252,55.56957],[13.21229,55.5699],[13.21226,55.57014],[13.21281,55.57006],[13.21223,55.57027],[13.21269,55.57054],[13.21329,55.57086],[13.21339,55.57127],[13.21375,55.5716],[13.2138,55.57191],[13.21415,55.57209],[13.21448,55.57208],[13.21441,55.57204],[13.21418,55.57215],[13.21401,55.572],[13.21332,55.57204],[13.2131,55.57205],[13.21313,55.57206],[13.21354,55.57229],[13.21412,55.5727],[13.21488,55.57287],[13.21575,55.57289],[13.21604,55.57236],[13.21652,55.57231],[13.21733,55.57247],[13.21768,55.57215],[13.2179,55.57202],[13.21826,55.57202],[13.21825,55.57187],[13.21841,55.57164],[13.21877,55.5714],[13.21877,55.57122],[13.21858,55.57088],[13.21882,55.57062],[13.2186,55.5704],[13.21823,55.57023],[13.21792,55.57003],[13.21852,55.56993],[13.21906,55.56963],[13.21907,55.5694],[13.21863,55.56912],[13.21819,55.56894],[13.2179,55.56887],[13.21746,55.56877],[13.21709,55.56849],[13.21712,55.56834],[13.21724,55.56813],[13.21735,55.56787],[13.21741,55.56755],[13.21737,55.56727],[13.21746,55.56698],[13.21689,55.56688],[13.21646,55.56659],[13.2162,55.56613],[13.2165,55.56585],[13.21656,55.56562],[13.21661,55.56546],[13.21723,55.56549],[13.21788,55.56553],[13.21836,55.56547],[13.2185,55.5658],[13.21907,55.56606],[13.21987,55.56606],[13.22056,55.56602],[13.22095,55.56614],[13.2212,55.56617],[13.22132,55.56642],[13.22177,55.56676],[13.22205,55.56707],[13.22228,55.56742],[13.22305,55.56759],[13.2235,55.56782],[13.22399,55.56779],[13.22441,55.56766],[13.22417,55.56744],[13.22413,55.56705],[13.22419,55.56668],[13.22402,55.5664],[13.22426,55.56624],[13.22446,55.56581],[13.22422,55.56557],[13.22392,55.56538],[13.22404,55.56536],[13.22405,55.56516],[13.22385,55.56496],[13.22382,55.56494],[13.22353,55.56504],[13.22304,55.56522],[13.22273,55.56517],[13.22243,55.56481],[13.22217,55.56434],[13.22187,55.56398],[13.22151,55.56352],[13.22135,55.56331],[13.22128,55.5627],[13.22122,55.56218],[13.22116,55.56165],[13.2211,55.56113],[13.22118,55.56058],[13.22175,55.56027],[13.22229,55.56014],[13.22276,55.55971],[13.22298,55.55968],[13.2232,55.55974],[13.22322,55.55976],[13.22314,55.55992],[13.22321,55.56017],[13.22309,55.56023],[13.22284,55.56022],[13.2226,55.56023],[13.22224,55.56028],[13.22197,55.56021],[13.22207,55.56011],[13.22183,55.56006],[13.22175,55.56016],[13.2221,55.56029],[13.22221,55.56035],[13.22205,55.56021],[13.22193,55.55993],[13.22194,55.55963],[13.22202,55.55952],[13.22209,55.55931],[13.22217,55.559],[13.22221,55.55874],[13.22202,55.55854],[13.22215,55.55835],[13.22205,55.55821],[13.22198,55.5581],[13.2221,55.55797],[13.222,55.55783],[13.22176,55.55752],[13.22143,55.55728],[13.22111,55.55692],[13.22057,55.55673],[13.22027,55.55656],[13.21994,55.55641],[13.21974,55.5563],[13.21937,55.5559],[13.21895,55.55554],[13.21853,55.55538],[13.21838,55.5553],[13.21859,55.55515],[13.21805,55.5548],[13.21776,55.55474],[13.21719,55.55456],[13.2168,55.55427],[13.21662,55.55383],[13.21654,55.55342],[13.21664,55.55301],[13.21696,55.55267],[13.21731,55.55247],[13.21783,55.55244],[13.21775,55.55233],[13.21744,55.55231],[13.21698,55.55236],[13.21638,55.5526],[13.21582,55.55285],[13.21572,55.55305],[13.21547,55.55299],[13.2151,55.55306],[13.21482,55.55318],[13.21471,55.55336],[13.21468,55.5536],[13.21466,55.55382],[13.21437,55.55398],[13.21425,55.55439],[13.21416,55.55454],[13.21393,55.55471],[13.21373,55.555],[13.21362,55.55525],[13.21349,55.55537],[13.21339,55.55573],[13.21303,55.55588],[13.21316,55.55603],[13.21302,55.55584],[13.21263,55.55576],[13.21187,55.55577],[13.21148,55.55612],[13.21167,55.55644],[13.21225,55.55681],[13.21233,55.557],[13.21216,55.55728],[13.21216,55.55745],[13.21238,55.55755],[13.21242,55.5578],[13.21279,55.55813],[13.21309,55.55831],[13.21336,55.55842],[13.21366,55.55856],[13.2137,55.5585],[13.21358,55.5587],[13.21311,55.55901],[13.21249,55.55935],[13.21222,55.55976],[13.21194,55.56015],[13.21168,55.5606],[13.21121,55.56118]]}}