{"type":"Feature","properties":{},"geometry":{"type":"LineString","coordinates":[[12.97951,55.57209],[12.97965,55.57211],[12.97994,55.57222],[12.98015,55.5724],[12.98021,55.57261],[12.98007,55.57279],[12.97997,55.57299],[12.97985,55.57318],[12.97967,55.57337],[12.97952,55.57351],[12.97942,55.57365],[12.97931,55.57376],[12.9792,55.57393],[12.97911,55.57413],[12.97904,55.57431],[12.97898,55.57451],[12.97891,55.57472],[12.9788,55.57492],[12.97858,55.57508],[12.97844,55.57518],[12.97884,55.57522],[12.97922,55.57528],[12.97949,55.57542],[12.97965,55.57559],[12.97979,55.5758],[12.98007,55.57589],[12.98044,55.57579],[12.98072,55.57571],[12.9808,55.57554],[12.98066,55.57535],[12.98056,55.57517],[12.98073,55.57496],[12.98067,55.57478],[12.98098,55.57463],[12.98117,55.57445],[12.98127,55.57426],[12.98142,55.57413],[12.9817,55.57405],[12.98187,55.57394],[12.98201,55.57376],[12.98206,55.57357],[12.98209,55.57341],[12.98197,55.57331],[12.98225,55.57342],[12.98248,55.5736],[12.98269,55.57375],[12.98297,55.57392],[12.98327,55.57409],[12.98357,55.57425],[12.98378,55.57438],[12.98391,55.57455],[12.98413,55.57476],[12.98442,55.57484],[12.9848,55.57477],[12.98517,55.57471],[12.98557,55.57464],[12.98595,55.57457],[12.98628,55.57461],[12.9865,55.57473],[12.98688,55.57467],[12.98727,55.57463],[12.98746,55.57466],[12.98748,55.57451],[12.98755,55.57436],[12.98744,55.57417],[12.98731,55.57394],[12.98722,55.57376],[12.98714,55.57362],[12.98729,55.57345],[12.98714,55.57319],[12.98685,55.57304],[12.98656,55.57295],[12.98621,55.57295],[12.9859,55.57296],[12.98583,55.57289],[12.98582,55.57271],[12.98588,55.57259],[12.98587,55.57244],[12.98594,55.57228],[12.98591,55.57207],[12.98585,55.57182],[12.98572,55.57163],[12.98575,55.57144],[12.98571,55.57126],[12.98541,55.57129],[12.98511,55.57136],[12.98481,55.57143],[12.98475,55.57138],[12.98464,55.57123],[12.9845,55.57116],[12.98419,55.57118],[12.98394,55.571],[12.98362,55.57093],[12.98319,55.57098],[12.98289,55.57093],[12.98264,55.57088],[12.98245,55.57072],[12.98228,55.57051],[12.98204,55.57041],[12.98188,55.57045],[12.98188,55.57062],[12.98175,55.57084],[12.98186,55.57107],[12.98197,55.57124],[12.98186,55.57141],[12.98178,55.5715],[12.98165,55.57151],[12.98154,55.57151],[12.98143,55.5715],[12.98116,55.57142],[12.98089,55.57129],[12.98069,55.57112],[12.98043,55.57103],[12.98009,55.57096],[12.97973,55.57097],[12.97941,55.57103],[12.97913,55.57103],[12.97887,55.57089],[12.97887,55.57072],[12.9788,55.57077],[12.97857,55.57092],[12.97835,55.57102],[12.97802,55.57113],[12.97779,55.57126],[12.97769,55.5713],[12.97761,55.57133],[12.97751,55.57135],[12.97745,55.57137],[12.97742,55.57144],[12.97738,55.57153],[12.97742,55.5717],[12.97713,55.57188],[12.97674,55.57197],[12.97635,55.57206],[12.97602,55.57214],[12.97577,55.57229],[12.97583,55.57253],[12.97556,55.57265],[12.97524,55.57272],[12.97488,55.5728],[12.9745,55.57288],[12.97413,55.57295],[12.97377,55.57303],[12.97343,55.5731],[12.97311,55.57312],[12.97318,55.57317],[12.97323,55.57328],[12.9733,55.57342],[12.9734,55.57364],[12.97352,55.57381],[12.97334,55.57388],[12.97307,55.57393],[12.97315,55.57397],[12.97343,55.57389],[12.97379,55.57379],[12.97418,55.57377],[12.97454,55.57373],[12.97489,55.57367],[12.97489,55.57359],[12.97492,55.57354],[12.97516,55.5735],[12.9753,55.57343],[12.97532,55.57327],[12.97522,55.57301],[12.97514,55.57279],[12.97541,55.57269],[12.97579,55.57264],[12.97609,55.57274],[12.97633,55.5729],[12.97664,55.57285],[12.97696,55.57291],[12.97724,55.57288],[12.97764,55.57282],[12.97798,55.57273],[12.9782,55.57256],[12.97853,55.57242],[12.97887,55.57229],[12.97919,55.57217],[12.97922,55.57216],[12.97924,55.57216],[12.97922,55.57215],[12.97921,55.57214],[12.97922,55.57215],[12.97921,55.57215],[12.97922,55.57214],[12.97923,55.57214],[12.97923,55.57214],[12.97924,55.57213],[12.97924,55.57213],[12.97924,55.57214],[12.97923,55.57213],[12.97923,55.57213],[12.97924,55.57214],[12.97923,55.57214],[12.97923,55.57214],[12.97924,55.57214],[12.97924,55.57214],[12.97924,55.57214],[12.97924,55.57212],[12.97924,55.57213]]}}