{"type":"Feature","properties":{},"geometry":{"type":"LineString","coordinates":[[16.45711,57.2774],[16.45716,57.27739],[16.45711,57.27742],[16.45693,57.27754],[16.45688,57.27777],[16.45698,57.27785],[16.45726,57.27799],[16.45764,57.27808],[16.45793,57.27818],[16.45799,57.27827],[16.45798,57.27834],[16.45816,57.2785],[16.45836,57.27864],[16.45849,57.27872],[16.45863,57.27867],[16.4588,57.27868],[16.45908,57.27864],[16.45943,57.27861],[16.4596,57.27863],[16.45972,57.27859],[16.45973,57.27864],[16.45974,57.27874],[16.45975,57.2789],[16.45978,57.27904],[16.45992,57.27919],[16.46008,57.27927],[16.46016,57.27947],[16.46014,57.27967],[16.46011,57.27981],[16.45995,57.27984],[16.45977,57.27978],[16.45974,57.27971],[16.45945,57.27962],[16.45907,57.27966],[16.45879,57.27973],[16.45857,57.27973],[16.45837,57.27983],[16.45818,57.27994],[16.4579,57.2801],[16.45757,57.28014],[16.45742,57.2802],[16.45717,57.28032],[16.45699,57.28047],[16.45679,57.28054],[16.45669,57.2806],[16.45668,57.28063],[16.45664,57.28069],[16.45666,57.28076],[16.45695,57.28078],[16.45707,57.28071],[16.45701,57.28055],[16.45686,57.28049],[16.45671,57.28043],[16.45644,57.28031],[16.4563,57.2802],[16.45599,57.28016],[16.45572,57.28009],[16.45563,57.28005],[16.45547,57.28004],[16.4553,57.27999],[16.45501,57.27998],[16.45479,57.27996],[16.45476,57.27976],[16.45474,57.27976],[16.45455,57.27975],[16.45421,57.27974],[16.45381,57.27983],[16.45328,57.27973],[16.45307,57.27971],[16.45259,57.27975],[16.45218,57.27991],[16.45178,57.27993],[16.45159,57.27988],[16.45139,57.27982],[16.45108,57.27975],[16.45092,57.27964],[16.45074,57.27947],[16.45059,57.27925],[16.45049,57.27906],[16.45024,57.27881],[16.45016,57.27859],[16.44993,57.27832],[16.44961,57.27816],[16.44912,57.27806],[16.44859,57.27827],[16.44806,57.27839],[16.44745,57.27849],[16.44722,57.27857],[16.44684,57.27868],[16.44654,57.27877],[16.44629,57.27887],[16.44602,57.2791],[16.44585,57.2794],[16.44573,57.2797],[16.44567,57.27994],[16.44546,57.27998],[16.44533,57.27992],[16.44511,57.27986],[16.44483,57.27983],[16.44473,57.27984],[16.44452,57.27979],[16.44425,57.27967],[16.44402,57.27951],[16.44376,57.27936],[16.44355,57.2793],[16.44326,57.27922],[16.44318,57.27911],[16.44308,57.27904],[16.44279,57.27908],[16.44257,57.27902],[16.44242,57.27899],[16.4422,57.27898],[16.44194,57.27896],[16.44179,57.27889],[16.44177,57.27882],[16.44181,57.27867],[16.44184,57.27854],[16.4419,57.27846],[16.4418,57.27836],[16.44152,57.27822],[16.44157,57.27809],[16.44155,57.27799],[16.44142,57.27792],[16.44135,57.27785],[16.44101,57.27779],[16.44068,57.27773],[16.44031,57.27773],[16.44004,57.27771],[16.43985,57.27768],[16.43968,57.27764],[16.43942,57.27768],[16.43914,57.27764],[16.43885,57.27764],[16.43866,57.27776],[16.43855,57.27782],[16.43846,57.27784],[16.43835,57.27781],[16.43829,57.27774],[16.43821,57.27767],[16.43811,57.27761],[16.4379,57.27767],[16.43772,57.27773],[16.43716,57.27778],[16.43673,57.27774],[16.43638,57.27762],[16.43635,57.27744],[16.43631,57.27719],[16.43596,57.27699],[16.43554,57.27683],[16.43506,57.27663],[16.43486,57.27647],[16.43464,57.27624],[16.43455,57.27599],[16.43457,57.27572],[16.43456,57.27558],[16.43455,57.27549],[16.43453,57.27539],[16.43457,57.2754],[16.43475,57.27534],[16.43481,57.27523],[16.43489,57.27517],[16.43495,57.27508],[16.43496,57.27505],[16.43497,57.27497],[16.43502,57.27483],[16.43521,57.27478],[16.43537,57.27481],[16.43551,57.27483],[16.43556,57.2748],[16.4355,57.27476],[16.43538,57.27476],[16.4351,57.27472],[16.43483,57.27462],[16.43461,57.27458],[16.4345,57.27446],[16.43428,57.27433],[16.43401,57.27425],[16.43364,57.27408],[16.43351,57.27401],[16.4333,57.27383],[16.43309,57.27366],[16.43275,57.27349],[16.43252,57.27336],[16.43205,57.27313],[16.43164,57.27291],[16.43143,57.27273],[16.43126,57.27254],[16.43093,57.2724],[16.43067,57.27222],[16.43054,57.27215],[16.43028,57.2718],[16.43016,57.27148],[16.4298,57.27126],[16.42924,57.27136],[16.42867,57.27155],[16.42815,57.27146],[16.4278,57.27118],[16.4275,57.27112],[16.42786,57.27145],[16.42796,57.27155]]}}