{"type":"Feature","properties":{},"geometry":{"type":"LineString","coordinates":[[16.41881,57.27898],[16.41941,57.27902],[16.41994,57.27924],[16.41999,57.27952],[16.42022,57.27973],[16.42026,57.28007],[16.41993,57.28029],[16.41965,57.28045],[16.41967,57.28057],[16.41979,57.28074],[16.42003,57.2809],[16.42044,57.28105],[16.42054,57.28126],[16.42086,57.28152],[16.42113,57.28175],[16.42153,57.28178],[16.42171,57.28185],[16.42204,57.28194],[16.42252,57.28204],[16.42312,57.28219],[16.4238,57.28223],[16.42441,57.28233],[16.42441,57.28262],[16.42409,57.28279],[16.42387,57.28305],[16.42404,57.2831],[16.42443,57.28337],[16.42473,57.28355],[16.42502,57.28367],[16.42533,57.28384],[16.42548,57.28406],[16.42586,57.28424],[16.42619,57.2843],[16.42669,57.28443],[16.42689,57.28457],[16.42732,57.28467],[16.42772,57.28475],[16.42814,57.28489],[16.42839,57.28507],[16.42852,57.28526],[16.42873,57.28546],[16.42895,57.28555],[16.42885,57.28569],[16.42895,57.28583],[16.4291,57.28605],[16.42927,57.28626],[16.42916,57.28646],[16.42925,57.2866],[16.42934,57.28663],[16.42968,57.28658],[16.4301,57.28643],[16.43047,57.28645],[16.43091,57.28632],[16.43135,57.2862],[16.43159,57.28617],[16.43192,57.28625],[16.43233,57.28623],[16.43289,57.28614],[16.43309,57.28618],[16.43337,57.28596],[16.43314,57.28571],[16.43274,57.28547],[16.43229,57.2853],[16.4319,57.28506],[16.43185,57.28509],[16.43208,57.28541],[16.43258,57.28575],[16.433,57.28606],[16.43324,57.2863],[16.43314,57.2867],[16.43355,57.28696],[16.43462,57.28693],[16.43506,57.28709],[16.43508,57.28743],[16.43526,57.28756],[16.43583,57.28744],[16.43639,57.28723],[16.43724,57.28708],[16.43785,57.28696],[16.43823,57.28674],[16.43853,57.28645],[16.43855,57.28626],[16.4389,57.28635],[16.43896,57.28626],[16.43918,57.28616],[16.43957,57.28611],[16.43978,57.2858],[16.43974,57.28563],[16.43967,57.28535],[16.43959,57.28518],[16.43992,57.2849],[16.44003,57.28468],[16.44004,57.2845],[16.44014,57.28413],[16.43999,57.28374],[16.43971,57.28334],[16.44016,57.28308],[16.44038,57.28286],[16.44012,57.28271],[16.43992,57.28261],[16.43986,57.2825],[16.43947,57.28252],[16.43961,57.28243],[16.43955,57.28228],[16.43919,57.28205],[16.43922,57.28203],[16.43954,57.28205],[16.4396,57.28194],[16.43956,57.28173],[16.43953,57.28157],[16.43958,57.28167],[16.4399,57.28186],[16.44007,57.28208],[16.44002,57.28216],[16.44,57.28241],[16.44004,57.28251],[16.44001,57.28262],[16.43967,57.28289],[16.43971,57.28293],[16.43998,57.28311],[16.44014,57.28312],[16.43977,57.28327],[16.43975,57.28335],[16.43972,57.28332],[16.43928,57.28332],[16.43872,57.2832],[16.43849,57.28308],[16.43829,57.28295],[16.4381,57.28286],[16.43795,57.2827],[16.43793,57.28266],[16.43801,57.28256],[16.43829,57.28243],[16.43851,57.28219],[16.43888,57.28189],[16.43857,57.28166],[16.43877,57.2815],[16.43894,57.2813],[16.43926,57.28112],[16.43956,57.28093],[16.43953,57.28079],[16.43988,57.28066],[16.44008,57.28037],[16.44036,57.28018],[16.4407,57.27992],[16.44034,57.27966],[16.4405,57.27974],[16.44055,57.27947],[16.44044,57.27916],[16.4404,57.27896],[16.44049,57.27882],[16.44069,57.27871],[16.44075,57.27855],[16.44075,57.27852],[16.441,57.27852],[16.44073,57.27848],[16.44019,57.27843],[16.4398,57.27843],[16.43949,57.27835],[16.43953,57.27832],[16.4395,57.27796],[16.43909,57.27766],[16.43851,57.27743],[16.43792,57.2773],[16.43698,57.27722],[16.43617,57.2771],[16.43544,57.27674],[16.43473,57.27636],[16.43458,57.27588],[16.43456,57.27558],[16.43451,57.27541],[16.43458,57.27523],[16.43466,57.27503],[16.43471,57.27478],[16.43456,57.27451],[16.43449,57.27418],[16.4349,57.27414],[16.43495,57.2739],[16.43487,57.27391],[16.43451,57.27382],[16.43444,57.27356],[16.43448,57.2733],[16.43517,57.27351],[16.43571,57.27345],[16.43549,57.27299],[16.43542,57.27255],[16.43558,57.27212],[16.43555,57.27183],[16.43486,57.27173],[16.4338,57.27163],[16.43291,57.27144],[16.4321,57.27145],[16.43151,57.27153],[16.43071,57.27137],[16.42971,57.27129],[16.42876,57.27151],[16.42798,57.2713],[16.42765,57.27129],[16.42804,57.2716],[16.4281,57.27164]]}}