{"type":"Feature","properties":{},"geometry":{"type":"LineString","coordinates":[[11.79939,57.8552],[11.79935,57.85526],[11.7997,57.8553],[11.80014,57.85554],[11.8006,57.85567],[11.80117,57.85595],[11.80157,57.85625],[11.80232,57.85621],[11.8028,57.85608],[11.80317,57.85624],[11.8035,57.85643],[11.8035,57.85651],[11.80318,57.8564],[11.80297,57.85643],[11.80282,57.85654],[11.80269,57.85675],[11.80246,57.85693],[11.8023,57.85707],[11.80226,57.85736],[11.80217,57.85748],[11.8022,57.85764],[11.80233,57.85779],[11.80226,57.8579],[11.80207,57.85793],[11.80171,57.85799],[11.80154,57.85813],[11.80149,57.85812],[11.8012,57.85811],[11.80106,57.85813],[11.80083,57.85815],[11.8005,57.85821],[11.80013,57.85831],[11.7999,57.85837],[11.79941,57.85842],[11.79905,57.85857],[11.79894,57.85862],[11.79874,57.85857],[11.79861,57.85853],[11.79841,57.85861],[11.79825,57.85869],[11.79819,57.85888],[11.79811,57.85906],[11.79795,57.85911],[11.79805,57.85926],[11.79823,57.85938],[11.79815,57.85948],[11.79802,57.8596],[11.7981,57.85974],[11.79831,57.85984],[11.79824,57.86009],[11.79813,57.8602],[11.79788,57.86018],[11.79744,57.86028],[11.79703,57.86024],[11.79668,57.8602],[11.79624,57.86019],[11.79609,57.86019],[11.79588,57.86017],[11.79571,57.86014],[11.79571,57.86008],[11.79549,57.85996],[11.79521,57.85986],[11.795,57.85986],[11.79477,57.85997],[11.7946,57.86001],[11.79444,57.86008],[11.79416,57.86024],[11.79392,57.86039],[11.7937,57.8605],[11.79364,57.86059],[11.79352,57.8607],[11.79345,57.8608],[11.79331,57.861],[11.79326,57.86119],[11.79312,57.86129],[11.79302,57.86135],[11.79276,57.8614],[11.79258,57.86151],[11.7924,57.86145],[11.7919,57.8614],[11.79151,57.86145],[11.79127,57.86154],[11.79096,57.86166],[11.79077,57.86188],[11.79043,57.862],[11.79004,57.86206],[11.78962,57.86203],[11.78922,57.86189],[11.78894,57.8618],[11.78879,57.8617],[11.78862,57.8617],[11.78854,57.86158],[11.78844,57.86129],[11.78807,57.86112],[11.7877,57.86086],[11.78746,57.86052],[11.78721,57.86022],[11.78681,57.8599],[11.78628,57.85965],[11.78581,57.85946],[11.7853,57.85931],[11.78472,57.85923],[11.78442,57.85904],[11.78402,57.85894],[11.78383,57.85883],[11.78362,57.85865],[11.78346,57.85858],[11.78314,57.8586],[11.78298,57.85856],[11.78288,57.85851],[11.78282,57.85838],[11.78303,57.85827],[11.78316,57.85814],[11.78318,57.85815],[11.78332,57.85823],[11.78364,57.85836],[11.7839,57.85842],[11.78381,57.85829],[11.78372,57.85813],[11.78352,57.85797],[11.78335,57.85787],[11.78346,57.85783],[11.78387,57.85781],[11.78426,57.85761],[11.78454,57.85724],[11.78451,57.85693],[11.7845,57.85682],[11.78434,57.85657],[11.78428,57.85639],[11.7844,57.85613],[11.78414,57.85609],[11.78381,57.85606],[11.78378,57.85578],[11.78352,57.85555],[11.78342,57.85531],[11.78351,57.85517],[11.78337,57.85498],[11.78337,57.85492],[11.7835,57.85482],[11.78366,57.85469],[11.78358,57.85474],[11.7836,57.85472],[11.78363,57.85461],[11.78368,57.85455],[11.78372,57.85452],[11.78374,57.85448],[11.78374,57.8544],[11.78375,57.85434],[11.78389,57.8544],[11.78407,57.85437],[11.78426,57.85431],[11.78442,57.8543],[11.78454,57.85418],[11.7847,57.85411],[11.78504,57.85393],[11.78561,57.85385],[11.78602,57.8538],[11.78609,57.8536],[11.78626,57.85343],[11.78631,57.85341],[11.78656,57.85338],[11.7869,57.85333],[11.78697,57.85334],[11.78709,57.85337],[11.78713,57.85336],[11.78725,57.8534],[11.78738,57.85341],[11.7876,57.85343],[11.78796,57.8535],[11.7884,57.85353],[11.78871,57.8535],[11.78899,57.85327],[11.78889,57.8529],[11.78895,57.85259],[11.78928,57.8525],[11.78948,57.8523],[11.78937,57.85218],[11.78917,57.85195],[11.78903,57.85191],[11.78901,57.85187],[11.78895,57.8518],[11.78902,57.85171],[11.78911,57.85172],[11.78923,57.85164],[11.78916,57.85157],[11.78922,57.85148],[11.78935,57.85137],[11.7897,57.85145],[11.79055,57.85153],[11.79122,57.85123],[11.79127,57.85072],[11.79138,57.85025],[11.79141,57.84982],[11.79094,57.84968],[11.79122,57.8494],[11.79141,57.84897],[11.79154,57.84845],[11.79094,57.84802],[11.79024,57.84812],[11.78918,57.84789]]}}