{"type":"Feature","properties":{},"geometry":{"type":"LineString","coordinates":[[13.22594,55.55113],[13.22668,55.55139],[13.22756,55.55158],[13.22792,55.55198],[13.22856,55.55231],[13.22918,55.55255],[13.22952,55.55281],[13.22972,55.55309],[13.22969,55.55352],[13.22967,55.55365],[13.22953,55.55364],[13.22907,55.55369],[13.22846,55.55379],[13.22829,55.55395],[13.22872,55.55412],[13.22927,55.55428],[13.22967,55.55423],[13.22965,55.55467],[13.23003,55.55505],[13.23089,55.55517],[13.23147,55.55529],[13.2322,55.5553],[13.23264,55.55548],[13.23305,55.55568],[13.23294,55.55589],[13.23286,55.55618],[13.23285,55.5563],[13.23243,55.55634],[13.23198,55.55661],[13.23129,55.55675],[13.23117,55.55677],[13.23084,55.55679],[13.23044,55.55682],[13.22989,55.55682],[13.2294,55.55691],[13.22878,55.55677],[13.22785,55.55683],[13.22702,55.5566],[13.22636,55.55637],[13.22567,55.55609],[13.22496,55.55581],[13.22422,55.55595],[13.22391,55.55648],[13.22406,55.55708],[13.22427,55.55753],[13.22397,55.55792],[13.22403,55.55824],[13.22383,55.55847],[13.22351,55.55883],[13.22315,55.55915],[13.223,55.55927],[13.2227,55.55939],[13.22231,55.55946],[13.22184,55.55946],[13.22104,55.55946],[13.2205,55.55945],[13.2202,55.55954],[13.21988,55.55957],[13.21949,55.55951],[13.21909,55.55918],[13.21921,55.55935],[13.21964,55.55935],[13.21997,55.55907],[13.22029,55.5587],[13.22012,55.55843],[13.2197,55.55849],[13.21915,55.55819],[13.21896,55.55768],[13.21865,55.55721],[13.21822,55.55691],[13.21791,55.5566],[13.21763,55.55632],[13.21766,55.55596],[13.21769,55.55573],[13.21754,55.55571],[13.21739,55.55565],[13.21752,55.5554],[13.21747,55.55528],[13.21697,55.55529],[13.21653,55.55533],[13.21595,55.55536],[13.21549,55.55527],[13.21516,55.55523],[13.21471,55.55543],[13.2141,55.55557],[13.21349,55.55559],[13.21307,55.55554],[13.21274,55.5556],[13.213,55.5557],[13.21313,55.55563],[13.21327,55.55535],[13.21317,55.55526],[13.21241,55.55547],[13.21161,55.55589],[13.21106,55.55641],[13.21044,55.55686],[13.20974,55.55728],[13.209,55.55721],[13.20868,55.55725],[13.20782,55.55722],[13.2076,55.55688],[13.20738,55.55642],[13.2069,55.55642],[13.20635,55.55637],[13.20665,55.55644],[13.20684,55.55609],[13.20679,55.55559],[13.20622,55.55514],[13.20533,55.555],[13.20454,55.55503],[13.2042,55.55471],[13.20419,55.55439],[13.20434,55.554],[13.20413,55.5537],[13.20369,55.55342],[13.2033,55.55323],[13.20284,55.55294],[13.20289,55.55297],[13.20326,55.55314],[13.20393,55.55306],[13.20432,55.55316],[13.20514,55.55297],[13.20568,55.55291],[13.20615,55.55278],[13.20692,55.55265],[13.20736,55.55235],[13.2081,55.55232],[13.20861,55.55244],[13.20896,55.55244],[13.2096,55.55225],[13.21026,55.55212],[13.21074,55.55198],[13.21087,55.55179],[13.21148,55.55184],[13.21218,55.55175],[13.21268,55.55134],[13.21361,55.55146],[13.2146,55.55175],[13.2156,55.55205],[13.21657,55.55224],[13.21761,55.55217],[13.21843,55.55179],[13.21889,55.55161],[13.2193,55.55181],[13.21931,55.55209],[13.21961,55.55219],[13.22015,55.5521],[13.22068,55.5517],[13.22103,55.5514],[13.22097,55.5509],[13.22148,55.55075],[13.22229,55.55069],[13.22266,55.55033],[13.22287,55.55016],[13.22317,55.54985],[13.22323,55.5498],[13.22355,55.54956],[13.22344,55.54934],[13.22351,55.54929],[13.22358,55.54902],[13.22383,55.54878],[13.22386,55.54869],[13.22409,55.54864],[13.22449,55.54858],[13.22495,55.54847],[13.22522,55.54841],[13.22566,55.54839],[13.2256,55.54837],[13.22557,55.54884],[13.22574,55.54929],[13.2257,55.54962],[13.22565,55.54985],[13.22581,55.55021],[13.2258,55.55061],[13.22614,55.55093],[13.2258,55.55082],[13.22595,55.55093],[13.22593,55.55096],[13.22591,55.55108],[13.22593,55.55119],[13.22594,55.55121],[13.22596,55.55121],[13.22594,55.55121],[13.22594,55.55121],[13.22593,55.5512],[13.22596,55.55118],[13.22594,55.55119],[13.22592,55.55118],[13.22595,55.55119],[13.22594,55.55119],[13.22593,55.55119],[13.22592,55.55119],[13.22592,55.55119],[13.22592,55.55119],[13.22592,55.55119],[13.22592,55.55119],[13.22592,55.55119],[13.22595,55.55119],[13.22595,55.55119],[13.22589,55.55117]]}}