{"type":"Feature","properties":{},"geometry":{"type":"LineString","coordinates":[[13.20651,55.55479],[13.20631,55.55498],[13.20612,55.55524],[13.20612,55.55551],[13.20614,55.55577],[13.20613,55.55604],[13.20594,55.5562],[13.20571,55.55643],[13.20558,55.55651],[13.20563,55.55655],[13.20545,55.55666],[13.20539,55.55665],[13.2058,55.5565],[13.20572,55.55632],[13.20559,55.55628],[13.2055,55.55609],[13.20568,55.55611],[13.20597,55.55586],[13.2063,55.55557],[13.20634,55.55528],[13.20606,55.55518],[13.20558,55.55542],[13.20538,55.55567],[13.20529,55.55599],[13.20513,55.55628],[13.20496,55.55633],[13.20471,55.55624],[13.20494,55.55636],[13.20526,55.55628],[13.20527,55.55616],[13.20565,55.55631],[13.20585,55.55652],[13.20572,55.55662],[13.20555,55.55677],[13.20564,55.55723],[13.20573,55.55747],[13.2058,55.55772],[13.20573,55.55803],[13.20567,55.55831],[13.20559,55.55849],[13.20514,55.55856],[13.20476,55.55844],[13.20451,55.55829],[13.20424,55.5581],[13.20429,55.5582],[13.20435,55.55823],[13.20442,55.55836],[13.2045,55.55834],[13.20468,55.55813],[13.20464,55.55809],[13.20433,55.5582],[13.20426,55.55818],[13.20395,55.55785],[13.20374,55.55768],[13.20384,55.55783],[13.20431,55.5583],[13.20498,55.55859],[13.2054,55.55852],[13.20567,55.55839],[13.20581,55.55806],[13.20608,55.55791],[13.20633,55.55799],[13.20666,55.55805],[13.20722,55.55819],[13.20738,55.5584],[13.20775,55.55829],[13.20811,55.55834],[13.20842,55.55857],[13.20848,55.55856],[13.20852,55.55848],[13.20857,55.55853],[13.20913,55.5585],[13.20975,55.55827],[13.2102,55.55817],[13.21059,55.55808],[13.21073,55.55811],[13.21086,55.55812],[13.21115,55.55812],[13.21141,55.55812],[13.21157,55.55806],[13.21183,55.55802],[13.21184,55.55793],[13.21179,55.55806],[13.21187,55.55807],[13.21224,55.55818],[13.21299,55.55822],[13.21331,55.55833],[13.21368,55.55847],[13.21398,55.55862],[13.21478,55.55854],[13.21486,55.5589],[13.21501,55.55927],[13.21594,55.55924],[13.21668,55.55899],[13.21734,55.55856],[13.21801,55.55823],[13.21855,55.55782],[13.2191,55.55752],[13.21967,55.55719],[13.22004,55.55675],[13.22025,55.55663],[13.22036,55.55668],[13.22071,55.55682],[13.22102,55.55689],[13.22133,55.55689],[13.22132,55.55674],[13.22107,55.55665],[13.22074,55.55654],[13.22031,55.55643],[13.22046,55.55631],[13.21996,55.5562],[13.21951,55.55599],[13.2192,55.55585],[13.21855,55.55581],[13.21802,55.5558],[13.21768,55.55571],[13.21738,55.5557],[13.21683,55.55586],[13.21654,55.5558],[13.21599,55.55549],[13.21546,55.55535],[13.21526,55.55518],[13.21488,55.55508],[13.21502,55.55491],[13.21544,55.55462],[13.21572,55.5543],[13.21599,55.55393],[13.21658,55.55371],[13.21697,55.55355],[13.21721,55.55342],[13.21737,55.55328],[13.21761,55.55321],[13.21781,55.55304],[13.21769,55.55263],[13.21769,55.55213],[13.2173,55.55168],[13.21727,55.55135],[13.21732,55.55125],[13.21749,55.55093],[13.21744,55.55073],[13.21682,55.55082],[13.21625,55.55082],[13.21563,55.55095],[13.21521,55.55095],[13.21481,55.55109],[13.21459,55.55121],[13.21424,55.55154],[13.21402,55.55186],[13.21373,55.55204],[13.21344,55.55218],[13.21318,55.55231],[13.21295,55.55244],[13.21262,55.55226],[13.21256,55.55205],[13.21223,55.55194],[13.21203,55.55184],[13.21146,55.55189],[13.21072,55.55189],[13.20984,55.55191],[13.20944,55.55189],[13.20887,55.55186],[13.2082,55.55183],[13.2077,55.55178],[13.20728,55.55181],[13.20675,55.55186],[13.20665,55.55195],[13.20665,55.5519],[13.20642,55.55201],[13.20619,55.55208],[13.20587,55.55218],[13.20577,55.55217],[13.20555,55.55217],[13.2054,55.55213],[13.20539,55.55238],[13.20539,55.55265],[13.20542,55.55291],[13.20516,55.5531],[13.20481,55.55329],[13.20455,55.55363],[13.20424,55.55394],[13.2045,55.5542],[13.20537,55.55427],[13.20589,55.5543],[13.20598,55.55433],[13.20601,55.55424],[13.20602,55.55427],[13.20607,55.55423],[13.20607,55.55419],[13.20602,55.55423],[13.20598,55.55428],[13.20601,55.55427],[13.20604,55.55424],[13.20604,55.55427],[13.20607,55.55427],[13.20609,55.55423],[13.20607,55.55423],[13.20611,55.55422],[13.20608,55.55422],[13.20608,55.55427],[13.20603,55.55428]]}}