{"type":"Feature","properties":{},"geometry":{"type":"LineString","coordinates":[[13.18116,56.03483],[13.18125,56.03464],[13.18125,56.03438],[13.18111,56.03418],[13.18102,56.03436],[13.18128,56.03447],[13.18152,56.03452],[13.18174,56.03453],[13.18192,56.0345],[13.18222,56.03451],[13.1824,56.03451],[13.18242,56.03472],[13.18266,56.03487],[13.18282,56.03481],[13.18298,56.03481],[13.18332,56.03483],[13.18375,56.03475],[13.18416,56.03463],[13.18473,56.03451],[13.18508,56.03441],[13.18544,56.03447],[13.18579,56.03463],[13.18612,56.03481],[13.18643,56.03489],[13.18652,56.03498],[13.18644,56.0352],[13.1866,56.03542],[13.18701,56.03555],[13.18729,56.03569],[13.18771,56.03586],[13.18819,56.03599],[13.18841,56.03599],[13.18858,56.03595],[13.18868,56.03598],[13.18871,56.03598],[13.18884,56.03596],[13.18872,56.03594],[13.18874,56.03596],[13.18872,56.0359],[13.18848,56.03592],[13.18843,56.03595],[13.18828,56.03604],[13.1882,56.0361],[13.18834,56.03604],[13.18844,56.03597],[13.18843,56.03594],[13.18839,56.03597],[13.18842,56.03598],[13.18844,56.03591],[13.18858,56.03589],[13.18888,56.03583],[13.18911,56.03583],[13.18944,56.03583],[13.18987,56.03567],[13.19031,56.03544],[13.19056,56.03526],[13.1909,56.03504],[13.1911,56.03489],[13.19124,56.03469],[13.19146,56.03447],[13.19168,56.03418],[13.19188,56.03398],[13.19216,56.03384],[13.19249,56.03359],[13.19292,56.03347],[13.19332,56.03342],[13.19354,56.03339],[13.19386,56.03332],[13.1941,56.03334],[13.19442,56.0333],[13.19474,56.03317],[13.19503,56.0331],[13.19528,56.03297],[13.19579,56.03292],[13.19612,56.03286],[13.19623,56.03288],[13.19608,56.03285],[13.19574,56.03286],[13.19527,56.03286],[13.19473,56.03276],[13.19434,56.03274],[13.1938,56.03262],[13.19336,56.0326],[13.19282,56.03256],[13.19233,56.03251],[13.19203,56.03245],[13.1914,56.03245],[13.19085,56.03243],[13.19054,56.03243],[13.19028,56.03244],[13.19005,56.03245],[13.18984,56.03242],[13.18974,56.03242],[13.18949,56.03248],[13.18918,56.0325],[13.18909,56.03244],[13.18881,56.03234],[13.18852,56.03233],[13.18847,56.03231],[13.18835,56.03233],[13.18831,56.03229],[13.18806,56.03228],[13.18778,56.03222],[13.18746,56.03221],[13.18724,56.03216],[13.18706,56.03213],[13.18683,56.03204],[13.18659,56.03206],[13.18637,56.03207],[13.18613,56.032],[13.18565,56.03209],[13.18516,56.03204],[13.18478,56.03202],[13.18459,56.03197],[13.18431,56.03195],[13.18402,56.03204],[13.18386,56.03209],[13.18382,56.03208],[13.184,56.03205],[13.18421,56.03195],[13.18434,56.03178],[13.18431,56.03173],[13.18437,56.03159],[13.18444,56.0314],[13.18437,56.03112],[13.18448,56.03094],[13.18458,56.03072],[13.18447,56.03051],[13.18447,56.03032],[13.18447,56.03023],[13.18432,56.03011],[13.18436,56.03001],[13.18443,56.02988],[13.18441,56.02974],[13.18456,56.02963],[13.1846,56.02944],[13.18444,56.02927],[13.18433,56.02915],[13.18415,56.02907],[13.18404,56.02902],[13.18399,56.02905],[13.18367,56.02917],[13.18324,56.02924],[13.18298,56.02916],[13.18269,56.02927],[13.1825,56.02923],[13.18229,56.02923],[13.18204,56.02931],[13.18169,56.02938],[13.18118,56.02949],[13.18064,56.02968],[13.18013,56.02983],[13.17971,56.02989],[13.17948,56.02994],[13.17922,56.03001],[13.17895,56.0302],[13.17866,56.03026],[13.17841,56.03025],[13.17831,56.0303],[13.17825,56.03033],[13.17804,56.03042],[13.17778,56.03065],[13.17753,56.03075],[13.17743,56.03085],[13.17737,56.03094],[13.17726,56.03108],[13.17722,56.0312],[13.17718,56.03125],[13.17738,56.03134],[13.17747,56.03134],[13.17767,56.03135],[13.17788,56.03139],[13.17808,56.03136],[13.1782,56.03141],[13.17854,56.03139],[13.17883,56.03137],[13.17913,56.03133],[13.17933,56.0313],[13.17957,56.03133],[13.17985,56.0313],[13.18014,56.03139],[13.18065,56.03131],[13.18119,56.03127],[13.18152,56.03137],[13.18193,56.03138],[13.18223,56.03142],[13.18238,56.03143],[13.18267,56.0314],[13.18271,56.03143],[13.18261,56.0315],[13.18245,56.03162],[13.18214,56.03181],[13.18181,56.03196],[13.18155,56.03212],[13.18129,56.03228],[13.18114,56.03238],[13.18105,56.03258],[13.1808,56.03282],[13.18062,56.03308],[13.18025,56.03338]]}}