{"type":"Feature","properties":{},"geometry":{"type":"LineString","coordinates":[[13.67588,55.89041],[13.67614,55.89043],[13.67619,55.89072],[13.67632,55.8911],[13.67659,55.89132],[13.67692,55.89141],[13.67733,55.89143],[13.67773,55.89143],[13.67813,55.89145],[13.6785,55.89149],[13.67863,55.89149],[13.67899,55.89149],[13.67942,55.89142],[13.67977,55.89131],[13.67982,55.89136],[13.68003,55.8915],[13.68045,55.89169],[13.68081,55.89176],[13.68093,55.89171],[13.68113,55.89165],[13.68153,55.89145],[13.68194,55.89126],[13.68239,55.89111],[13.68285,55.89103],[13.68309,55.89102],[13.68333,55.89101],[13.68383,55.8909],[13.68425,55.89079],[13.68451,55.89062],[13.68471,55.89048],[13.68493,55.8904],[13.68505,55.89032],[13.68533,55.89016],[13.68539,55.88988],[13.68549,55.88974],[13.68572,55.88959],[13.68599,55.88953],[13.68629,55.8896],[13.6866,55.88966],[13.68692,55.88972],[13.68735,55.88969],[13.6878,55.88963],[13.68815,55.88962],[13.68846,55.88965],[13.68849,55.88968],[13.68846,55.88979],[13.68836,55.89003],[13.68838,55.89025],[13.68841,55.89046],[13.68832,55.89062],[13.68847,55.8908],[13.68855,55.891],[13.68838,55.89102],[13.68801,55.8911],[13.68778,55.89111],[13.68734,55.89116],[13.68692,55.89129],[13.68657,55.89142],[13.68633,55.89144],[13.68603,55.89144],[13.6857,55.89139],[13.68551,55.89138],[13.68536,55.89144],[13.68502,55.89151],[13.6848,55.89172],[13.68481,55.89195],[13.68466,55.89217],[13.6845,55.8923],[13.68425,55.89248],[13.68397,55.8927],[13.68377,55.89289],[13.68349,55.89293],[13.68314,55.89299],[13.68287,55.89314],[13.68255,55.89327],[13.68237,55.8934],[13.68218,55.89352],[13.68228,55.89353],[13.68243,55.89346],[13.6823,55.89351],[13.68202,55.89357],[13.6817,55.89371],[13.68136,55.89386],[13.681,55.89393],[13.68071,55.89401],[13.68056,55.89423],[13.68035,55.89444],[13.68003,55.89458],[13.67966,55.89458],[13.67911,55.89461],[13.67885,55.89467],[13.67855,55.89482],[13.67859,55.89489],[13.67897,55.89502],[13.67916,55.8952],[13.67928,55.8954],[13.6792,55.89543],[13.67916,55.8955],[13.6793,55.89569],[13.67933,55.89588],[13.67927,55.89607],[13.67923,55.89621],[13.6793,55.89633],[13.67908,55.89641],[13.67874,55.89649],[13.67867,55.89661],[13.67846,55.89686],[13.67827,55.8971],[13.67801,55.89735],[13.67757,55.89756],[13.67733,55.89766],[13.67728,55.8977],[13.67714,55.89778],[13.67701,55.89793],[13.67693,55.89803],[13.67668,55.89819],[13.67655,55.89834],[13.6764,55.89846],[13.67634,55.89857],[13.67625,55.89867],[13.67618,55.89883],[13.67602,55.89902],[13.67592,55.8991],[13.67584,55.8992],[13.67581,55.89931],[13.6758,55.89942],[13.6758,55.89953],[13.6757,55.89968],[13.67564,55.89985],[13.67564,55.89999],[13.67555,55.90006],[13.67533,55.90019],[13.67506,55.90029],[13.67482,55.90035],[13.67472,55.90039],[13.67473,55.90044],[13.67485,55.90043],[13.67499,55.90042],[13.67513,55.90043],[13.67499,55.90037],[13.6747,55.90034],[13.67446,55.90037],[13.67422,55.90037],[13.6739,55.90031],[13.67381,55.90014],[13.67369,55.89989],[13.67333,55.89975],[13.67304,55.89972],[13.67277,55.89974],[13.67257,55.89979],[13.67243,55.89966],[13.6722,55.89953],[13.67215,55.89942],[13.67197,55.89924],[13.6719,55.89904],[13.67191,55.89904],[13.6721,55.89905],[13.6723,55.89905],[13.67277,55.89892],[13.67317,55.89873],[13.67338,55.89851],[13.67355,55.89831],[13.67375,55.89826],[13.67424,55.89817],[13.67478,55.89811],[13.67529,55.898],[13.67555,55.89779],[13.67573,55.89771],[13.67596,55.89753],[13.67615,55.89734],[13.67613,55.89722],[13.67602,55.89708],[13.67575,55.89685],[13.67546,55.89662],[13.67528,55.89642],[13.67528,55.89636],[13.67525,55.89622],[13.67514,55.89606],[13.67507,55.8959],[13.67503,55.89563],[13.67497,55.89536],[13.6747,55.89519],[13.67457,55.8951],[13.67439,55.89502],[13.67425,55.89492],[13.67405,55.89479],[13.67389,55.89467],[13.67383,55.89455],[13.67367,55.8944],[13.6734,55.89423],[13.67325,55.89416],[13.67302,55.89402],[13.67265,55.89392],[13.67225,55.89376],[13.672,55.8935],[13.67196,55.89314],[13.67185,55.89282],[13.6717,55.89242],[13.67157,55.892],[13.67144,55.89164]]}}