{"type":"Feature","properties":{},"geometry":{"type":"LineString","coordinates":[[13.35524,55.67434],[13.35525,55.67443],[13.35519,55.67446],[13.35489,55.67502],[13.35457,55.67541],[13.35446,55.6758],[13.35435,55.67618],[13.35463,55.67661],[13.35527,55.67689],[13.35599,55.67703],[13.3565,55.67714],[13.35669,55.67707],[13.35675,55.67695],[13.35685,55.67718],[13.35725,55.67736],[13.3576,55.67764],[13.3582,55.67774],[13.35892,55.67774],[13.35924,55.67787],[13.35972,55.67799],[13.35996,55.67813],[13.36025,55.67825],[13.36059,55.67828],[13.36052,55.6783],[13.36046,55.67851],[13.36054,55.67844],[13.36064,55.67816],[13.36115,55.67804],[13.36165,55.67775],[13.36176,55.67727],[13.36186,55.67682],[13.36204,55.67638],[13.36226,55.67602],[13.36274,55.67583],[13.36283,55.6757],[13.36309,55.6753],[13.3635,55.67522],[13.3635,55.67528],[13.36382,55.67542],[13.36459,55.67546],[13.36509,55.67541],[13.3655,55.67544],[13.36614,55.67546],[13.36673,55.67538],[13.36689,55.67557],[13.36694,55.67587],[13.36707,55.67612],[13.36697,55.67629],[13.36678,55.67662],[13.36674,55.67688],[13.36669,55.67713],[13.36653,55.67735],[13.3665,55.67753],[13.3666,55.67762],[13.36649,55.67771],[13.36643,55.67793],[13.3664,55.67805],[13.36637,55.67823],[13.36628,55.67836],[13.36604,55.67854],[13.36592,55.67863],[13.36604,55.67867],[13.36616,55.67878],[13.36628,55.67897],[13.36685,55.67919],[13.36741,55.67941],[13.3678,55.67945],[13.3683,55.6795],[13.36829,55.67954],[13.36828,55.6796],[13.369,55.67931],[13.3696,55.67919],[13.36974,55.6795],[13.36989,55.67991],[13.37038,55.67979],[13.37072,55.67984],[13.37116,55.67993],[13.37132,55.68006],[13.37191,55.68017],[13.3728,55.68016],[13.37351,55.68012],[13.37421,55.68007],[13.37523,55.68006],[13.37608,55.68],[13.37686,55.67997],[13.37754,55.68],[13.37755,55.68011],[13.37776,55.6803],[13.37802,55.68063],[13.37834,55.6809],[13.3785,55.68107],[13.37849,55.6812],[13.37846,55.68155],[13.37852,55.68191],[13.37849,55.68211],[13.37854,55.68241],[13.37856,55.68255],[13.37876,55.68271],[13.37875,55.68287],[13.37888,55.68305],[13.37901,55.68302],[13.37881,55.68297],[13.37826,55.68289],[13.37806,55.68282],[13.37783,55.6827],[13.37761,55.68258],[13.37713,55.6824],[13.37647,55.68235],[13.3759,55.68222],[13.37511,55.6823],[13.37441,55.68259],[13.37361,55.68269],[13.373,55.68268],[13.37241,55.68257],[13.37164,55.68257],[13.37117,55.6826],[13.37091,55.68259],[13.37074,55.68247],[13.37047,55.68234],[13.37022,55.68218],[13.37022,55.68208],[13.36998,55.68205],[13.37003,55.68175],[13.37029,55.68168],[13.37067,55.68161],[13.3709,55.68164],[13.37099,55.68177],[13.37056,55.68194],[13.3701,55.682],[13.36997,55.68236],[13.3699,55.68271],[13.36923,55.68271],[13.36827,55.68274],[13.36793,55.68308],[13.36783,55.68346],[13.36797,55.68393],[13.36775,55.68437],[13.36736,55.68453],[13.36719,55.68445],[13.36681,55.68453],[13.36623,55.68454],[13.3658,55.68452],[13.36543,55.68457],[13.36525,55.68455],[13.36495,55.68451],[13.36447,55.68455],[13.36417,55.68443],[13.36401,55.68421],[13.36374,55.6841],[13.36325,55.68392],[13.36289,55.68361],[13.36251,55.68347],[13.36196,55.68356],[13.36161,55.68361],[13.36141,55.68344],[13.36097,55.68333],[13.3604,55.68337],[13.3601,55.6834],[13.3595,55.68341],[13.3589,55.68345],[13.35897,55.68324],[13.35895,55.68285],[13.35898,55.68261],[13.35907,55.68225],[13.3593,55.68219],[13.35951,55.68193],[13.35951,55.68142],[13.35959,55.68099],[13.35969,55.68056],[13.35978,55.68019],[13.35975,55.67998],[13.3597,55.6797],[13.35953,55.67951],[13.35928,55.67926],[13.35877,55.67909],[13.35834,55.6789],[13.35784,55.67866],[13.35726,55.6785],[13.35733,55.67812],[13.35715,55.67769],[13.35625,55.67757],[13.35558,55.67764],[13.35493,55.67763],[13.35437,55.6774],[13.35429,55.67731],[13.35419,55.67705],[13.35381,55.67673],[13.3534,55.67653],[13.3532,55.67644],[13.35309,55.67652],[13.35264,55.6763],[13.35225,55.67609],[13.35173,55.67614],[13.35185,55.67588],[13.35225,55.67567],[13.35255,55.67552],[13.35269,55.67526],[13.3531,55.67522],[13.35376,55.67492],[13.35471,55.67488]]}}