{"type":"Feature","properties":{},"geometry":{"type":"LineString","coordinates":[[12.93184,55.57654],[12.93168,55.5764],[12.93134,55.57641],[12.93096,55.57643],[12.93067,55.57637],[12.93064,55.57632],[12.93064,55.57656],[12.93058,55.57679],[12.93065,55.57704],[12.93072,55.57732],[12.93076,55.57758],[12.93085,55.57785],[12.93105,55.57814],[12.93111,55.57844],[12.93124,55.5787],[12.93162,55.57881],[12.93204,55.57875],[12.93243,55.57873],[12.93255,55.57899],[12.93266,55.57911],[12.93284,55.57925],[12.93306,55.57903],[12.93318,55.57889],[12.93344,55.57889],[12.93365,55.57892],[12.93404,55.57885],[12.93445,55.57877],[12.93491,55.57871],[12.93531,55.57859],[12.93579,55.5785],[12.93623,55.57847],[12.93667,55.57843],[12.9366,55.57849],[12.93684,55.5785],[12.93689,55.57829],[12.937,55.57803],[12.9369,55.57777],[12.93687,55.57751],[12.93686,55.57742],[12.93683,55.57761],[12.93704,55.57787],[12.93751,55.57777],[12.93772,55.57783],[12.93777,55.57768],[12.93773,55.57744],[12.93777,55.57719],[12.93788,55.57724],[12.93816,55.57736],[12.9384,55.57736],[12.93854,55.57733],[12.93861,55.57712],[12.93868,55.57692],[12.93869,55.57671],[12.93867,55.57676],[12.93858,55.57694],[12.93859,55.57715],[12.93866,55.57742],[12.9389,55.57768],[12.93941,55.57763],[12.93983,55.57757],[12.93992,55.57737],[12.93981,55.57712],[12.93997,55.57693],[12.9404,55.57688],[12.94078,55.5768],[12.94118,55.57672],[12.9416,55.57661],[12.94169,55.57651],[12.94165,55.57628],[12.94156,55.57602],[12.94148,55.57576],[12.94124,55.57566],[12.94083,55.57573],[12.94044,55.57579],[12.9401,55.57578],[12.93974,55.57564],[12.93944,55.57547],[12.9391,55.57527],[12.93887,55.57506],[12.93868,55.5749],[12.93828,55.57493],[12.93788,55.57496],[12.93764,55.57493],[12.93762,55.57488],[12.93771,55.57494],[12.93817,55.57492],[12.93864,55.57487],[12.93875,55.57469],[12.93878,55.57443],[12.93873,55.57418],[12.93865,55.57392],[12.93865,55.57368],[12.93907,55.57355],[12.93952,55.57349],[12.93962,55.57337],[12.93938,55.57321],[12.93929,55.57297],[12.93917,55.57281],[12.9391,55.57252],[12.93902,55.57225],[12.93923,55.57214],[12.93947,55.5721],[12.93964,55.57211],[12.93974,55.57238],[12.93989,55.57264],[12.94021,55.5728],[12.94069,55.57277],[12.94117,55.57272],[12.94154,55.57272],[12.94163,55.57297],[12.94167,55.57318],[12.9416,55.5733],[12.94136,55.57332],[12.94109,55.57335],[12.94079,55.57343],[12.94026,55.5735],[12.93982,55.57357],[12.93978,55.57381],[12.93983,55.57406],[12.9399,55.5743],[12.9399,55.57457],[12.93983,55.57478],[12.93949,55.57491],[12.93952,55.57517],[12.93935,55.57541],[12.93921,55.57565],[12.93905,55.57588],[12.93864,55.57595],[12.93842,55.57601],[12.9381,55.57614],[12.93788,55.57623],[12.93762,55.57625],[12.93723,55.57632],[12.93692,55.57646],[12.93682,55.57673],[12.9367,55.57696],[12.93661,55.57712],[12.93661,55.57727],[12.93663,55.57758],[12.93668,55.57784],[12.9365,55.57801],[12.93606,55.57803],[12.93566,55.57809],[12.93518,55.57817],[12.9349,55.57819],[12.93468,55.57821],[12.93447,55.57826],[12.93449,55.57817],[12.93448,55.57802],[12.93446,55.57779],[12.93464,55.57765],[12.93497,55.57756],[12.93522,55.57751],[12.93553,55.57745],[12.93572,55.57718],[12.9358,55.57691],[12.93622,55.57684],[12.9366,55.57671],[12.93672,55.5765],[12.93677,55.57638],[12.93668,55.5763],[12.93664,55.57626],[12.93644,55.5763],[12.93631,55.57628],[12.93587,55.57635],[12.93538,55.57641],[12.93486,55.57646],[12.93449,55.57635],[12.93427,55.57614],[12.93421,55.57592],[12.93416,55.57579],[12.93405,55.57571],[12.93397,55.57557],[12.93393,55.57553],[12.93396,55.57554],[12.93418,55.57556],[12.93439,55.57567],[12.93419,55.57593],[12.93416,55.57622],[12.93402,55.57643],[12.9339,55.5766],[12.93354,55.57671],[12.93304,55.57675],[12.93242,55.57677],[12.93223,55.57679],[12.93222,55.5768],[12.93219,55.57681],[12.93217,55.57681],[12.93216,55.5768],[12.93217,55.5768],[12.93218,55.57681],[12.93212,55.57683],[12.9321,55.5768],[12.93208,55.57681],[12.93207,55.57681],[12.93207,55.5768],[12.93206,55.57681],[12.93206,55.57681],[12.93209,55.57681],[12.93211,55.57683]]}}