{"type":"Feature","properties":{},"geometry":{"type":"LineString","coordinates":[[13.0928,55.59979],[13.09259,55.59985],[13.09244,55.59988],[13.09206,55.60003],[13.09205,55.60029],[13.09194,55.60052],[13.09156,55.6007],[13.09151,55.60097],[13.0916,55.6013],[13.09183,55.60152],[13.0921,55.60175],[13.09218,55.60207],[13.09217,55.60235],[13.09215,55.60266],[13.09243,55.60279],[13.09259,55.60255],[13.09263,55.60226],[13.09267,55.60199],[13.09299,55.60179],[13.09341,55.6017],[13.09375,55.60176],[13.09392,55.60205],[13.09414,55.60229],[13.09431,55.60248],[13.09434,55.6028],[13.0944,55.60306],[13.09423,55.60332],[13.09384,55.60339],[13.09333,55.6033],[13.09279,55.60327],[13.09232,55.60333],[13.09212,55.60361],[13.09219,55.60379],[13.09226,55.60373],[13.09236,55.60361],[13.09235,55.60369],[13.09231,55.60392],[13.09241,55.60406],[13.09261,55.60436],[13.09291,55.6046],[13.09333,55.60471],[13.09353,55.60459],[13.09358,55.60448],[13.0935,55.60462],[13.09364,55.6048],[13.09413,55.60486],[13.09463,55.60494],[13.095,55.60507],[13.09488,55.60537],[13.09468,55.60563],[13.09451,55.60587],[13.09417,55.60598],[13.09385,55.6059],[13.09351,55.60604],[13.09339,55.60626],[13.09329,55.60653],[13.09299,55.6067],[13.09243,55.60671],[13.09191,55.60665],[13.09136,55.60662],[13.09094,55.60655],[13.0906,55.60644],[13.0903,55.60632],[13.0899,55.60641],[13.0897,55.60647],[13.08918,55.60649],[13.0889,55.60665],[13.08883,55.60684],[13.08846,55.6069],[13.08815,55.60696],[13.0879,55.60706],[13.08776,55.60714],[13.08763,55.60725],[13.08755,55.60721],[13.08744,55.60707],[13.08732,55.60704],[13.08729,55.60697],[13.08732,55.6068],[13.08732,55.60658],[13.08726,55.60634],[13.08698,55.6061],[13.08655,55.60591],[13.08612,55.60582],[13.0858,55.60575],[13.0854,55.60568],[13.08515,55.60541],[13.08496,55.60515],[13.08459,55.60525],[13.08451,55.60538],[13.08452,55.60553],[13.08456,55.60544],[13.08464,55.60529],[13.08494,55.60515],[13.08504,55.60482],[13.08509,55.6045],[13.08515,55.60418],[13.08522,55.60387],[13.08527,55.60358],[13.08533,55.60325],[13.08566,55.60307],[13.08617,55.60304],[13.08657,55.603],[13.08659,55.6028],[13.08664,55.6027],[13.08666,55.60254],[13.0867,55.60234],[13.08681,55.60207],[13.08684,55.60178],[13.08686,55.60149],[13.08688,55.60119],[13.08672,55.60098],[13.08615,55.60096],[13.08562,55.60091],[13.08506,55.60088],[13.0846,55.60076],[13.0844,55.6005],[13.08402,55.60028],[13.08368,55.6002],[13.0834,55.60008],[13.08345,55.59979],[13.08314,55.5997],[13.08277,55.5997],[13.0828,55.59959],[13.08291,55.59948],[13.0829,55.59927],[13.08313,55.59907],[13.08368,55.59905],[13.0842,55.59905],[13.08469,55.59904],[13.08478,55.59892],[13.08477,55.59875],[13.08477,55.5984],[13.0848,55.5981],[13.08483,55.59791],[13.08505,55.59787],[13.08525,55.5978],[13.08511,55.59757],[13.0851,55.5975],[13.08491,55.59747],[13.08484,55.59727],[13.08483,55.59696],[13.08483,55.59666],[13.08482,55.59635],[13.08435,55.59629],[13.08398,55.59623],[13.0837,55.59623],[13.08323,55.59624],[13.08255,55.59623],[13.08213,55.59619],[13.0822,55.59589],[13.08243,55.5958],[13.08267,55.5958],[13.08294,55.59579],[13.08319,55.59577],[13.08356,55.59567],[13.08402,55.59554],[13.08442,55.59543],[13.08476,55.59535],[13.08495,55.5953],[13.08512,55.59521],[13.0851,55.59513],[13.08517,55.59521],[13.08534,55.59535],[13.08582,55.59541],[13.08637,55.59547],[13.08693,55.59553],[13.08739,55.59564],[13.08794,55.5957],[13.08844,55.59573],[13.08883,55.59588],[13.08934,55.59589],[13.08979,55.59585],[13.09023,55.59581],[13.09059,55.59576],[13.09078,55.59579],[13.09103,55.59584],[13.09125,55.59589],[13.09155,55.59595],[13.09171,55.59623],[13.09176,55.59652],[13.0918,55.59681],[13.09165,55.59699],[13.09133,55.59702],[13.09118,55.59709],[13.09116,55.59715],[13.0914,55.59719],[13.09125,55.5972],[13.09087,55.59741],[13.09097,55.59769],[13.09097,55.59797],[13.0911,55.5983],[13.0913,55.59858],[13.09152,55.59886],[13.09137,55.59915],[13.09175,55.59935],[13.09221,55.59937],[13.09271,55.5993],[13.09322,55.59928],[13.09321,55.59943],[13.09318,55.59944]]}}