{"type":"Feature","properties":{},"geometry":{"type":"LineString","coordinates":[[13.8443,56.24231],[13.8444,56.24231],[13.84434,56.24239],[13.84417,56.24255],[13.84395,56.24268],[13.84378,56.24271],[13.8435,56.24282],[13.84326,56.24306],[13.84294,56.24323],[13.84269,56.24336],[13.84234,56.24345],[13.84195,56.24356],[13.84154,56.24366],[13.84125,56.24371],[13.84089,56.24374],[13.8405,56.24376],[13.84008,56.24383],[13.83974,56.24389],[13.83934,56.24397],[13.83893,56.24405],[13.83859,56.24404],[13.83847,56.24394],[13.83836,56.2438],[13.83814,56.24377],[13.83779,56.24381],[13.83747,56.24383],[13.83733,56.24379],[13.83708,56.24373],[13.83671,56.24378],[13.83645,56.24377],[13.83622,56.24375],[13.83598,56.24371],[13.83588,56.24369],[13.83579,56.24365],[13.83585,56.24363],[13.8358,56.24362],[13.83569,56.24362],[13.83569,56.24357],[13.83572,56.24352],[13.83563,56.24341],[13.8354,56.24328],[13.83517,56.24313],[13.83527,56.24297],[13.83533,56.2428],[13.8352,56.24259],[13.83496,56.24238],[13.83494,56.2422],[13.83487,56.24207],[13.83471,56.24193],[13.83481,56.24185],[13.83489,56.24176],[13.83482,56.24165],[13.83479,56.24153],[13.83463,56.2415],[13.8345,56.24148],[13.83444,56.24136],[13.83433,56.24119],[13.83428,56.24113],[13.83423,56.24111],[13.83414,56.24108],[13.83413,56.24106],[13.83422,56.24096],[13.83424,56.24085],[13.83429,56.24073],[13.83432,56.24057],[13.83435,56.24042],[13.83436,56.24035],[13.83433,56.24026],[13.83431,56.24016],[13.8343,56.24005],[13.83436,56.23997],[13.83441,56.23991],[13.83443,56.23983],[13.8346,56.23968],[13.8348,56.2395],[13.83476,56.2393],[13.8347,56.23919],[13.83473,56.23922],[13.83511,56.23932],[13.8354,56.2393],[13.83549,56.23926],[13.83576,56.23925],[13.83609,56.23917],[13.83625,56.23901],[13.83638,56.23891],[13.83648,56.23884],[13.83669,56.23873],[13.83696,56.23863],[13.83717,56.23856],[13.83724,56.23848],[13.83718,56.2384],[13.83707,56.23835],[13.83692,56.23823],[13.83683,56.23807],[13.83671,56.2379],[13.83663,56.23775],[13.83651,56.23763],[13.83631,56.2375],[13.83646,56.2374],[13.83664,56.23724],[13.83661,56.23701],[13.83635,56.23686],[13.83592,56.2368],[13.83561,56.23667],[13.83532,56.23652],[13.83517,56.23647],[13.83503,56.23645],[13.8348,56.23644],[13.83449,56.23639],[13.83444,56.23637],[13.83446,56.23631],[13.83444,56.2363],[13.83443,56.2363],[13.83453,56.2363],[13.83469,56.23626],[13.83474,56.23627],[13.83478,56.23627],[13.83495,56.23622],[13.8351,56.23614],[13.83532,56.23605],[13.83542,56.23597],[13.8356,56.23586],[13.83564,56.23568],[13.83561,56.23547],[13.83564,56.23538],[13.83549,56.23533],[13.83547,56.23527],[13.8355,56.23522],[13.83559,56.23512],[13.83566,56.23504],[13.83577,56.23498],[13.83599,56.23491],[13.83624,56.23482],[13.8364,56.23465],[13.83648,56.23454],[13.83658,56.23454],[13.83682,56.23454],[13.83712,56.23445],[13.8374,56.23434],[13.83757,56.23425],[13.83773,56.23418],[13.83792,56.23401],[13.83809,56.23386],[13.83825,56.23371],[13.83828,56.23358],[13.83848,56.23346],[13.83861,56.23334],[13.83882,56.23322],[13.83905,56.23311],[13.83919,56.23305],[13.83921,56.23307],[13.83942,56.23303],[13.83961,56.23299],[13.83991,56.23298],[13.84012,56.23295],[13.8402,56.23288],[13.84034,56.23292],[13.84044,56.23295],[13.84054,56.23296],[13.84067,56.23295],[13.84093,56.23293],[13.84121,56.23294],[13.84141,56.2329],[13.84169,56.23289],[13.84188,56.23297],[13.84195,56.23302],[13.84214,56.23308],[13.84248,56.23306],[13.84281,56.23311],[13.84313,56.23318],[13.84339,56.23327],[13.84359,56.23334],[13.84368,56.23338],[13.84396,56.23343],[13.84426,56.23349],[13.8446,56.23354],[13.8449,56.23357],[13.84515,56.23363],[13.84543,56.23365],[13.84558,56.2337],[13.84582,56.23371],[13.84596,56.23362],[13.84607,56.23367],[13.8462,56.23385],[13.84639,56.23399],[13.84665,56.23409],[13.84703,56.23414],[13.84768,56.23407],[13.84802,56.23389],[13.84836,56.23367],[13.84861,56.23341],[13.849,56.23323],[13.84935,56.23318],[13.84984,56.2332],[13.85045,56.23325],[13.85103,56.23329],[13.85149,56.23325],[13.8517,56.23342],[13.85216,56.23358],[13.85255,56.23379]]}}