{"type":"Feature","properties":{},"geometry":{"type":"LineString","coordinates":[[15.85802,57.35269],[15.85809,57.35301],[15.85885,57.35339],[15.85975,57.35361],[15.86057,57.35367],[15.86111,57.35375],[15.86156,57.35383],[15.862,57.35383],[15.86243,57.35397],[15.86281,57.35409],[15.86324,57.35411],[15.86371,57.35419],[15.86425,57.35424],[15.86449,57.35403],[15.86445,57.35378],[15.86417,57.35395],[15.86356,57.35414],[15.86332,57.35422],[15.86347,57.35413],[15.86398,57.35407],[15.86472,57.35393],[15.865,57.35381],[15.86546,57.35366],[15.86608,57.35363],[15.86647,57.35348],[15.86682,57.35333],[15.86728,57.35337],[15.86763,57.35325],[15.86792,57.35307],[15.86823,57.35288],[15.86871,57.35259],[15.86915,57.35253],[15.86955,57.35246],[15.86998,57.35223],[15.87032,57.35222],[15.87065,57.35217],[15.87112,57.35208],[15.87157,57.35227],[15.87187,57.35222],[15.87229,57.35229],[15.87291,57.35243],[15.8733,57.35245],[15.87394,57.35239],[15.87419,57.35223],[15.87436,57.35239],[15.87508,57.35256],[15.87559,57.3527],[15.87595,57.35286],[15.87655,57.35301],[15.8773,57.35297],[15.87758,57.35264],[15.87788,57.35207],[15.87855,57.35241],[15.87914,57.35284],[15.87965,57.35315],[15.88011,57.35342],[15.8804,57.35359],[15.88037,57.3538],[15.88018,57.35398],[15.88003,57.35421],[15.87999,57.35442],[15.87989,57.35462],[15.87986,57.35446],[15.87959,57.35431],[15.87915,57.35439],[15.8788,57.35443],[15.87872,57.35432],[15.87902,57.35417],[15.87957,57.35418],[15.87993,57.35415],[15.88018,57.35438],[15.87991,57.35463],[15.88018,57.35483],[15.88068,57.35516],[15.88046,57.35558],[15.88014,57.35592],[15.87968,57.3562],[15.87926,57.35649],[15.87903,57.35674],[15.8787,57.357],[15.87828,57.35723],[15.87808,57.3575],[15.87814,57.35768],[15.87806,57.35782],[15.87804,57.35813],[15.87809,57.35835],[15.87811,57.3585],[15.87798,57.35865],[15.87765,57.35881],[15.8773,57.35893],[15.87702,57.35915],[15.87669,57.3594],[15.87642,57.35956],[15.87639,57.3599],[15.87647,57.35989],[15.87615,57.35961],[15.876,57.35965],[15.87612,57.35948],[15.87643,57.35918],[15.87675,57.35912],[15.87691,57.35909],[15.87678,57.35915],[15.87671,57.35922],[15.87696,57.35925],[15.87709,57.35929],[15.87713,57.35926],[15.87716,57.35907],[15.87741,57.35897],[15.87769,57.35876],[15.8782,57.35868],[15.87822,57.35857],[15.87812,57.35847],[15.87851,57.35878],[15.87871,57.35894],[15.87843,57.35914],[15.87817,57.35941],[15.87801,57.35967],[15.87815,57.35993],[15.8784,57.35994],[15.87785,57.35987],[15.87705,57.35993],[15.87666,57.3599],[15.8761,57.35989],[15.87551,57.35989],[15.87495,57.35989],[15.87464,57.35989],[15.87396,57.35983],[15.87374,57.3599],[15.87347,57.35998],[15.87284,57.36008],[15.87228,57.3601],[15.87199,57.36019],[15.87183,57.36011],[15.87111,57.36004],[15.87044,57.36019],[15.87017,57.36042],[15.87012,57.36069],[15.86994,57.36089],[15.86999,57.36143],[15.86977,57.36177],[15.86946,57.36198],[15.86915,57.3622],[15.86896,57.36243],[15.86848,57.36282],[15.86817,57.36298],[15.86813,57.36321],[15.86802,57.36349],[15.8678,57.36359],[15.86804,57.36371],[15.86826,57.36415],[15.86812,57.36447],[15.86755,57.36441],[15.86689,57.36465],[15.86651,57.36483],[15.86622,57.36499],[15.86576,57.36512],[15.86524,57.36523],[15.86503,57.36548],[15.86441,57.3655],[15.86344,57.36529],[15.86265,57.3649],[15.86159,57.36483],[15.8606,57.36485],[15.85993,57.36487],[15.8593,57.36479],[15.859,57.36477],[15.85859,57.36479],[15.85844,57.36488],[15.8583,57.36508],[15.85801,57.36514],[15.85762,57.36513],[15.85738,57.36528],[15.85714,57.36525],[15.85674,57.3652],[15.85662,57.36542],[15.85652,57.36564],[15.8565,57.36589],[15.85643,57.36621],[15.8562,57.36652],[15.85629,57.36668],[15.85641,57.36682],[15.85643,57.3668],[15.85613,57.36663],[15.85577,57.3664],[15.8555,57.36622],[15.85516,57.36598],[15.85475,57.36568],[15.85457,57.36545],[15.8542,57.36536],[15.85421,57.36521],[15.8543,57.36495],[15.854,57.36461],[15.85384,57.36418],[15.85335,57.36381],[15.85256,57.36365],[15.85206,57.36318],[15.8509,57.36304],[15.85027,57.36261],[15.85012,57.36209],[15.85061,57.36202]]}}