{"type":"Feature","properties":{},"geometry":{"type":"LineString","coordinates":[[13.07633,56.04675],[13.07677,56.04657],[13.07688,56.04627],[13.07646,56.04597],[13.07662,56.04569],[13.07678,56.04554],[13.07692,56.04533],[13.07682,56.04531],[13.07655,56.04526],[13.07637,56.04516],[13.07633,56.04502],[13.07647,56.04482],[13.07667,56.04476],[13.07693,56.04452],[13.07708,56.04437],[13.07719,56.04414],[13.07731,56.04395],[13.07732,56.04359],[13.07791,56.04332],[13.07843,56.0431],[13.07874,56.04278],[13.07871,56.04258],[13.07909,56.04235],[13.07938,56.04223],[13.07943,56.04216],[13.07959,56.04192],[13.07959,56.04162],[13.07938,56.04153],[13.0793,56.04142],[13.07917,56.04126],[13.07893,56.04112],[13.07925,56.04114],[13.07988,56.041],[13.08026,56.04105],[13.08064,56.04108],[13.0811,56.041],[13.08151,56.04095],[13.08165,56.04099],[13.0821,56.04117],[13.08272,56.04136],[13.083,56.04151],[13.0831,56.04158],[13.08308,56.04161],[13.083,56.04168],[13.08316,56.04161],[13.08322,56.04153],[13.08333,56.04147],[13.08311,56.04137],[13.08247,56.04127],[13.08208,56.04144],[13.08177,56.04168],[13.08157,56.04194],[13.08147,56.04211],[13.08131,56.04224],[13.08134,56.04242],[13.08113,56.04258],[13.08097,56.04272],[13.08087,56.04273],[13.08034,56.04275],[13.07981,56.04247],[13.07939,56.04224],[13.0788,56.04232],[13.07823,56.04238],[13.07791,56.04245],[13.07757,56.04251],[13.077,56.04271],[13.0766,56.04282],[13.07614,56.04299],[13.07584,56.04297],[13.07553,56.04307],[13.07511,56.04323],[13.07491,56.04323],[13.07457,56.04334],[13.07455,56.04341],[13.07455,56.04356],[13.07435,56.04384],[13.07421,56.04395],[13.07396,56.04414],[13.07388,56.04432],[13.0738,56.0442],[13.0735,56.04393],[13.07327,56.04369],[13.07297,56.0435],[13.07275,56.04324],[13.07219,56.04292],[13.07158,56.04321],[13.0713,56.04319],[13.07091,56.04322],[13.0707,56.04307],[13.07039,56.04291],[13.07023,56.04281],[13.06994,56.04284],[13.06936,56.04314],[13.06871,56.04355],[13.06821,56.04398],[13.06772,56.0444],[13.06742,56.0447],[13.06706,56.04507],[13.06638,56.04536],[13.06583,56.04572],[13.06559,56.0459],[13.06513,56.04633],[13.06504,56.04677],[13.06495,56.04729],[13.06484,56.04775],[13.06495,56.04811],[13.06513,56.04825],[13.0654,56.04831],[13.06554,56.04846],[13.06596,56.04852],[13.06598,56.0486],[13.0662,56.0488],[13.06636,56.049],[13.06668,56.04926],[13.06724,56.04954],[13.06726,56.04969],[13.06722,56.04991],[13.06718,56.05004],[13.06711,56.05],[13.06716,56.05012],[13.0672,56.05012],[13.06715,56.0502],[13.06737,56.05033],[13.06787,56.05044],[13.06832,56.05052],[13.06845,56.05061],[13.06868,56.05057],[13.06884,56.05056],[13.06881,56.05065],[13.06892,56.05081],[13.06926,56.05098],[13.06966,56.05113],[13.06998,56.05129],[13.0704,56.0514],[13.07099,56.05153],[13.07129,56.0516],[13.07163,56.05171],[13.07192,56.05192],[13.0724,56.0521],[13.07232,56.05234],[13.07226,56.05253],[13.0725,56.0527],[13.07245,56.05258],[13.07187,56.05249],[13.07113,56.05246],[13.07073,56.0525],[13.07044,56.0525],[13.06982,56.05248],[13.06928,56.05245],[13.06898,56.05239],[13.06844,56.05241],[13.06807,56.05246],[13.06756,56.05259],[13.06738,56.05266],[13.06709,56.0525],[13.06656,56.05224],[13.06625,56.05214],[13.06616,56.05202],[13.06617,56.05201],[13.06627,56.05186],[13.0663,56.05155],[13.06637,56.05145],[13.0664,56.05123],[13.06689,56.05095],[13.06744,56.05064],[13.06768,56.05052],[13.06782,56.05054],[13.06815,56.05044],[13.06856,56.05033],[13.06862,56.05033],[13.06886,56.05036],[13.06911,56.05036],[13.06941,56.05036],[13.06954,56.05038],[13.06957,56.05028],[13.06958,56.0502],[13.06976,56.05016],[13.06961,56.04999],[13.06961,56.04994],[13.06973,56.04975],[13.07003,56.04958],[13.07048,56.0493],[13.07057,56.04918],[13.07069,56.04895],[13.07096,56.0488],[13.07122,56.04859],[13.07125,56.04834],[13.07146,56.04805],[13.07163,56.04787],[13.07184,56.04773],[13.07192,56.04755],[13.07214,56.04737],[13.07228,56.04716],[13.0724,56.04705],[13.07268,56.04702],[13.0728,56.04707],[13.073,56.04721],[13.07332,56.0473],[13.07382,56.04733],[13.07482,56.04706]]}}