{"type":"Feature","properties":{},"geometry":{"type":"LineString","coordinates":[[12.94542,55.80459],[12.94564,55.80452],[12.94615,55.8044],[12.94656,55.80424],[12.947,55.80405],[12.94727,55.80386],[12.94735,55.80365],[12.94746,55.80343],[12.94708,55.80324],[12.94709,55.80302],[12.94743,55.8028],[12.94738,55.80258],[12.9471,55.80236],[12.94695,55.80226],[12.94707,55.80224],[12.94736,55.80207],[12.94753,55.80189],[12.94761,55.8016],[12.94774,55.80137],[12.94769,55.80122],[12.9473,55.80103],[12.94753,55.80091],[12.948,55.80082],[12.9485,55.80079],[12.94892,55.80074],[12.94915,55.80067],[12.94946,55.80056],[12.9496,55.80015],[12.94969,55.79979],[12.95006,55.79967],[12.94996,55.79964],[12.94964,55.79966],[12.94926,55.79953],[12.94887,55.79945],[12.94844,55.7993],[12.94804,55.79911],[12.94756,55.79899],[12.947,55.79893],[12.94653,55.79885],[12.94624,55.79882],[12.94587,55.7989],[12.94544,55.79888],[12.94506,55.79884],[12.94469,55.79874],[12.94425,55.79866],[12.94385,55.79856],[12.94342,55.7984],[12.94316,55.79826],[12.94285,55.79814],[12.94246,55.79798],[12.94208,55.79796],[12.94172,55.7979],[12.94174,55.79796],[12.94176,55.79804],[12.94184,55.79827],[12.94201,55.79853],[12.94217,55.79876],[12.94235,55.79897],[12.94241,55.79918],[12.94237,55.79938],[12.94241,55.79956],[12.94238,55.79973],[12.94238,55.79989],[12.94258,55.8001],[12.94279,55.80031],[12.94288,55.80023],[12.94292,55.79998],[12.94283,55.80011],[12.94272,55.8004],[12.94269,55.80084],[12.94262,55.80124],[12.94258,55.80161],[12.94235,55.80174],[12.9419,55.80182],[12.94169,55.80212],[12.94173,55.80232],[12.94231,55.80238],[12.94269,55.80239],[12.94332,55.8024],[12.94389,55.80243],[12.94447,55.80238],[12.94491,55.80219],[12.94517,55.80214],[12.9457,55.80202],[12.94621,55.80193],[12.94652,55.80189],[12.94693,55.8019],[12.94733,55.80188],[12.94773,55.80184],[12.94817,55.80178],[12.94843,55.8017],[12.94877,55.80146],[12.94893,55.80129],[12.94925,55.80109],[12.94941,55.80103],[12.9495,55.80087],[12.94974,55.80081],[12.95019,55.80069],[12.95071,55.8007],[12.95121,55.80088],[12.95176,55.80094],[12.95231,55.80079],[12.95299,55.80069],[12.95357,55.80071],[12.95397,55.80076],[12.95426,55.80065],[12.95465,55.8007],[12.95498,55.80088],[12.95527,55.80109],[12.95557,55.80129],[12.95541,55.8015],[12.9553,55.80155],[12.95526,55.80162],[12.95548,55.8018],[12.95554,55.80201],[12.95571,55.80221],[12.95579,55.80228],[12.95567,55.80245],[12.95545,55.80264],[12.95522,55.80284],[12.9549,55.80307],[12.95458,55.80335],[12.95416,55.80363],[12.95377,55.80399],[12.95329,55.80433],[12.9529,55.80464],[12.95262,55.80481],[12.95237,55.80495],[12.95206,55.80507],[12.95172,55.80495],[12.95152,55.80486],[12.9514,55.80489],[12.95128,55.8049],[12.95101,55.80492],[12.95054,55.80496],[12.95031,55.80511],[12.95011,55.80523],[12.94974,55.80536],[12.94962,55.80563],[12.94955,55.80587],[12.94951,55.80623],[12.94925,55.80648],[12.94876,55.80665],[12.94836,55.8068],[12.94789,55.80701],[12.94747,55.80731],[12.9472,55.80752],[12.94695,55.80767],[12.9471,55.80773],[12.94737,55.80773],[12.94735,55.80774],[12.94738,55.80764],[12.94732,55.80762],[12.94735,55.80749],[12.94701,55.80733],[12.94693,55.80732],[12.9473,55.80747],[12.94736,55.80753],[12.94717,55.80756],[12.9469,55.80749],[12.94654,55.80759],[12.94626,55.80752],[12.94586,55.80741],[12.94558,55.80738],[12.94502,55.80742],[12.94451,55.80758],[12.94417,55.80766],[12.94362,55.80767],[12.94312,55.8075],[12.94279,55.8072],[12.94289,55.80682],[12.94317,55.80648],[12.94348,55.80608],[12.94351,55.80571],[12.94293,55.80547],[12.94225,55.8054],[12.9422,55.8052],[12.94224,55.8049],[12.94211,55.80475],[12.94183,55.80464],[12.94152,55.80448],[12.94117,55.80433],[12.94096,55.80422],[12.94077,55.80401],[12.94084,55.80405],[12.94118,55.80409],[12.94178,55.8042],[12.94218,55.80417],[12.94251,55.80413],[12.94275,55.80416],[12.94302,55.80419],[12.94322,55.80424],[12.94321,55.80439],[12.94328,55.80456],[12.9437,55.80463],[12.94395,55.80472],[12.94403,55.80474],[12.94417,55.80481],[12.94436,55.80487],[12.94466,55.80494]]}}