{"type":"Feature","properties":{},"geometry":{"type":"LineString","coordinates":[[13.50223,55.96709],[13.5019,55.96705],[13.50111,55.96698],[13.50009,55.96718],[13.50024,55.96749],[13.50073,55.96786],[13.50097,55.96828],[13.50111,55.96849],[13.50123,55.96881],[13.50107,55.96914],[13.50053,55.96914],[13.49996,55.96934],[13.49957,55.96991],[13.49866,55.97021],[13.49788,55.97033],[13.49695,55.97008],[13.49583,55.97009],[13.49508,55.96987],[13.49409,55.96985],[13.49354,55.96986],[13.49322,55.96985],[13.49253,55.96963],[13.49218,55.9693],[13.49167,55.96885],[13.49077,55.96906],[13.49023,55.96904],[13.48944,55.96919],[13.48861,55.96941],[13.48798,55.96961],[13.48711,55.9696],[13.48635,55.96958],[13.48572,55.96971],[13.48487,55.96962],[13.48411,55.96972],[13.4836,55.96982],[13.48321,55.9699],[13.48294,55.96997],[13.48244,55.97002],[13.48188,55.96999],[13.48131,55.97017],[13.48056,55.97035],[13.48022,55.97056],[13.47969,55.97076],[13.47933,55.97088],[13.47921,55.97095],[13.4786,55.97096],[13.47823,55.9709],[13.47718,55.97105],[13.47676,55.97124],[13.47616,55.97158],[13.47597,55.97176],[13.47571,55.97191],[13.47529,55.9721],[13.47501,55.97227],[13.4752,55.97254],[13.47527,55.97287],[13.47523,55.97319],[13.47503,55.97345],[13.47456,55.97364],[13.47422,55.97388],[13.47466,55.97422],[13.47548,55.97466],[13.47538,55.97527],[13.47534,55.97565],[13.47571,55.97616],[13.47623,55.97673],[13.47691,55.97714],[13.47755,55.97748],[13.4785,55.97771],[13.47914,55.97794],[13.47982,55.97836],[13.48032,55.97879],[13.48041,55.97902],[13.48062,55.97929],[13.48134,55.97984],[13.48222,55.98013],[13.48237,55.98035],[13.48237,55.98058],[13.48235,55.98081],[13.4822,55.98105],[13.48175,55.98114],[13.4816,55.98116],[13.48139,55.98134],[13.48163,55.98173],[13.48209,55.98176],[13.48268,55.98181],[13.48309,55.98179],[13.48371,55.98176],[13.48412,55.98168],[13.48445,55.98156],[13.48432,55.98172],[13.48447,55.982],[13.48468,55.98214],[13.4849,55.98233],[13.485,55.98254],[13.48518,55.98273],[13.48537,55.98298],[13.48574,55.98316],[13.48612,55.98322],[13.48648,55.98326],[13.48666,55.98339],[13.48694,55.98348],[13.48729,55.98332],[13.48754,55.98335],[13.48781,55.98328],[13.48807,55.98312],[13.48836,55.98295],[13.48859,55.98273],[13.48883,55.98253],[13.4891,55.98236],[13.48933,55.98215],[13.48961,55.98191],[13.48957,55.98176],[13.48923,55.98152],[13.48859,55.98145],[13.488,55.98131],[13.48803,55.98087],[13.488,55.98046],[13.48805,55.98004],[13.48846,55.97975],[13.48867,55.97945],[13.48889,55.9792],[13.48914,55.97898],[13.48911,55.9789],[13.48888,55.97886],[13.48881,55.97884],[13.48913,55.97872],[13.48931,55.97871],[13.48964,55.97859],[13.48984,55.97858],[13.49022,55.97859],[13.49053,55.97866],[13.4908,55.97856],[13.49103,55.97839],[13.49125,55.97822],[13.49161,55.97798],[13.49173,55.97777],[13.49189,55.97753],[13.49215,55.97747],[13.49264,55.97746],[13.49306,55.97747],[13.49352,55.9775],[13.49398,55.97744],[13.49422,55.97738],[13.49464,55.97736],[13.49503,55.97735],[13.49523,55.97709],[13.4956,55.97703],[13.496,55.97705],[13.49638,55.97696],[13.49673,55.97688],[13.49684,55.97665],[13.49713,55.9765],[13.49725,55.97616],[13.49732,55.97597],[13.49753,55.97576],[13.49775,55.9756],[13.49813,55.97557],[13.49829,55.97537],[13.498,55.9751],[13.49838,55.97478],[13.49918,55.9747],[13.50034,55.97475],[13.50144,55.97482],[13.50192,55.97471],[13.5021,55.97445],[13.5025,55.97426],[13.50315,55.97419],[13.50411,55.9738],[13.50482,55.97353],[13.50512,55.97317],[13.505,55.97264],[13.50497,55.97226],[13.50466,55.97206],[13.50462,55.97179],[13.50475,55.97163],[13.50502,55.97143],[13.50521,55.97134],[13.5054,55.97133],[13.50562,55.97123],[13.50608,55.97137],[13.50647,55.97146],[13.50683,55.97127],[13.50703,55.97116],[13.50711,55.97119],[13.50732,55.971],[13.5075,55.97079],[13.50744,55.97055],[13.5073,55.9705],[13.50798,55.97047],[13.50851,55.97044],[13.50901,55.97053],[13.50939,55.97053],[13.50963,55.97043],[13.50952,55.97022],[13.50925,55.97003],[13.50927,55.97014],[13.50965,55.97029],[13.50995,55.97054],[13.51088,55.97091]]}}