{"type":"Feature","properties":{},"geometry":{"type":"LineString","coordinates":[[15.84086,57.37341],[15.84101,57.37355],[15.84146,57.37373],[15.84171,57.37396],[15.84183,57.3743],[15.84202,57.37473],[15.84237,57.37518],[15.84309,57.37532],[15.84367,57.37501],[15.84396,57.37497],[15.84419,57.37515],[15.84439,57.37538],[15.84468,57.37564],[15.84482,57.37579],[15.84516,57.37609],[15.84533,57.37627],[15.84567,57.37654],[15.84587,57.37685],[15.84607,57.3769],[15.84638,57.37705],[15.84653,57.37717],[15.84656,57.37739],[15.84643,57.37756],[15.84628,57.37772],[15.84591,57.37794],[15.84575,57.37807],[15.846,57.37809],[15.84669,57.378],[15.84742,57.37776],[15.84804,57.37765],[15.84893,57.37751],[15.84938,57.37761],[15.84973,57.37776],[15.8502,57.37782],[15.8505,57.37787],[15.85106,57.37777],[15.85083,57.37744],[15.85047,57.3771],[15.85043,57.37689],[15.85019,57.37672],[15.84987,57.37653],[15.84989,57.37631],[15.84975,57.37608],[15.84973,57.37582],[15.8495,57.37572],[15.84924,57.37571],[15.849,57.3756],[15.84839,57.37567],[15.84829,57.37547],[15.84789,57.37516],[15.8478,57.37487],[15.8476,57.37467],[15.84726,57.37442],[15.84698,57.37424],[15.84669,57.37408],[15.84676,57.37397],[15.84654,57.37385],[15.84633,57.37378],[15.84597,57.37369],[15.84591,57.37358],[15.84571,57.37333],[15.84565,57.37315],[15.84601,57.37306],[15.84608,57.37286],[15.84558,57.37276],[15.8454,57.37262],[15.84506,57.37252],[15.84474,57.37236],[15.84458,57.37216],[15.84473,57.37198],[15.84465,57.37181],[15.84458,57.37165],[15.84471,57.37152],[15.84459,57.37137],[15.84442,57.37137],[15.84443,57.37134],[15.84438,57.37125],[15.84463,57.37124],[15.84481,57.37122],[15.84495,57.37128],[15.84509,57.37126],[15.84491,57.37099],[15.84526,57.37096],[15.84572,57.3708],[15.84631,57.37058],[15.84653,57.37039],[15.84665,57.3701],[15.84708,57.36992],[15.84734,57.36973],[15.8474,57.36965],[15.84735,57.36951],[15.84756,57.36938],[15.84779,57.36919],[15.84807,57.3691],[15.84768,57.3691],[15.84719,57.36925],[15.84689,57.36931],[15.84712,57.36953],[15.84734,57.36973],[15.84748,57.36983],[15.84766,57.36989],[15.8478,57.36987],[15.84777,57.37005],[15.84783,57.37016],[15.84786,57.37016],[15.848,57.37022],[15.84815,57.37034],[15.84805,57.37034],[15.84767,57.37049],[15.8475,57.37043],[15.84718,57.37047],[15.84687,57.37046],[15.84664,57.3705],[15.84671,57.37053],[15.84691,57.37057],[15.84713,57.37057],[15.84744,57.3706],[15.8477,57.37051],[15.8481,57.37037],[15.84845,57.37031],[15.84875,57.37019],[15.84904,57.37005],[15.84907,57.37003],[15.84904,57.36985],[15.8493,57.36971],[15.84943,57.36975],[15.8492,57.36974],[15.84898,57.36972],[15.84854,57.36967],[15.84836,57.36949],[15.84819,57.36931],[15.84799,57.36906],[15.84791,57.36899],[15.84779,57.36886],[15.84782,57.36878],[15.84858,57.36852],[15.84905,57.36848],[15.84962,57.36856],[15.85028,57.36838],[15.85065,57.36813],[15.85075,57.3679],[15.8507,57.36766],[15.85085,57.36742],[15.85115,57.36713],[15.8511,57.36716],[15.851,57.36706],[15.85064,57.36686],[15.85018,57.36664],[15.84989,57.36646],[15.84945,57.36635],[15.84906,57.3665],[15.84878,57.3665],[15.84875,57.36652],[15.84878,57.36666],[15.84876,57.36675],[15.84879,57.36669],[15.84879,57.36664],[15.84883,57.36652],[15.84874,57.36632],[15.84884,57.36617],[15.84858,57.36606],[15.84859,57.36604],[15.84873,57.36591],[15.84912,57.36578],[15.84921,57.36546],[15.84964,57.36512],[15.85013,57.36502],[15.85065,57.36489],[15.85074,57.36466],[15.8509,57.36448],[15.8506,57.36416],[15.85059,57.36364],[15.85057,57.363],[15.85032,57.36241],[15.84969,57.36203],[15.85049,57.36199],[15.85071,57.36203],[15.85081,57.36206],[15.85104,57.36208],[15.85125,57.36203],[15.85145,57.36198],[15.85149,57.36197],[15.85141,57.36191],[15.85128,57.36186],[15.85088,57.36177],[15.85054,57.3617],[15.85026,57.36164],[15.85004,57.36163],[15.84981,57.36167],[15.84952,57.36174],[15.84948,57.36162],[15.84949,57.36163],[15.8495,57.36166],[15.84951,57.36167],[15.8495,57.36167],[15.8495,57.36167],[15.8495,57.36167],[15.8495,57.36167],[15.84951,57.36166],[15.84951,57.36165]]}}