{"type":"Feature","properties":{},"geometry":{"type":"LineString","coordinates":[[13.08481,55.77549],[13.08452,55.77559],[13.08407,55.77548],[13.08394,55.77535],[13.08358,55.77513],[13.08302,55.77488],[13.08242,55.77473],[13.08182,55.77445],[13.08159,55.77413],[13.08155,55.77383],[13.08103,55.77359],[13.08035,55.77353],[13.08005,55.77338],[13.07943,55.77317],[13.07962,55.77352],[13.07943,55.77359],[13.07871,55.77372],[13.07797,55.77396],[13.0774,55.7742],[13.07709,55.7743],[13.07683,55.77434],[13.07654,55.7742],[13.07651,55.7742],[13.07646,55.77442],[13.07595,55.77474],[13.07525,55.77474],[13.07467,55.77447],[13.07414,55.77422],[13.07365,55.77419],[13.07325,55.77393],[13.07264,55.7737],[13.07209,55.77336],[13.07172,55.77302],[13.07124,55.77271],[13.07109,55.77238],[13.07141,55.77231],[13.07159,55.77228],[13.07191,55.7724],[13.07208,55.77261],[13.07191,55.77238],[13.07153,55.77227],[13.07116,55.77226],[13.07094,55.77244],[13.07064,55.77232],[13.07036,55.77245],[13.07006,55.77245],[13.06965,55.77257],[13.06931,55.77246],[13.06921,55.77242],[13.06909,55.77226],[13.06948,55.77205],[13.06994,55.77175],[13.06996,55.77155],[13.07015,55.77124],[13.07077,55.77137],[13.0715,55.77133],[13.07151,55.77139],[13.07148,55.77165],[13.0714,55.77186],[13.07099,55.77213],[13.0709,55.77243],[13.07082,55.77262],[13.07063,55.77279],[13.07081,55.77297],[13.07105,55.77331],[13.07065,55.77344],[13.07062,55.7735],[13.07101,55.77361],[13.07153,55.77389],[13.07206,55.77414],[13.07274,55.77418],[13.07346,55.7742],[13.07428,55.77409],[13.07489,55.77391],[13.07509,55.77365],[13.07565,55.77348],[13.076,55.7733],[13.07618,55.77296],[13.07628,55.77262],[13.07615,55.7724],[13.07606,55.77237],[13.07612,55.7724],[13.07617,55.77265],[13.07611,55.77291],[13.07595,55.77323],[13.07597,55.77342],[13.0762,55.77352],[13.07671,55.7737],[13.07705,55.77387],[13.07716,55.77398],[13.07725,55.77404],[13.07715,55.77422],[13.07744,55.77441],[13.07796,55.77468],[13.07812,55.77504],[13.07816,55.77534],[13.07836,55.77553],[13.07887,55.77566],[13.07923,55.77557],[13.07951,55.77544],[13.07979,55.77531],[13.08016,55.77534],[13.08087,55.77541],[13.08154,55.77549],[13.08207,55.77521],[13.08254,55.77492],[13.08321,55.77486],[13.08346,55.77479],[13.0838,55.77459],[13.0844,55.77469],[13.085,55.77487],[13.08558,55.77495],[13.08608,55.77493],[13.08671,55.775],[13.08707,55.7751],[13.08768,55.77533],[13.08839,55.77559],[13.08893,55.7758],[13.08956,55.77601],[13.0902,55.77623],[13.09056,55.77637],[13.09109,55.77635],[13.09158,55.77611],[13.09217,55.77622],[13.09286,55.77635],[13.09352,55.77636],[13.0938,55.77629],[13.0938,55.77621],[13.0936,55.77613],[13.09331,55.77624],[13.09274,55.77619],[13.09201,55.77604],[13.0915,55.77594],[13.09098,55.77568],[13.09041,55.77553],[13.08998,55.77547],[13.08971,55.77556],[13.08947,55.77562],[13.08937,55.77579],[13.08968,55.77601],[13.09025,55.77624],[13.09088,55.77645],[13.09151,55.7767],[13.09178,55.77695],[13.0916,55.77716],[13.09166,55.77728],[13.09173,55.77748],[13.09164,55.77773],[13.09179,55.77788],[13.09194,55.77802],[13.09208,55.77821],[13.0921,55.77845],[13.09235,55.7788],[13.0926,55.77907],[13.09288,55.77924],[13.09278,55.77961],[13.09238,55.78002],[13.09243,55.78029],[13.09267,55.78046],[13.09269,55.78043],[13.09306,55.78022],[13.09371,55.78013],[13.09412,55.77994],[13.09475,55.77963],[13.09504,55.77962],[13.09549,55.77962],[13.09573,55.77944],[13.09576,55.77922],[13.09587,55.77907],[13.09583,55.77895],[13.09566,55.7788],[13.09519,55.77883],[13.09507,55.77853],[13.09481,55.77815],[13.09469,55.7778],[13.09415,55.7775],[13.09369,55.77729],[13.0934,55.77712],[13.09335,55.77689],[13.09372,55.77659],[13.09384,55.77628],[13.09363,55.77635],[13.09308,55.77624],[13.09256,55.77616],[13.09184,55.77629],[13.09113,55.77637],[13.0905,55.77618],[13.08986,55.77594],[13.08924,55.77573],[13.08897,55.77564],[13.08858,55.77551],[13.0881,55.77537],[13.08765,55.77554],[13.08731,55.77573],[13.08713,55.77586],[13.08686,55.77599],[13.08725,55.77618],[13.08753,55.77644],[13.08712,55.77667],[13.08628,55.77646]]}}