{"type":"Feature","properties":{},"geometry":{"type":"LineString","coordinates":[[14.31124,55.94387],[14.3112,55.94384],[14.31103,55.94386],[14.31094,55.94419],[14.31119,55.94465],[14.31083,55.94499],[14.31033,55.94535],[14.30972,55.94562],[14.30913,55.94571],[14.30873,55.94587],[14.30846,55.94593],[14.30814,55.94628],[14.30771,55.9467],[14.3074,55.94691],[14.30698,55.9472],[14.30641,55.94733],[14.30576,55.94735],[14.30523,55.9473],[14.30491,55.94734],[14.30482,55.94753],[14.30497,55.94749],[14.30462,55.94764],[14.3044,55.9478],[14.30377,55.9481],[14.30339,55.94812],[14.30283,55.94815],[14.30221,55.94817],[14.30178,55.94813],[14.30126,55.94819],[14.30158,55.94851],[14.30203,55.94887],[14.30252,55.94917],[14.30296,55.94936],[14.3036,55.94963],[14.30397,55.94996],[14.30409,55.95017],[14.30449,55.95013],[14.30512,55.94982],[14.3056,55.94969],[14.30612,55.94962],[14.30635,55.94938],[14.3067,55.9493],[14.3073,55.94916],[14.30755,55.94896],[14.30794,55.94867],[14.30817,55.94838],[14.3085,55.94806],[14.30901,55.94775],[14.30978,55.94755],[14.3101,55.9473],[14.31008,55.94685],[14.31007,55.9466],[14.30961,55.94644],[14.30909,55.94629],[14.30883,55.94606],[14.30857,55.94596],[14.30846,55.94605],[14.30804,55.94637],[14.30763,55.94677],[14.30739,55.94695],[14.30746,55.94718],[14.30693,55.94734],[14.30677,55.94739],[14.30677,55.94737],[14.30626,55.94752],[14.30553,55.94758],[14.30515,55.94757],[14.30448,55.94781],[14.30368,55.94811],[14.30292,55.94816],[14.30215,55.94818],[14.30133,55.9481],[14.30109,55.94823],[14.30065,55.94846],[14.30019,55.94882],[14.30033,55.94925],[14.30029,55.94952],[14.30016,55.94977],[14.29998,55.95024],[14.29995,55.9505],[14.29996,55.95087],[14.29986,55.95098],[14.30004,55.95136],[14.3006,55.95163],[14.30107,55.95189],[14.3012,55.95205],[14.30125,55.95224],[14.30135,55.95246],[14.30114,55.9525],[14.30043,55.9526],[14.29971,55.95267],[14.29928,55.9528],[14.29852,55.95296],[14.29822,55.95289],[14.29764,55.95286],[14.29689,55.95298],[14.2965,55.95309],[14.29616,55.95306],[14.29548,55.953],[14.29474,55.95295],[14.29413,55.95291],[14.29358,55.95289],[14.29289,55.95288],[14.29243,55.95289],[14.292,55.95287],[14.29159,55.95293],[14.29093,55.95302],[14.29046,55.95306],[14.28984,55.95331],[14.28939,55.95343],[14.28931,55.95327],[14.28904,55.95286],[14.28871,55.95267],[14.28888,55.95246],[14.28883,55.95233],[14.2889,55.95223],[14.2886,55.95217],[14.28828,55.95211],[14.28807,55.95227],[14.28837,55.95243],[14.28812,55.95224],[14.28825,55.95184],[14.28836,55.9516],[14.28859,55.95153],[14.28893,55.95146],[14.28925,55.95135],[14.28965,55.95131],[14.28989,55.95112],[14.29009,55.95108],[14.29053,55.95109],[14.29114,55.95114],[14.29166,55.95073],[14.29224,55.95042],[14.29303,55.95044],[14.29352,55.95023],[14.29427,55.94994],[14.29504,55.94996],[14.29532,55.95004],[14.29553,55.9501],[14.29615,55.95005],[14.29677,55.95007],[14.29719,55.95009],[14.29777,55.95007],[14.29822,55.94985],[14.29903,55.94955],[14.29987,55.94967],[14.30027,55.94978],[14.30075,55.9497],[14.30136,55.9496],[14.30186,55.94954],[14.30231,55.94945],[14.30265,55.9494],[14.30297,55.94931],[14.30351,55.9493],[14.304,55.94917],[14.3042,55.94912],[14.30443,55.94902],[14.30465,55.94889],[14.30504,55.94908],[14.30566,55.94881],[14.30627,55.94863],[14.30657,55.94874],[14.30693,55.94884],[14.3072,55.949],[14.30743,55.94909],[14.3076,55.94912],[14.30789,55.94904],[14.3085,55.9489],[14.3091,55.94879],[14.30962,55.94869],[14.30977,55.94861],[14.30994,55.94855],[14.31025,55.94843],[14.31062,55.94828],[14.31137,55.94815],[14.31193,55.94807],[14.31228,55.94803],[14.31272,55.94792],[14.31308,55.94794],[14.31337,55.94787],[14.31365,55.94782],[14.31412,55.94793],[14.31478,55.94793],[14.31563,55.94816],[14.31622,55.94827],[14.31687,55.94824],[14.31747,55.94816],[14.31794,55.9481],[14.31819,55.94812],[14.31864,55.94805],[14.31916,55.94792],[14.31952,55.94764],[14.32015,55.94733],[14.31996,55.94687],[14.3195,55.94635],[14.31972,55.94597],[14.32051,55.94574],[14.32139,55.94552],[14.32207,55.94514],[14.32329,55.94476]]}}