{"type":"Feature","properties":{},"geometry":{"type":"LineString","coordinates":[[13.21206,55.56047],[13.21177,55.56059],[13.2114,55.56084],[13.21097,55.56118],[13.2105,55.56127],[13.20997,55.56131],[13.20954,55.56123],[13.20926,55.56119],[13.20881,55.56127],[13.20829,55.56147],[13.2081,55.56174],[13.20808,55.56184],[13.20781,55.56191],[13.20768,55.5623],[13.2074,55.56263],[13.20683,55.56291],[13.20635,55.56322],[13.20589,55.56353],[13.20532,55.5638],[13.20471,55.56396],[13.20425,55.56408],[13.20369,55.56413],[13.2033,55.56413],[13.20291,55.5641],[13.2027,55.56401],[13.20243,55.56401],[13.20181,55.56405],[13.20124,55.56416],[13.20077,55.56426],[13.20084,55.56434],[13.20116,55.56424],[13.20159,55.56412],[13.20188,55.56397],[13.20221,55.56384],[13.20234,55.56375],[13.20253,55.56367],[13.20282,55.56343],[13.20297,55.56332],[13.20306,55.56334],[13.2027,55.56309],[13.20281,55.56281],[13.20323,55.56258],[13.20367,55.56232],[13.2039,55.56212],[13.20396,55.5619],[13.20405,55.56167],[13.20389,55.56156],[13.20371,55.56132],[13.20349,55.56115],[13.20344,55.56099],[13.20308,55.56089],[13.20285,55.5607],[13.2025,55.5604],[13.20194,55.56026],[13.20161,55.56018],[13.20183,55.5601],[13.20211,55.5599],[13.20235,55.55975],[13.20261,55.5596],[13.20292,55.5596],[13.20314,55.5596],[13.203,55.55984],[13.20303,55.55982],[13.20301,55.55955],[13.20309,55.55922],[13.20313,55.55898],[13.20323,55.55874],[13.20314,55.55845],[13.20308,55.55813],[13.20299,55.55802],[13.20306,55.55798],[13.20347,55.55792],[13.20388,55.55786],[13.20407,55.55781],[13.20437,55.55773],[13.20472,55.55761],[13.20503,55.5574],[13.20526,55.55721],[13.20562,55.55701],[13.20568,55.55679],[13.20589,55.55655],[13.20627,55.55643],[13.20638,55.55637],[13.20653,55.5562],[13.20674,55.556],[13.20685,55.55584],[13.2071,55.55572],[13.20738,55.55557],[13.20765,55.55546],[13.20789,55.55515],[13.20802,55.55496],[13.20822,55.55465],[13.20823,55.55447],[13.20842,55.55429],[13.20881,55.55421],[13.20919,55.55406],[13.20955,55.55384],[13.20984,55.55363],[13.21027,55.55346],[13.21054,55.55335],[13.21094,55.55339],[13.21109,55.5532],[13.21096,55.55304],[13.21101,55.55273],[13.21112,55.55251],[13.21123,55.5524],[13.21098,55.55225],[13.2107,55.55207],[13.21038,55.55197],[13.21033,55.55197],[13.21058,55.55186],[13.2108,55.5517],[13.21124,55.55157],[13.21156,55.55149],[13.21195,55.55145],[13.2123,55.55141],[13.21267,55.55131],[13.2134,55.55135],[13.21395,55.55147],[13.21443,55.55129],[13.21474,55.55115],[13.21441,55.55134],[13.21423,55.55157],[13.21405,55.55184],[13.21394,55.55198],[13.21369,55.55204],[13.21362,55.55212],[13.21382,55.55221],[13.21432,55.55235],[13.21481,55.55248],[13.21537,55.55244],[13.21565,55.55241],[13.21611,55.5523],[13.21683,55.5522],[13.21743,55.55228],[13.21808,55.55229],[13.21881,55.55234],[13.21921,55.55237],[13.2191,55.55234],[13.21865,55.55256],[13.21834,55.55274],[13.21878,55.55298],[13.21908,55.55317],[13.21925,55.55325],[13.21958,55.55337],[13.21956,55.55369],[13.21947,55.55395],[13.21923,55.55425],[13.21909,55.55454],[13.21893,55.5549],[13.21868,55.55499],[13.21851,55.55518],[13.21832,55.55535],[13.21788,55.55558],[13.2178,55.55579],[13.21815,55.55598],[13.21845,55.55623],[13.21871,55.5564],[13.21892,55.55652],[13.21913,55.55663],[13.21962,55.55673],[13.21996,55.55681],[13.22016,55.55686],[13.22024,55.55679],[13.22069,55.55683],[13.22107,55.55696],[13.22145,55.55719],[13.22175,55.5575],[13.22193,55.55773],[13.2222,55.55802],[13.22287,55.55823],[13.22346,55.55831],[13.22354,55.55832],[13.22326,55.55852],[13.22311,55.55873],[13.22288,55.55883],[13.22263,55.559],[13.22236,55.55915],[13.22212,55.55917],[13.22177,55.55928],[13.22147,55.55924],[13.22096,55.55928],[13.22061,55.55928],[13.22029,55.55923],[13.22001,55.55928],[13.21976,55.55939],[13.21946,55.55948],[13.21913,55.55975],[13.21881,55.56008],[13.21864,55.56019],[13.21818,55.56014],[13.21767,55.55993],[13.21735,55.55979],[13.21664,55.55985],[13.21599,55.56002],[13.21547,55.56027],[13.21513,55.56058],[13.21481,55.56078],[13.21424,55.56071],[13.21299,55.56069]]}}