{"type":"Feature","properties":{},"geometry":{"type":"LineString","coordinates":[[13.76845,56.02818],[13.76834,56.02804],[13.7683,56.02772],[13.76878,56.02756],[13.76926,56.02737],[13.76952,56.02713],[13.76989,56.027],[13.76992,56.02683],[13.76988,56.02661],[13.76984,56.02637],[13.77002,56.02641],[13.77048,56.02657],[13.77084,56.02668],[13.77099,56.02684],[13.77124,56.02689],[13.77173,56.02684],[13.77208,56.02677],[13.77238,56.02644],[13.7729,56.02611],[13.77315,56.02568],[13.77361,56.02543],[13.77393,56.02555],[13.77426,56.02579],[13.77469,56.02592],[13.77517,56.02603],[13.77544,56.02608],[13.7757,56.02614],[13.77605,56.02617],[13.7764,56.02621],[13.77691,56.02611],[13.77735,56.02603],[13.77799,56.02624],[13.77844,56.02635],[13.77874,56.0263],[13.77919,56.02615],[13.7796,56.02606],[13.7799,56.02604],[13.7801,56.02591],[13.78041,56.02572],[13.78069,56.02561],[13.78089,56.02547],[13.78101,56.02533],[13.78081,56.02523],[13.78081,56.0254],[13.78075,56.02558],[13.7807,56.02551],[13.78058,56.02534],[13.78039,56.02511],[13.78063,56.0252],[13.78078,56.02533],[13.78122,56.02546],[13.78162,56.0255],[13.78196,56.02575],[13.78244,56.0257],[13.78279,56.02568],[13.78318,56.02574],[13.78355,56.02567],[13.78387,56.02558],[13.78408,56.02551],[13.78429,56.02534],[13.78464,56.02521],[13.78508,56.0251],[13.7855,56.02505],[13.7858,56.02492],[13.78602,56.02476],[13.78624,56.02463],[13.7864,56.02456],[13.78671,56.02455],[13.78695,56.02442],[13.78719,56.02439],[13.78772,56.02439],[13.78803,56.02444],[13.78829,56.0244],[13.78827,56.02421],[13.78824,56.02422],[13.78805,56.02454],[13.78778,56.02471],[13.78798,56.02483],[13.7882,56.02495],[13.78883,56.02497],[13.78933,56.02516],[13.78971,56.02537],[13.79007,56.02547],[13.79033,56.02577],[13.79041,56.02615],[13.79056,56.02636],[13.7905,56.02656],[13.79051,56.0268],[13.79038,56.02695],[13.79004,56.02706],[13.78981,56.02731],[13.78966,56.02731],[13.78928,56.02715],[13.78864,56.02713],[13.78826,56.02717],[13.78811,56.02706],[13.78782,56.02706],[13.78754,56.02704],[13.7871,56.0271],[13.78664,56.02702],[13.78655,56.02705],[13.78688,56.02708],[13.78647,56.0272],[13.78625,56.02738],[13.78619,56.02755],[13.78618,56.02772],[13.78614,56.02778],[13.786,56.02784],[13.78574,56.02791],[13.78533,56.0279],[13.78504,56.0278],[13.78455,56.02771],[13.78405,56.02762],[13.78371,56.02766],[13.78349,56.02755],[13.78313,56.02749],[13.78259,56.02756],[13.78205,56.02777],[13.78141,56.02787],[13.78071,56.02781],[13.78024,56.02774],[13.77974,56.02767],[13.77938,56.02758],[13.77914,56.02758],[13.77926,56.02745],[13.77932,56.02736],[13.77921,56.02752],[13.77917,56.02758],[13.77918,56.0276],[13.77921,56.02776],[13.77933,56.0278],[13.7796,56.02785],[13.77975,56.02784],[13.77962,56.02793],[13.77955,56.02801],[13.77944,56.02819],[13.77956,56.02832],[13.77961,56.02833],[13.77986,56.02846],[13.7804,56.02843],[13.78076,56.02837],[13.78081,56.0283],[13.78101,56.02834],[13.78113,56.02823],[13.78132,56.02807],[13.78099,56.02788],[13.78064,56.02773],[13.78045,56.02768],[13.78015,56.02751],[13.77991,56.02721],[13.77977,56.02721],[13.77953,56.02734],[13.77962,56.02755],[13.77962,56.02777],[13.77987,56.02794],[13.78013,56.02809],[13.78036,56.02822],[13.7803,56.02826],[13.78016,56.02841],[13.78007,56.0285],[13.78005,56.02869],[13.78031,56.02877],[13.78012,56.02883],[13.78004,56.02901],[13.78006,56.02925],[13.77999,56.02937],[13.77985,56.0294],[13.77957,56.02963],[13.77931,56.02986],[13.7794,56.03015],[13.77921,56.03037],[13.77895,56.0306],[13.77879,56.03083],[13.77849,56.0309],[13.77809,56.03105],[13.77785,56.03102],[13.77773,56.03121],[13.7776,56.03142],[13.77713,56.03158],[13.77647,56.03132],[13.77607,56.03145],[13.77564,56.03151],[13.77509,56.03171],[13.7747,56.03189],[13.77438,56.03203],[13.77409,56.0323],[13.77386,56.03247],[13.7734,56.03256],[13.77274,56.03263],[13.77237,56.03274],[13.772,56.03288],[13.77167,56.03286],[13.7714,56.03279],[13.77102,56.03293],[13.77066,56.03283],[13.76992,56.033],[13.76911,56.03304],[13.76838,56.03281],[13.76763,56.03261],[13.76619,56.03274]]}}