{"type":"Feature","properties":{},"geometry":{"type":"LineString","coordinates":[[11.99145,57.87585],[11.99173,57.87573],[11.99206,57.87559],[11.9924,57.87553],[11.99287,57.87553],[11.99333,57.87554],[11.99371,57.87556],[11.99413,57.87558],[11.99431,57.87578],[11.99459,57.8759],[11.99503,57.87583],[11.9954,57.87582],[11.99561,57.8758],[11.99583,57.87587],[11.99607,57.87588],[11.99622,57.87577],[11.9962,57.87562],[11.99606,57.87547],[11.99594,57.87535],[11.99582,57.87521],[11.99582,57.87506],[11.99612,57.87499],[11.99644,57.87496],[11.99669,57.87493],[11.99697,57.87491],[11.99734,57.87492],[11.99777,57.87494],[11.99822,57.87492],[11.99833,57.87467],[11.99846,57.87444],[11.99868,57.8742],[11.99865,57.87396],[11.9989,57.87379],[11.99939,57.8737],[11.99989,57.87366],[12.00032,57.87363],[12.00069,57.87347],[12.00098,57.87331],[12.00133,57.87316],[12.00177,57.873],[12.00222,57.87289],[12.00267,57.87292],[12.00316,57.87299],[12.00364,57.873],[12.00415,57.87298],[12.00464,57.87297],[12.00511,57.87297],[12.00564,57.87296],[12.00617,57.87295],[12.00664,57.87296],[12.00713,57.8729],[12.00742,57.87275],[12.00727,57.87251],[12.00708,57.87225],[12.007,57.87199],[12.00697,57.87178],[12.00701,57.87154],[12.00725,57.8713],[12.00763,57.87117],[12.00812,57.87107],[12.00862,57.87109],[12.00897,57.87125],[12.00931,57.87145],[12.0096,57.87164],[12.01003,57.87179],[12.01036,57.87197],[12.01056,57.87217],[12.01061,57.87242],[12.01085,57.87261],[12.01125,57.87272],[12.01166,57.87295],[12.01202,57.87318],[12.01231,57.87338],[12.01267,57.87359],[12.01307,57.8738],[12.01344,57.874],[12.01384,57.87421],[12.01417,57.8744],[12.01448,57.87458],[12.01485,57.87479],[12.0152,57.87498],[12.01553,57.87516],[12.01585,57.87539],[12.01602,57.87562],[12.01617,57.87588],[12.01652,57.87609],[12.01699,57.87621],[12.01751,57.87632],[12.01794,57.87647],[12.01825,57.87667],[12.01854,57.87692],[12.01871,57.87718],[12.01869,57.87734],[12.01802,57.87738],[12.01751,57.87748],[12.01709,57.87756],[12.01666,57.87763],[12.01623,57.87772],[12.01631,57.87792],[12.01651,57.87821],[12.01676,57.87848],[12.01705,57.87872],[12.01728,57.87899],[12.01731,57.87926],[12.01727,57.87956],[12.01703,57.87983],[12.01651,57.87986],[12.016,57.87979],[12.01556,57.87961],[12.01515,57.87947],[12.01471,57.8793],[12.01443,57.87907],[12.01417,57.87891],[12.0138,57.87876],[12.01366,57.87851],[12.01334,57.87833],[12.01286,57.87819],[12.01244,57.87803],[12.01209,57.87789],[12.01172,57.87775],[12.01133,57.87765],[12.01095,57.87756],[12.01055,57.87748],[12.01023,57.87744],[12.00997,57.87769],[12.0099,57.87795],[12.0099,57.8782],[12.01029,57.87833],[12.01079,57.87823],[12.01126,57.87824],[12.01145,57.87845],[12.01153,57.87874],[12.01153,57.87899],[12.01136,57.87925],[12.011,57.87945],[12.01055,57.87956],[12.00998,57.87956],[12.00943,57.87951],[12.00893,57.87945],[12.00843,57.87941],[12.00797,57.87939],[12.00753,57.87939],[12.00702,57.87943],[12.00656,57.87951],[12.00605,57.87955],[12.00557,57.87964],[12.00518,57.87979],[12.00462,57.87987],[12.00403,57.87991],[12.00357,57.87986],[12.00311,57.87981],[12.00267,57.87991],[12.00228,57.88003],[12.00174,57.88015],[12.00125,57.88009],[12.00091,57.87993],[12.00049,57.87976],[12.00002,57.87966],[11.99962,57.87958],[11.99918,57.87951],[11.99873,57.87945],[11.99873,57.87935],[11.99918,57.87931],[11.99946,57.87931],[11.99976,57.87927],[12.00006,57.87923],[12.00034,57.87923],[12.00065,57.87927],[12.00094,57.87928],[12.00114,57.87931],[12.00138,57.87937],[12.00156,57.87924],[12.0017,57.87909],[12.00191,57.87895],[12.00186,57.87872],[12.00134,57.87871],[12.00077,57.87867],[12.00036,57.87854],[12.00001,57.87843],[11.9996,57.8783],[11.99919,57.87818],[11.99883,57.87807],[11.99851,57.87796],[11.9983,57.8779],[11.99812,57.87788],[11.99779,57.87779],[11.99738,57.87769],[11.99697,57.8775],[11.99691,57.87723],[11.99721,57.87704],[11.99753,57.8769],[11.99792,57.87679],[11.99822,57.87665],[11.99843,57.87643],[11.99835,57.87617],[11.99826,57.87592],[11.99852,57.87571],[11.99875,57.87549],[11.99867,57.87527],[11.99819,57.87493]]}}