{"type":"Feature","properties":{},"geometry":{"type":"LineString","coordinates":[[11.99023,57.87619],[11.99089,57.87619],[11.99145,57.87652],[11.99211,57.87667],[11.99296,57.87656],[11.99366,57.87627],[11.99441,57.87605],[11.99515,57.87588],[11.99557,57.87587],[11.99604,57.87588],[11.99612,57.87559],[11.99597,57.87528],[11.99615,57.87502],[11.99682,57.87495],[11.99764,57.87497],[11.99829,57.87476],[11.99866,57.87429],[11.99886,57.87384],[11.99974,57.87369],[12.00058,57.87353],[12.0014,57.87314],[12.00223,57.87292],[12.00323,57.87299],[12.00412,57.873],[12.00514,57.87295],[12.0061,57.87296],[12.00705,57.87293],[12.00728,57.87248],[12.00711,57.87204],[12.00716,57.87158],[12.00761,57.87124],[12.00839,57.87109],[12.00901,57.87132],[12.00958,57.87168],[12.01032,57.87195],[12.01053,57.87237],[12.01115,57.87271],[12.01185,57.87309],[12.01234,57.87349],[12.01303,57.87387],[12.01376,57.87422],[12.01437,57.87457],[12.01502,57.87494],[12.01564,57.87529],[12.01597,57.87572],[12.01659,57.87612],[12.01749,57.87632],[12.0182,57.87669],[12.01861,57.87712],[12.01815,57.87728],[12.01726,57.87749],[12.01643,57.87766],[12.01627,57.87804],[12.01664,57.8785],[12.0172,57.87901],[12.01716,57.87951],[12.01739,57.88001],[12.01781,57.88042],[12.01761,57.8807],[12.01724,57.88115],[12.0166,57.88153],[12.01591,57.88188],[12.0153,57.8822],[12.01492,57.88265],[12.01549,57.88304],[12.01605,57.8833],[12.01652,57.88354],[12.01683,57.884],[12.01734,57.88439],[12.01785,57.88477],[12.01848,57.88506],[12.01912,57.88508],[12.01964,57.8849],[12.02007,57.88502],[12.0204,57.88524],[12.02088,57.8854],[12.02135,57.88552],[12.02152,57.88576],[12.02179,57.88611],[12.02214,57.88657],[12.02284,57.88691],[12.02254,57.88732],[12.02263,57.88782],[12.023,57.88833],[12.02349,57.88885],[12.02388,57.88932],[12.02393,57.88974],[12.02391,57.89022],[12.02388,57.89053],[12.02323,57.89049],[12.02264,57.89012],[12.02259,57.88969],[12.02221,57.88929],[12.02191,57.88886],[12.0219,57.88849],[12.02165,57.88827],[12.02117,57.88814],[12.0207,57.88812],[12.02022,57.88823],[12.01994,57.88846],[12.01972,57.88892],[12.01952,57.88942],[12.01961,57.88991],[12.02033,57.89031],[12.02109,57.89065],[12.02201,57.89082],[12.02297,57.891],[12.0236,57.89136],[12.02396,57.89172],[12.02415,57.89198],[12.02453,57.89225],[12.02402,57.89247],[12.02364,57.8927],[12.02322,57.89313],[12.02311,57.89366],[12.02304,57.89415],[12.0226,57.89455],[12.02197,57.89492],[12.02129,57.89519],[12.02072,57.89554],[12.01996,57.89555],[12.01982,57.8951],[12.0195,57.89461],[12.01937,57.89412],[12.01908,57.89369],[12.01913,57.89324],[12.01889,57.8927],[12.01847,57.89221],[12.01776,57.89191],[12.0168,57.89188],[12.01614,57.89154],[12.01527,57.89135],[12.01438,57.89117],[12.0147,57.89081],[12.01506,57.89042],[12.0151,57.89001],[12.0148,57.88974],[12.01409,57.88954],[12.01408,57.88921],[12.01414,57.88894],[12.01402,57.88843],[12.01413,57.8879],[12.01467,57.88747],[12.01531,57.88697],[12.01593,57.88644],[12.01667,57.88608],[12.01729,57.88569],[12.01808,57.88521],[12.01799,57.88473],[12.01735,57.88428],[12.01677,57.88379],[12.01623,57.88332],[12.01547,57.88292],[12.01515,57.88248],[12.01587,57.88206],[12.01661,57.88166],[12.01732,57.88123],[12.01772,57.88078],[12.01719,57.88069],[12.01669,57.88059],[12.01584,57.88046],[12.01502,57.88018],[12.01455,57.87978],[12.01358,57.87973],[12.01253,57.87961],[12.01158,57.87952],[12.01066,57.87961],[12.00979,57.87951],[12.00903,57.87945],[12.0084,57.87938],[12.00736,57.87939],[12.00638,57.8795],[12.00544,57.87966],[12.00455,57.87983],[12.00354,57.87977],[12.00263,57.87986],[12.00171,57.88011],[12.00095,57.87989],[12.00017,57.87963],[11.99963,57.87954],[11.99906,57.87948],[11.99858,57.87943],[11.99792,57.87954],[11.99707,57.87973],[11.99613,57.87956],[11.99575,57.87914],[11.99522,57.87885],[11.99496,57.87854],[11.99459,57.87835],[11.99409,57.87825],[11.99397,57.87801],[11.99389,57.87771],[11.99379,57.87742],[11.9937,57.87714],[11.99352,57.87686],[11.99324,57.87663],[11.99285,57.87657],[11.99209,57.87665],[11.99145,57.87634],[11.9901,57.87596]]}}