{"type":"Feature","properties":{},"geometry":{"type":"LineString","coordinates":[[13.69496,55.55405],[13.69498,55.55405],[13.69482,55.55389],[13.69463,55.55368],[13.69446,55.55348],[13.69407,55.55341],[13.69375,55.55332],[13.69347,55.55319],[13.69313,55.55307],[13.69276,55.55299],[13.69253,55.55292],[13.69228,55.55287],[13.69196,55.55291],[13.6916,55.55295],[13.69128,55.55295],[13.69103,55.55291],[13.69078,55.55287],[13.69053,55.55279],[13.6903,55.55273],[13.68995,55.55267],[13.68959,55.55257],[13.68934,55.55253],[13.68905,55.55247],[13.68875,55.55247],[13.6884,55.55244],[13.68809,55.5524],[13.68785,55.55237],[13.68762,55.55234],[13.68741,55.55235],[13.68718,55.55241],[13.68708,55.55232],[13.6871,55.55222],[13.68712,55.55206],[13.6871,55.55194],[13.68703,55.55178],[13.68702,55.55161],[13.68709,55.55142],[13.68706,55.55123],[13.68689,55.55109],[13.68689,55.55093],[13.68682,55.55078],[13.68675,55.55062],[13.68664,55.55053],[13.68649,55.55051],[13.68624,55.55057],[13.6859,55.55065],[13.68555,55.5507],[13.68514,55.55065],[13.68477,55.55055],[13.68433,55.55046],[13.68388,55.55038],[13.68348,55.55032],[13.68309,55.55038],[13.68301,55.55058],[13.68298,55.55079],[13.68293,55.55093],[13.68287,55.55098],[13.68271,55.55106],[13.68257,55.55121],[13.68249,55.55143],[13.68237,55.55164],[13.68218,55.55176],[13.68208,55.55179],[13.682,55.55175],[13.68182,55.55169],[13.68158,55.55162],[13.68147,55.55155],[13.68136,55.55149],[13.68119,55.55139],[13.68098,55.55131],[13.68071,55.55124],[13.68047,55.55117],[13.6803,55.55122],[13.68008,55.55123],[13.67994,55.55118],[13.67981,55.55104],[13.67974,55.55095],[13.67965,55.551],[13.67949,55.5511],[13.67924,55.5512],[13.67892,55.55136],[13.67875,55.55157],[13.67859,55.55175],[13.67842,55.55195],[13.67833,55.55211],[13.67826,55.5522],[13.67811,55.55231],[13.67785,55.55246],[13.67764,55.55258],[13.67754,55.55273],[13.67737,55.55286],[13.67726,55.55296],[13.67711,55.55307],[13.67699,55.55314],[13.67682,55.55321],[13.67667,55.55325],[13.67659,55.55334],[13.67645,55.5534],[13.67624,55.55344],[13.67608,55.55352],[13.67586,55.55349],[13.67566,55.55349],[13.67543,55.55353],[13.67511,55.55352],[13.67479,55.55352],[13.67461,55.55351],[13.67442,55.5535],[13.67423,55.55349],[13.67395,55.55353],[13.67367,55.55352],[13.67334,55.55354],[13.67313,55.55356],[13.67289,55.55358],[13.67268,55.55356],[13.67249,55.55355],[13.67229,55.55355],[13.6721,55.55352],[13.67188,55.55353],[13.67152,55.55355],[13.67121,55.55361],[13.67097,55.55361],[13.67082,55.55369],[13.67079,55.55379],[13.67083,55.55394],[13.67094,55.55416],[13.67117,55.55433],[13.67145,55.55448],[13.67146,55.55459],[13.67148,55.55479],[13.67148,55.55502],[13.67132,55.55532],[13.67113,55.55556],[13.67098,55.55578],[13.67085,55.55591],[13.67083,55.556],[13.6708,55.5561],[13.67076,55.55624],[13.67077,55.55639],[13.67072,55.55649],[13.67073,55.55658],[13.6708,55.5567],[13.6709,55.5569],[13.67104,55.55704],[13.67108,55.55711],[13.67118,55.55713],[13.67136,55.55714],[13.67165,55.55713],[13.67197,55.55712],[13.67222,55.557],[13.67249,55.55687],[13.67278,55.5568],[13.6729,55.55668],[13.67302,55.55659],[13.67339,55.55659],[13.67386,55.5566],[13.6743,55.55662],[13.67469,55.55664],[13.67507,55.55667],[13.67547,55.55669],[13.67572,55.55669],[13.67581,55.55657],[13.67603,55.55651],[13.67608,55.55641],[13.67612,55.55633],[13.67631,55.55624],[13.6765,55.55611],[13.67659,55.55607],[13.67671,55.556],[13.6769,55.55596],[13.6771,55.55592],[13.67739,55.55589],[13.67766,55.55584],[13.67798,55.5558],[13.67835,55.5558],[13.67857,55.55577],[13.67871,55.5558],[13.67878,55.55584],[13.67896,55.55587],[13.67913,55.55589],[13.67929,55.55599],[13.67947,55.5561],[13.67969,55.55617],[13.68003,55.55624],[13.6803,55.55635],[13.68063,55.55642],[13.68091,55.55649],[13.68109,55.55653],[13.68139,55.55656],[13.68181,55.55659],[13.68232,55.55662],[13.68288,55.55659],[13.6834,55.55653],[13.68389,55.55651],[13.68434,55.55647],[13.68422,55.55629],[13.6842,55.55603],[13.68467,55.55596],[13.6848,55.55595],[13.6848,55.55596],[13.68485,55.55598]]}}