{"type":"Feature","properties":{},"geometry":{"type":"LineString","coordinates":[[13.20812,55.55743],[13.20744,55.55754],[13.20667,55.55754],[13.20618,55.55764],[13.20581,55.55771],[13.20527,55.55762],[13.20456,55.55768],[13.20411,55.55788],[13.20369,55.55809],[13.20313,55.55832],[13.20289,55.55848],[13.20262,55.55888],[13.20246,55.55927],[13.20255,55.55974],[13.20246,55.56017],[13.20241,55.56037],[13.20211,55.56042],[13.20203,55.56057],[13.20137,55.56077],[13.2014,55.56123],[13.20112,55.56152],[13.20022,55.56156],[13.19937,55.56158],[13.19868,55.56172],[13.19802,55.56189],[13.19763,55.56187],[13.19691,55.56185],[13.19653,55.56195],[13.19617,55.56204],[13.19569,55.5622],[13.19583,55.56224],[13.19569,55.56215],[13.19507,55.56214],[13.1947,55.56211],[13.19485,55.56215],[13.19555,55.56219],[13.19631,55.56211],[13.1968,55.56201],[13.19721,55.56194],[13.19755,55.56211],[13.19772,55.56234],[13.19836,55.5622],[13.1987,55.56242],[13.19888,55.56278],[13.19899,55.56302],[13.19922,55.56317],[13.19982,55.56336],[13.20034,55.5636],[13.20067,55.56387],[13.20094,55.56419],[13.20129,55.56449],[13.20195,55.56464],[13.20223,55.56459],[13.20211,55.56437],[13.20242,55.56414],[13.20245,55.56368],[13.20258,55.56321],[13.20286,55.56272],[13.20349,55.56244],[13.20392,55.56213],[13.20442,55.56191],[13.20485,55.56164],[13.20545,55.56155],[13.20605,55.5614],[13.2063,55.56122],[13.20641,55.56097],[13.20655,55.56074],[13.20671,55.56057],[13.20698,55.56032],[13.20738,55.56007],[13.20764,55.55985],[13.20758,55.55942],[13.20702,55.55927],[13.20667,55.55915],[13.20616,55.55916],[13.20585,55.55903],[13.20515,55.55898],[13.20471,55.55852],[13.20421,55.55805],[13.20418,55.55765],[13.2044,55.55732],[13.20448,55.55723],[13.20489,55.55707],[13.20533,55.5569],[13.20579,55.55672],[13.20629,55.55654],[13.20677,55.55632],[13.20729,55.55614],[13.20779,55.55595],[13.20848,55.55559],[13.20892,55.55547],[13.20942,55.55524],[13.20941,55.55491],[13.2095,55.55457],[13.20932,55.55427],[13.20996,55.55412],[13.21072,55.55399],[13.21144,55.55395],[13.21229,55.55383],[13.21273,55.55348],[13.21296,55.55315],[13.21276,55.55288],[13.21283,55.55256],[13.213,55.55261],[13.21341,55.55293],[13.21353,55.55313],[13.21364,55.55329],[13.21373,55.55352],[13.21412,55.55374],[13.21468,55.55378],[13.21484,55.55389],[13.21491,55.55422],[13.21492,55.55455],[13.21502,55.555],[13.21511,55.55538],[13.21505,55.55567],[13.21497,55.55601],[13.21548,55.55634],[13.21598,55.55662],[13.21652,55.557],[13.21676,55.55732],[13.21674,55.55766],[13.21635,55.558],[13.21629,55.55829],[13.21647,55.55845],[13.2171,55.55855],[13.21778,55.55838],[13.21829,55.5583],[13.21897,55.55836],[13.21939,55.55846],[13.21955,55.55867],[13.22011,55.55884],[13.22017,55.55914],[13.22073,55.55927],[13.22131,55.55926],[13.22157,55.55946],[13.2218,55.55917],[13.22194,55.55889],[13.22213,55.55844],[13.22226,55.55809],[13.22246,55.55774],[13.22241,55.55745],[13.22223,55.55724],[13.22238,55.55719],[13.22245,55.55719],[13.22212,55.55737],[13.22161,55.55708],[13.2212,55.55689],[13.22058,55.55671],[13.22044,55.55651],[13.22028,55.55619],[13.21998,55.55601],[13.21937,55.55582],[13.21883,55.55566],[13.21817,55.55554],[13.21778,55.55547],[13.21746,55.55539],[13.21707,55.55537],[13.21696,55.55504],[13.21684,55.55467],[13.21642,55.55437],[13.21576,55.55401],[13.21507,55.55391],[13.21451,55.55389],[13.21369,55.55394],[13.21285,55.55387],[13.21219,55.55398],[13.21168,55.55424],[13.21101,55.55435],[13.21059,55.55429],[13.21025,55.55407],[13.21015,55.55399],[13.20974,55.55406],[13.20927,55.55394],[13.20899,55.55357],[13.20888,55.55323],[13.20858,55.55318],[13.20848,55.55358],[13.20875,55.55406],[13.20816,55.5542],[13.20723,55.55442],[13.20644,55.55477],[13.20575,55.55495],[13.20494,55.55507],[13.20449,55.55506],[13.20369,55.55512],[13.2031,55.55522],[13.20251,55.55539],[13.2027,55.55553],[13.20329,55.55558],[13.20408,55.5556],[13.20481,55.55562],[13.20535,55.55568],[13.20579,55.55572],[13.20631,55.55574],[13.20672,55.556],[13.20723,55.55639],[13.20757,55.55673],[13.2076,55.55719],[13.20914,55.5575]]}}