{"type":"Feature","properties":{},"geometry":{"type":"LineString","coordinates":[[14.20409,55.81672],[14.20432,55.8167],[14.20469,55.81676],[14.20487,55.81685],[14.20497,55.81686],[14.20509,55.81674],[14.20532,55.8166],[14.20554,55.81645],[14.2053,55.81636],[14.20504,55.81618],[14.20489,55.81598],[14.20485,55.81574],[14.20477,55.81563],[14.20428,55.81549],[14.20403,55.81536],[14.20423,55.81532],[14.20465,55.81515],[14.20499,55.81508],[14.20544,55.815],[14.20579,55.81485],[14.20604,55.81465],[14.20617,55.81453],[14.20641,55.8144],[14.20672,55.81425],[14.20699,55.81419],[14.20756,55.81408],[14.20772,55.81395],[14.2076,55.81373],[14.20737,55.81348],[14.20707,55.8132],[14.20682,55.81319],[14.20622,55.81311],[14.20573,55.81302],[14.20529,55.81303],[14.20499,55.81319],[14.20496,55.81348],[14.20509,55.81355],[14.20531,55.81369],[14.2057,55.81386],[14.2059,55.81402],[14.20613,55.81431],[14.206,55.81461],[14.20585,55.81493],[14.20577,55.81512],[14.20589,55.8154],[14.20606,55.81554],[14.20607,55.81576],[14.20618,55.81599],[14.20661,55.81611],[14.20687,55.81619],[14.20719,55.81615],[14.20742,55.81604],[14.20731,55.81567],[14.20731,55.81568],[14.20741,55.8158],[14.20784,55.81597],[14.20798,55.81597],[14.20771,55.81608],[14.20754,55.81634],[14.2075,55.81631],[14.20742,55.81605],[14.20726,55.81562],[14.20727,55.81549],[14.2072,55.81529],[14.2072,55.81509],[14.20729,55.81507],[14.20726,55.8154],[14.2073,55.81573],[14.20732,55.81598],[14.20735,55.81617],[14.20749,55.81631],[14.20735,55.81648],[14.2069,55.81662],[14.20676,55.81676],[14.20666,55.81708],[14.20674,55.81731],[14.2069,55.81762],[14.20701,55.81784],[14.20681,55.81782],[14.20645,55.81784],[14.20616,55.81769],[14.20604,55.81771],[14.20589,55.81779],[14.20608,55.81796],[14.20618,55.81823],[14.20615,55.81847],[14.20635,55.81864],[14.20673,55.81877],[14.20676,55.81892],[14.20683,55.81911],[14.20705,55.81914],[14.20741,55.8191],[14.20762,55.81911],[14.20807,55.81912],[14.20821,55.8192],[14.20831,55.81925],[14.20837,55.81944],[14.20858,55.81962],[14.20886,55.81993],[14.20929,55.82021],[14.20965,55.82034],[14.20987,55.8204],[14.21039,55.8205],[14.21064,55.82061],[14.21016,55.82068],[14.20985,55.82073],[14.20961,55.82067],[14.20937,55.82071],[14.20912,55.82073],[14.20887,55.821],[14.20871,55.82122],[14.20844,55.82128],[14.20792,55.82132],[14.20741,55.82152],[14.2075,55.82183],[14.20735,55.82218],[14.20744,55.82254],[14.20739,55.82283],[14.20723,55.82311],[14.20703,55.82325],[14.20693,55.8234],[14.20703,55.82364],[14.20721,55.82395],[14.20726,55.82423],[14.20719,55.82453],[14.20736,55.82464],[14.20786,55.8247],[14.20829,55.82466],[14.20859,55.82468],[14.20889,55.82466],[14.20935,55.82467],[14.20984,55.82459],[14.21022,55.82459],[14.21022,55.82449],[14.21,55.82434],[14.20951,55.82412],[14.20929,55.82396],[14.20906,55.8237],[14.20882,55.82335],[14.20844,55.82321],[14.20783,55.82321],[14.20748,55.82299],[14.20739,55.82284],[14.20689,55.82279],[14.20649,55.82267],[14.20629,55.82242],[14.2061,55.82224],[14.2061,55.82199],[14.20619,55.82187],[14.20634,55.82161],[14.20635,55.82133],[14.20622,55.82103],[14.20615,55.82087],[14.2062,55.82072],[14.20614,55.8205],[14.20606,55.82032],[14.20608,55.82017],[14.20607,55.82],[14.20623,55.81994],[14.2065,55.81997],[14.20655,55.81991],[14.20673,55.81969],[14.20684,55.81941],[14.2067,55.81919],[14.20669,55.81907],[14.20686,55.81898],[14.20684,55.81864],[14.20703,55.81825],[14.20718,55.818],[14.20717,55.81783],[14.20716,55.8177],[14.20738,55.81759],[14.20776,55.81752],[14.20799,55.81754],[14.20824,55.81748],[14.2085,55.8173],[14.20873,55.81733],[14.20907,55.81721],[14.20932,55.81698],[14.20953,55.81666],[14.20973,55.8165],[14.21,55.81621],[14.21018,55.81598],[14.21019,55.81575],[14.21007,55.81531],[14.2099,55.81499],[14.2099,55.81482],[14.21003,55.81451],[14.21037,55.81421],[14.21084,55.81394],[14.21124,55.81374],[14.21157,55.81346],[14.21195,55.81325],[14.21212,55.8131],[14.21206,55.81302],[14.21161,55.81276],[14.21112,55.81245],[14.21088,55.81202],[14.21068,55.81158],[14.21022,55.81142]]}}