{"type":"Feature","properties":{},"geometry":{"type":"LineString","coordinates":[[12.98357,55.75617],[12.98423,55.7562],[12.98469,55.75616],[12.98446,55.75597],[12.98411,55.75573],[12.98373,55.75553],[12.9835,55.75541],[12.9832,55.7552],[12.98313,55.75499],[12.98295,55.75497],[12.9825,55.75502],[12.98218,55.75522],[12.98195,55.75544],[12.98163,55.75564],[12.98157,55.75592],[12.98159,55.75611],[12.98132,55.75619],[12.9811,55.75623],[12.98109,55.75624],[12.98089,55.75621],[12.98063,55.75617],[12.98045,55.75628],[12.98009,55.75656],[12.9804,55.75684],[12.98049,55.75714],[12.98053,55.75732],[12.98047,55.75745],[12.98002,55.75732],[12.97951,55.75728],[12.97945,55.75721],[12.97906,55.75698],[12.9782,55.75689],[12.97757,55.7567],[12.97687,55.75657],[12.97601,55.75642],[12.97521,55.75627],[12.97444,55.7561],[12.97379,55.7559],[12.97372,55.75559],[12.97372,55.75529],[12.97399,55.75496],[12.97437,55.75466],[12.97499,55.75444],[12.97563,55.75426],[12.97578,55.75408],[12.97624,55.75393],[12.97682,55.75367],[12.97729,55.75358],[12.97784,55.75367],[12.97842,55.75348],[12.97899,55.75322],[12.97962,55.75325],[12.98025,55.75338],[12.98064,55.75324],[12.98069,55.75311],[12.9806,55.75281],[12.98048,55.75252],[12.98044,55.75231],[12.98065,55.75201],[12.98072,55.75179],[12.98074,55.75145],[12.98119,55.75127],[12.98113,55.75111],[12.98108,55.75083],[12.98079,55.75051],[12.98081,55.75032],[12.98129,55.7504],[12.98147,55.75071],[12.98145,55.75095],[12.98132,55.75116],[12.98141,55.7512],[12.98169,55.75103],[12.98196,55.75083],[12.98231,55.75052],[12.98243,55.7503],[12.98221,55.7502],[12.98168,55.7501],[12.981,55.74994],[12.9804,55.74983],[12.97991,55.74968],[12.97968,55.74953],[12.97938,55.74943],[12.97894,55.7496],[12.97878,55.74966],[12.97841,55.74969],[12.97838,55.74943],[12.97861,55.74905],[12.97825,55.74886],[12.97843,55.74874],[12.97895,55.74881],[12.97952,55.74862],[12.98018,55.74848],[12.98078,55.74834],[12.98096,55.74855],[12.98087,55.74875],[12.98069,55.74903],[12.98048,55.74934],[12.98046,55.74974],[12.98032,55.75012],[12.98008,55.75038],[12.98007,55.75058],[12.98008,55.75093],[12.97996,55.75127],[12.98003,55.75145],[12.98006,55.75169],[12.9798,55.75199],[12.97957,55.75216],[12.97994,55.752],[12.98021,55.75188],[12.98019,55.75189],[12.98042,55.75196],[12.98044,55.75202],[12.98062,55.75225],[12.98092,55.75253],[12.98097,55.75294],[12.9814,55.7532],[12.98208,55.75312],[12.9828,55.75288],[12.98339,55.75255],[12.98396,55.75219],[12.98446,55.75203],[12.98503,55.75227],[12.98565,55.75253],[12.98616,55.75283],[12.98678,55.75315],[12.98737,55.75343],[12.98808,55.75365],[12.98884,55.75379],[12.98955,55.75402],[12.98994,55.75425],[12.99057,55.75451],[12.99117,55.75479],[12.99171,55.75508],[12.99214,55.75537],[12.99148,55.75557],[12.99084,55.75579],[12.9902,55.75603],[12.99006,55.7563],[12.99046,55.75657],[12.99024,55.75679],[12.99043,55.75686],[12.99095,55.75691],[12.99136,55.75709],[12.99186,55.75718],[12.99236,55.75734],[12.99266,55.7574],[12.9932,55.75759],[12.99369,55.75773],[12.99384,55.75766],[12.99389,55.75739],[12.99414,55.75717],[12.99421,55.75696],[12.99441,55.75675],[12.99465,55.75671],[12.99476,55.75673],[12.99474,55.75688],[12.99466,55.75704],[12.99448,55.75723],[12.99395,55.757],[12.99346,55.75673],[12.99281,55.75704],[12.99232,55.75744],[12.99188,55.75779],[12.99136,55.75787],[12.99088,55.75802],[12.99067,55.75779],[12.99041,55.75757],[12.98994,55.75719],[12.98963,55.75692],[12.98899,55.75659],[12.98828,55.75687],[12.98757,55.75714],[12.98691,55.7574],[12.98698,55.75768],[12.98756,55.75791],[12.98722,55.75806],[12.98686,55.7582],[12.98647,55.75827],[12.9861,55.75828],[12.98586,55.75816],[12.9854,55.75803],[12.98468,55.75814],[12.98418,55.7578],[12.98396,55.75745],[12.98387,55.75707],[12.98354,55.75668],[12.98305,55.75645],[12.98241,55.75656],[12.98269,55.75636],[12.98297,55.75634],[12.98298,55.75634],[12.98303,55.75634],[12.98304,55.75634],[12.98302,55.75635],[12.98315,55.75631],[12.98321,55.75627],[12.9832,55.75625],[12.98318,55.75626],[12.98323,55.75623],[12.98324,55.7562]]}}