{"type":"Feature","properties":{},"geometry":{"type":"LineString","coordinates":[[13.20947,55.55744],[13.20973,55.55744],[13.21023,55.55743],[13.21067,55.55738],[13.21104,55.55736],[13.21147,55.55723],[13.21171,55.55737],[13.21187,55.55751],[13.21217,55.55775],[13.21262,55.55804],[13.21286,55.55811],[13.21288,55.55806],[13.21287,55.558],[13.21295,55.55811],[13.21338,55.55828],[13.21376,55.55838],[13.21409,55.55842],[13.21457,55.55846],[13.21511,55.55852],[13.2157,55.55859],[13.21613,55.55871],[13.21649,55.55857],[13.21679,55.55863],[13.21702,55.55867],[13.21723,55.55888],[13.21725,55.55906],[13.21714,55.55917],[13.21703,55.55929],[13.21715,55.55944],[13.21749,55.55947],[13.21786,55.55945],[13.21814,55.5594],[13.21848,55.55932],[13.21889,55.55917],[13.2194,55.55907],[13.22001,55.55912],[13.22052,55.5589],[13.22109,55.5589],[13.22146,55.55887],[13.22209,55.55905],[13.22241,55.55907],[13.2224,55.55892],[13.22228,55.55873],[13.22195,55.55857],[13.22163,55.55843],[13.22127,55.55837],[13.22131,55.5581],[13.22124,55.55785],[13.22141,55.55766],[13.22136,55.5573],[13.22171,55.55715],[13.22184,55.55722],[13.22204,55.55705],[13.2222,55.55688],[13.22202,55.55681],[13.22158,55.55677],[13.22111,55.55661],[13.22053,55.55641],[13.22009,55.55623],[13.21971,55.55601],[13.21947,55.55578],[13.21883,55.5558],[13.21826,55.55568],[13.21779,55.55553],[13.21759,55.55541],[13.21783,55.55524],[13.21837,55.55506],[13.21883,55.55518],[13.2191,55.55488],[13.21908,55.55439],[13.21912,55.55393],[13.21919,55.55353],[13.21916,55.55325],[13.21869,55.55285],[13.21836,55.55248],[13.21822,55.55214],[13.21786,55.55191],[13.21716,55.55166],[13.21707,55.55147],[13.21705,55.55131],[13.21688,55.55123],[13.21674,55.55125],[13.21664,55.55104],[13.21669,55.55096],[13.21645,55.55111],[13.2169,55.55145],[13.21697,55.5517],[13.21686,55.5518],[13.21658,55.5521],[13.21641,55.55234],[13.21601,55.55271],[13.21559,55.55294],[13.21525,55.5531],[13.21492,55.55293],[13.21438,55.55278],[13.21397,55.55251],[13.21366,55.55223],[13.21355,55.55212],[13.2131,55.55208],[13.21281,55.55192],[13.21254,55.55166],[13.21228,55.55144],[13.21181,55.55159],[13.21159,55.55169],[13.21131,55.5519],[13.21113,55.55202],[13.21104,55.55232],[13.2107,55.55239],[13.21063,55.55275],[13.21073,55.55299],[13.21032,55.55315],[13.21038,55.55357],[13.21041,55.55382],[13.21053,55.55406],[13.2101,55.55421],[13.20989,55.5545],[13.20958,55.55459],[13.20908,55.55469],[13.20869,55.55495],[13.20843,55.55523],[13.20813,55.5555],[13.20784,55.55579],[13.20756,55.55592],[13.20731,55.55611],[13.20707,55.55625],[13.20647,55.55634],[13.206,55.55637],[13.20565,55.55638],[13.20557,55.55646],[13.20582,55.55638],[13.20562,55.55628],[13.20524,55.55633],[13.20495,55.55626],[13.20441,55.55609],[13.20395,55.55586],[13.20376,55.5556],[13.20347,55.55542],[13.20313,55.55522],[13.2029,55.55521],[13.2027,55.55543],[13.20225,55.55575],[13.202,55.55587],[13.202,55.55603],[13.20174,55.55613],[13.20157,55.55622],[13.20136,55.55646],[13.20146,55.55687],[13.20138,55.55719],[13.20149,55.55744],[13.20188,55.55767],[13.20185,55.55795],[13.20216,55.55811],[13.20225,55.55828],[13.20202,55.55852],[13.20192,55.55863],[13.20173,55.55887],[13.20184,55.55906],[13.20193,55.55929],[13.20214,55.55959],[13.20222,55.55975],[13.2022,55.55996],[13.20222,55.56001],[13.20206,55.56012],[13.20233,55.56034],[13.20261,55.56075],[13.20268,55.56096],[13.20278,55.56123],[13.20302,55.56142],[13.20325,55.56152],[13.20336,55.56121],[13.204,55.56085],[13.20443,55.56068],[13.20481,55.5608],[13.20536,55.56083],[13.20583,55.56086],[13.2063,55.56066],[13.2067,55.56038],[13.20678,55.56036],[13.20715,55.56051],[13.20759,55.56062],[13.20807,55.56053],[13.20857,55.5604],[13.20911,55.56023],[13.20966,55.56029],[13.21009,55.56035],[13.21008,55.56011],[13.21007,55.55981],[13.21012,55.55973],[13.21038,55.55951],[13.21064,55.55913],[13.21096,55.55886],[13.21157,55.55862],[13.21195,55.55858],[13.21227,55.55856],[13.21268,55.55825],[13.21272,55.55802],[13.2125,55.55803],[13.21192,55.55791],[13.21107,55.55784],[13.20972,55.55747]]}}