{"type":"Feature","properties":{},"geometry":{"type":"LineString","coordinates":[[13.20616,55.55417],[13.20612,55.55392],[13.20644,55.55373],[13.20684,55.55357],[13.20746,55.55353],[13.20785,55.55333],[13.20763,55.553],[13.20731,55.55263],[13.20723,55.55234],[13.20774,55.55237],[13.20817,55.55231],[13.20821,55.55197],[13.20848,55.55179],[13.20902,55.55178],[13.20956,55.55174],[13.20959,55.55181],[13.20981,55.55203],[13.21029,55.55216],[13.21059,55.55231],[13.21051,55.55253],[13.21069,55.55271],[13.21103,55.55291],[13.21112,55.55302],[13.21137,55.5532],[13.21199,55.55334],[13.21233,55.5535],[13.21268,55.55382],[13.21314,55.55406],[13.21355,55.55426],[13.2137,55.55428],[13.21335,55.55408],[13.2129,55.55384],[13.21233,55.55386],[13.21187,55.55414],[13.21147,55.55442],[13.21115,55.55466],[13.21101,55.55482],[13.21079,55.55515],[13.21068,55.55533],[13.21049,55.55549],[13.21015,55.55553],[13.20961,55.5556],[13.2092,55.5555],[13.20877,55.55551],[13.20842,55.55555],[13.20786,55.55576],[13.2076,55.55592],[13.20723,55.55597],[13.20685,55.55604],[13.20667,55.55611],[13.2063,55.55635],[13.20609,55.55643],[13.20566,55.55656],[13.20519,55.55673],[13.20471,55.55696],[13.20436,55.55719],[13.20402,55.55732],[13.2036,55.5575],[13.20338,55.55776],[13.20305,55.55796],[13.203,55.55812],[13.203,55.55827],[13.20294,55.55857],[13.20299,55.5589],[13.20307,55.55918],[13.20301,55.55944],[13.20301,55.55972],[13.20294,55.55994],[13.2032,55.56014],[13.20363,55.56036],[13.20375,55.56059],[13.20409,55.56076],[13.20454,55.56095],[13.2047,55.56108],[13.20497,55.56125],[13.20466,55.56146],[13.20475,55.56151],[13.2051,55.56135],[13.20546,55.5612],[13.20563,55.56112],[13.20596,55.56096],[13.20633,55.56084],[13.20669,55.56068],[13.20692,55.56053],[13.20708,55.56053],[13.2073,55.5605],[13.20735,55.56035],[13.20718,55.56017],[13.20749,55.56015],[13.20781,55.56009],[13.20812,55.56001],[13.20857,55.55992],[13.20903,55.55974],[13.20902,55.55948],[13.2091,55.55927],[13.20944,55.55901],[13.20959,55.559],[13.20977,55.55884],[13.20994,55.55872],[13.21028,55.55843],[13.21055,55.55831],[13.21078,55.55821],[13.21117,55.55797],[13.21151,55.55777],[13.21196,55.55755],[13.21216,55.55763],[13.21242,55.55768],[13.21244,55.55782],[13.21264,55.55805],[13.21273,55.55808],[13.2126,55.55775],[13.21278,55.55751],[13.21322,55.55757],[13.2135,55.55768],[13.21373,55.55749],[13.21411,55.55719],[13.21439,55.557],[13.2149,55.55677],[13.21508,55.55648],[13.21534,55.55632],[13.21546,55.55618],[13.21546,55.55599],[13.21544,55.55595],[13.21592,55.5561],[13.21656,55.55598],[13.21691,55.5558],[13.21736,55.55583],[13.21773,55.55574],[13.218,55.55549],[13.21807,55.5553],[13.21817,55.55518],[13.21848,55.55507],[13.21881,55.55489],[13.21913,55.55478],[13.2191,55.55437],[13.21921,55.55397],[13.21921,55.55361],[13.21908,55.55342],[13.21894,55.55336],[13.21872,55.55329],[13.21845,55.55319],[13.21809,55.55314],[13.21779,55.55307],[13.21742,55.55301],[13.21716,55.5529],[13.21681,55.55273],[13.21647,55.55258],[13.21618,55.55252],[13.21577,55.55255],[13.21561,55.55246],[13.21537,55.55241],[13.21494,55.55244],[13.21441,55.55245],[13.21405,55.55246],[13.21374,55.55224],[13.21357,55.55209],[13.2134,55.55205],[13.21338,55.55191],[13.21318,55.55193],[13.21314,55.5518],[13.21312,55.55186],[13.21334,55.55182],[13.21354,55.55181],[13.21363,55.55175],[13.21374,55.55163],[13.21361,55.55139],[13.21295,55.55125],[13.21213,55.5511],[13.21157,55.55099],[13.21085,55.55102],[13.21038,55.55108],[13.20997,55.55117],[13.20955,55.55149],[13.20942,55.55164],[13.20881,55.55175],[13.20814,55.55177],[13.20784,55.55168],[13.20752,55.55165],[13.20708,55.55157],[13.20652,55.55143],[13.20613,55.55119],[13.20584,55.55103],[13.20545,55.55109],[13.20529,55.55105],[13.20501,55.55112],[13.20478,55.5513],[13.20465,55.55156],[13.20429,55.5519],[13.20408,55.55199],[13.20386,55.55215],[13.20352,55.55239],[13.20317,55.55256],[13.20297,55.55272],[13.20325,55.55292],[13.20366,55.55314],[13.20425,55.55324],[13.20454,55.55341],[13.20487,55.55356],[13.2055,55.55366],[13.206,55.55417]]}}