{"type":"Feature","properties":{},"geometry":{"type":"LineString","coordinates":[[13.20943,55.55747],[13.21008,55.5576],[13.21024,55.55778],[13.21035,55.55795],[13.21078,55.55829],[13.2112,55.55868],[13.2115,55.55877],[13.21179,55.55881],[13.21186,55.55875],[13.21142,55.55868],[13.2109,55.55876],[13.21029,55.55887],[13.20984,55.55879],[13.20917,55.55877],[13.20869,55.5589],[13.20838,55.55909],[13.20801,55.55937],[13.20787,55.5596],[13.20742,55.5599],[13.20696,55.56011],[13.20655,55.5602],[13.20634,55.56016],[13.2059,55.55998],[13.20543,55.55999],[13.20474,55.56008],[13.2043,55.5602],[13.20366,55.56027],[13.20303,55.56024],[13.20246,55.56043],[13.20202,55.56055],[13.20206,55.56062],[13.20229,55.56051],[13.20248,55.56027],[13.20266,55.55996],[13.20287,55.55971],[13.20295,55.5594],[13.20302,55.55914],[13.20305,55.55892],[13.20307,55.55858],[13.20279,55.55844],[13.20284,55.55819],[13.20294,55.55797],[13.20315,55.5577],[13.20353,55.55765],[13.20333,55.55761],[13.2036,55.55743],[13.20361,55.55704],[13.20349,55.55666],[13.20343,55.55646],[13.20351,55.55612],[13.20312,55.55588],[13.20296,55.55579],[13.20281,55.55561],[13.20249,55.55537],[13.2026,55.55524],[13.20281,55.55528],[13.20333,55.55517],[13.20407,55.55509],[13.20473,55.55515],[13.20551,55.55509],[13.20605,55.55521],[13.20659,55.55546],[13.20709,55.55547],[13.207,55.55524],[13.20669,55.55488],[13.20646,55.55455],[13.20637,55.55422],[13.20635,55.55383],[13.20659,55.55353],[13.20647,55.55316],[13.2065,55.55294],[13.20674,55.55275],[13.2071,55.55246],[13.20762,55.55237],[13.20821,55.5524],[13.20879,55.5524],[13.20933,55.55226],[13.21001,55.55224],[13.21053,55.5522],[13.21086,55.55203],[13.21131,55.55202],[13.21165,55.55189],[13.21179,55.55192],[13.2122,55.55197],[13.21271,55.5521],[13.21313,55.55222],[13.21334,55.5523],[13.2137,55.55244],[13.21417,55.55279],[13.2144,55.55307],[13.21436,55.55332],[13.2144,55.55359],[13.21434,55.55377],[13.21419,55.55394],[13.21416,55.55396],[13.21458,55.55395],[13.21478,55.55388],[13.21489,55.55425],[13.21478,55.55446],[13.21472,55.55477],[13.21471,55.55493],[13.21499,55.55497],[13.21558,55.55492],[13.21615,55.55497],[13.21659,55.55501],[13.21703,55.55508],[13.21747,55.55513],[13.21769,55.55521],[13.21778,55.55522],[13.21786,55.55519],[13.21801,55.55524],[13.21777,55.55523],[13.21781,55.55531],[13.21811,55.55536],[13.21848,55.55513],[13.2189,55.55496],[13.21922,55.5547],[13.2196,55.55449],[13.21979,55.55407],[13.22004,55.55361],[13.22016,55.55314],[13.22072,55.5531],[13.22148,55.553],[13.22213,55.55297],[13.22264,55.55304],[13.22333,55.55312],[13.2238,55.55318],[13.22427,55.55324],[13.22452,55.55328],[13.22453,55.55333],[13.22432,55.5534],[13.22398,55.55371],[13.2235,55.55389],[13.22297,55.55383],[13.22232,55.55373],[13.22176,55.55387],[13.22145,55.55395],[13.22104,55.55406],[13.22061,55.55409],[13.22016,55.55413],[13.2198,55.55429],[13.21952,55.5545],[13.21944,55.55446],[13.2195,55.55409],[13.2197,55.5536],[13.21992,55.55344],[13.22015,55.55306],[13.22017,55.55258],[13.22032,55.55219],[13.22033,55.552],[13.22006,55.55187],[13.21984,55.55174],[13.21951,55.55165],[13.21928,55.55172],[13.21909,55.55198],[13.2187,55.5523],[13.21847,55.55259],[13.21836,55.5528],[13.21866,55.553],[13.21859,55.55308],[13.21852,55.55316],[13.2184,55.55315],[13.21829,55.5532],[13.21835,55.55326],[13.21845,55.55329],[13.21871,55.55344],[13.21906,55.55357],[13.21927,55.55368],[13.21948,55.55393],[13.21951,55.55432],[13.21946,55.55472],[13.2199,55.55505],[13.22043,55.55544],[13.22081,55.55579],[13.2207,55.55619],[13.22098,55.55635],[13.22104,55.55652],[13.22115,55.55681],[13.22128,55.55698],[13.22168,55.55711],[13.22184,55.5572],[13.2215,55.55723],[13.22084,55.55727],[13.22008,55.55735],[13.21936,55.55726],[13.21863,55.55717],[13.21802,55.55709],[13.21741,55.55717],[13.21686,55.55726],[13.21657,55.55711],[13.21602,55.55728],[13.21553,55.55739],[13.21478,55.5575],[13.21396,55.55729],[13.21328,55.55715],[13.21266,55.5573],[13.21216,55.55742],[13.21172,55.5574],[13.21108,55.55736],[13.20962,55.55748]]}}