{"type":"Feature","properties":{},"geometry":{"type":"LineString","coordinates":[[11.99127,57.87591],[11.99157,57.8758],[11.99189,57.87567],[11.99223,57.87558],[11.99264,57.87557],[11.99309,57.87556],[11.99349,57.87556],[11.99394,57.87559],[11.99423,57.87573],[11.99448,57.87594],[11.99495,57.87587],[11.99528,57.87585],[11.99555,57.87587],[11.99588,57.87592],[11.99611,57.87579],[11.99613,57.87559],[11.99604,57.87538],[11.9959,57.87518],[11.996,57.87503],[11.99621,57.87502],[11.99648,57.87502],[11.99675,57.87498],[11.99706,57.87494],[11.9975,57.87497],[11.99794,57.87499],[11.99827,57.8748],[11.99846,57.87453],[11.9987,57.87426],[11.99866,57.87399],[11.99895,57.8738],[11.99939,57.87372],[11.9999,57.87368],[12.00037,57.87361],[12.00111,57.87329],[12.00129,57.87322],[12.00172,57.87307],[12.00231,57.87293],[12.00285,57.87296],[12.0034,57.87303],[12.00389,57.87304],[12.00444,57.87302],[12.00497,57.873],[12.00553,57.87296],[12.00608,57.87295],[12.00664,57.87296],[12.00715,57.87293],[12.00732,57.8727],[12.00725,57.87241],[12.00713,57.87217],[12.00709,57.87189],[12.00714,57.87166],[12.00721,57.87141],[12.00755,57.87126],[12.00796,57.87113],[12.00839,57.87107],[12.00887,57.87116],[12.00915,57.87138],[12.00947,57.87156],[12.00982,57.87177],[12.01025,57.8719],[12.01048,57.87214],[12.01052,57.87236],[12.01077,57.8726],[12.01123,57.87272],[12.01164,57.87294],[12.012,57.87315],[12.01227,57.8734],[12.01263,57.8736],[12.01302,57.87381],[12.01346,57.87401],[12.01383,57.87421],[12.01418,57.87441],[12.01451,57.87461],[12.01494,57.87485],[12.01532,57.87509],[12.01567,57.87533],[12.01588,57.87555],[12.01604,57.87583],[12.01635,57.87605],[12.01683,57.87618],[12.01737,57.87629],[12.01783,57.87645],[12.01814,57.87667],[12.01846,57.8769],[12.01868,57.87715],[12.01843,57.87727],[12.01792,57.87732],[12.01743,57.87742],[12.01697,57.87753],[12.01653,57.87758],[12.01618,57.87771],[12.01625,57.878],[12.01641,57.87829],[12.01677,57.87855],[12.01707,57.87881],[12.01726,57.87909],[12.01717,57.87938],[12.01708,57.87969],[12.0167,57.87982],[12.01624,57.87981],[12.01587,57.87967],[12.01542,57.87951],[12.01493,57.87935],[12.01461,57.87915],[12.01432,57.87895],[12.01395,57.8788],[12.01377,57.87857],[12.01348,57.87836],[12.01311,57.87823],[12.01269,57.8781],[12.01227,57.87794],[12.01198,57.87779],[12.0116,57.87766],[12.01114,57.87756],[12.01071,57.87748],[12.01023,57.8775],[12.00995,57.87772],[12.00985,57.87802],[12.00997,57.8783],[12.01051,57.8783],[12.01099,57.87825],[12.01133,57.87841],[12.01151,57.87865],[12.01158,57.8789],[12.01136,57.87918],[12.011,57.87939],[12.01053,57.87954],[12.01001,57.87954],[12.00945,57.87949],[12.00896,57.87945],[12.00844,57.87939],[12.00796,57.87933],[12.00742,57.87939],[12.00694,57.87944],[12.00646,57.87952],[12.00589,57.87954],[12.00538,57.87965],[12.00489,57.87981],[12.00436,57.87984],[12.00379,57.87983],[12.00334,57.87975],[12.00278,57.87982],[12.00232,57.87992],[12.0018,57.88009],[12.00136,57.8801],[12.00104,57.87996],[12.00062,57.87978],[12.0002,57.87967],[11.99973,57.87958],[11.9993,57.87952],[11.99885,57.87946],[11.99893,57.87937],[11.99941,57.87936],[11.99985,57.8793],[12.00032,57.8793],[12.00075,57.87932],[12.00114,57.87939],[12.00149,57.87928],[12.00175,57.8791],[12.00203,57.87887],[12.00174,57.87868],[12.00124,57.87865],[12.0008,57.87859],[12.0004,57.8785],[12.00004,57.87843],[11.99963,57.87829],[11.99922,57.87817],[11.99885,57.87807],[11.9985,57.87797],[11.99817,57.87789],[11.99778,57.87778],[11.99739,57.87768],[11.99699,57.87748],[11.99695,57.87725],[11.99725,57.87706],[11.99753,57.87695],[11.99787,57.87682],[11.99816,57.87667],[11.99834,57.87646],[11.99825,57.87618],[11.99829,57.87592],[11.99863,57.87572],[11.9987,57.87548],[11.99864,57.87522],[11.99841,57.87498],[11.99811,57.87493],[11.99787,57.87491],[11.9976,57.87488],[11.99734,57.87485],[11.99707,57.87484],[11.99679,57.87486],[11.99654,57.87488],[11.99624,57.87494],[11.99599,57.87497],[11.99573,57.87505],[11.99572,57.87518],[11.99585,57.87534],[11.99594,57.87547],[11.99604,57.87559],[11.99606,57.87581]]}}