{"type":"Feature","properties":{},"geometry":{"type":"LineString","coordinates":[[13.34238,56.22171],[13.34271,56.22177],[13.34338,56.2219],[13.34388,56.22212],[13.34416,56.22246],[13.34409,56.22281],[13.34372,56.22301],[13.34331,56.2231],[13.3431,56.22323],[13.34307,56.22346],[13.34271,56.22361],[13.34228,56.22366],[13.34192,56.22372],[13.34183,56.22394],[13.34223,56.22406],[13.34272,56.22415],[13.34316,56.22425],[13.34344,56.22434],[13.3438,56.22437],[13.34395,56.22445],[13.34414,56.22452],[13.3444,56.22458],[13.34463,56.22464],[13.34505,56.22475],[13.34534,56.2249],[13.34529,56.22511],[13.34537,56.22532],[13.34581,56.22528],[13.34627,56.22508],[13.34648,56.2249],[13.34667,56.22465],[13.34676,56.22438],[13.34713,56.22419],[13.34722,56.22403],[13.34696,56.22391],[13.34684,56.22385],[13.34716,56.22366],[13.34759,56.22357],[13.348,56.22357],[13.34814,56.2236],[13.34838,56.22364],[13.34843,56.22363],[13.34809,56.22361],[13.34804,56.22367],[13.3483,56.22392],[13.34857,56.22407],[13.34877,56.22403],[13.34889,56.2242],[13.34895,56.22438],[13.34894,56.22448],[13.34913,56.22466],[13.34916,56.22486],[13.34923,56.22509],[13.34925,56.22539],[13.34935,56.22573],[13.34953,56.22589],[13.34995,56.22606],[13.35038,56.22623],[13.35086,56.22637],[13.35127,56.22653],[13.3518,56.22653],[13.3521,56.2266],[13.3523,56.22663],[13.35268,56.22673],[13.35296,56.22687],[13.35308,56.2271],[13.35343,56.22721],[13.35382,56.22727],[13.35402,56.22719],[13.35406,56.22688],[13.35405,56.2266],[13.35433,56.22631],[13.35466,56.22598],[13.3549,56.2258],[13.35501,56.2256],[13.35516,56.22547],[13.35506,56.22539],[13.35476,56.22527],[13.35436,56.22515],[13.35391,56.22522],[13.35345,56.22526],[13.35306,56.22513],[13.35289,56.22501],[13.35258,56.22492],[13.35217,56.22482],[13.35195,56.22479],[13.35169,56.22477],[13.35139,56.22467],[13.35091,56.22463],[13.35046,56.22462],[13.35031,56.22462],[13.35029,56.22451],[13.35011,56.22428],[13.3499,56.22399],[13.34982,56.22382],[13.34958,56.22365],[13.34926,56.22349],[13.3491,56.22331],[13.34886,56.22308],[13.34853,56.22288],[13.34821,56.22275],[13.34771,56.22261],[13.34747,56.22239],[13.34727,56.22214],[13.34694,56.22199],[13.34696,56.22195],[13.34685,56.22168],[13.3468,56.22139],[13.34701,56.22113],[13.34712,56.22098],[13.34712,56.22073],[13.34721,56.22052],[13.34738,56.22024],[13.34755,56.22003],[13.34775,56.21989],[13.34799,56.21969],[13.34806,56.21961],[13.34813,56.21955],[13.34829,56.21947],[13.34859,56.21934],[13.34849,56.21917],[13.34826,56.21894],[13.34807,56.21883],[13.34804,56.21871],[13.34811,56.21859],[13.34793,56.21842],[13.3478,56.21824],[13.34792,56.21834],[13.3483,56.21829],[13.34859,56.21823],[13.34878,56.21833],[13.3492,56.21845],[13.34946,56.21855],[13.34955,56.21866],[13.34973,56.21878],[13.3499,56.21891],[13.34979,56.21917],[13.34954,56.21937],[13.34941,56.21937],[13.34914,56.21935],[13.3486,56.21939],[13.3481,56.21929],[13.34793,56.21918],[13.3477,56.21908],[13.34749,56.21901],[13.34738,56.21896],[13.34722,56.21891],[13.34713,56.21884],[13.34705,56.21876],[13.34674,56.21872],[13.3465,56.21867],[13.3464,56.21862],[13.3462,56.21859],[13.34602,56.21852],[13.34585,56.21866],[13.34591,56.21862],[13.34607,56.21855],[13.34626,56.2184],[13.34635,56.21818],[13.34652,56.21799],[13.34657,56.21789],[13.34645,56.21782],[13.34651,56.21777],[13.34662,56.21769],[13.34693,56.21761],[13.3472,56.21752],[13.34733,56.21737],[13.34756,56.2175],[13.34792,56.21759],[13.34771,56.21747],[13.34759,56.21739],[13.34739,56.21708],[13.34727,56.21678],[13.34738,56.21667],[13.34774,56.21647],[13.3479,56.21612],[13.34782,56.21598],[13.34752,56.21599],[13.34715,56.2161],[13.34692,56.21608],[13.34678,56.21605],[13.34659,56.21609],[13.34635,56.21615],[13.34613,56.21615],[13.34589,56.21623],[13.34572,56.21626],[13.34558,56.21636],[13.34545,56.2165],[13.34532,56.21667],[13.34513,56.21685],[13.345,56.21691],[13.3448,56.21699],[13.34453,56.21698],[13.3443,56.21702],[13.34413,56.21713],[13.34408,56.2174],[13.34411,56.21777],[13.34405,56.21807],[13.34404,56.21843],[13.34311,56.21838]]}}