{"type":"Feature","properties":{},"geometry":{"type":"LineString","coordinates":[[13.42529,55.59421],[13.42552,55.59411],[13.42606,55.59397],[13.42656,55.59382],[13.42685,55.59362],[13.42671,55.59353],[13.42656,55.59342],[13.42632,55.59331],[13.42608,55.59315],[13.42582,55.59299],[13.42556,55.59275],[13.42533,55.59251],[13.42515,55.59226],[13.42472,55.59208],[13.42456,55.59194],[13.42422,55.59178],[13.42406,55.59175],[13.42413,55.59154],[13.4241,55.59139],[13.42402,55.5911],[13.42408,55.59078],[13.42442,55.59049],[13.42454,55.59014],[13.42459,55.58994],[13.42447,55.58974],[13.42438,55.58946],[13.42413,55.58922],[13.42395,55.58896],[13.42384,55.58873],[13.42365,55.58859],[13.42381,55.58873],[13.42411,55.58892],[13.4242,55.58916],[13.42466,55.58926],[13.42491,55.58938],[13.42518,55.5896],[13.42562,55.58978],[13.42607,55.58994],[13.42645,55.59013],[13.42701,55.59023],[13.42755,55.59033],[13.42809,55.5903],[13.42859,55.5903],[13.42922,55.59034],[13.42983,55.59026],[13.43025,55.5901],[13.43043,55.58995],[13.43062,55.58985],[13.43062,55.58961],[13.43052,55.58941],[13.4305,55.58944],[13.4305,55.58942],[13.43041,55.58938],[13.42998,55.5894],[13.42979,55.58945],[13.4298,55.58956],[13.42991,55.58972],[13.43022,55.58966],[13.43037,55.58943],[13.43054,55.58936],[13.43072,55.58938],[13.4312,55.58955],[13.43141,55.58966],[13.43147,55.58954],[13.43152,55.58931],[13.4316,55.58901],[13.43179,55.58889],[13.43191,55.58872],[13.43216,55.58842],[13.43213,55.58825],[13.43232,55.58821],[13.43253,55.58794],[13.43265,55.5877],[13.43294,55.58758],[13.433,55.58732],[13.43261,55.58717],[13.4323,55.58702],[13.43203,55.58696],[13.43172,55.58694],[13.43136,55.58692],[13.43105,55.58693],[13.4307,55.58707],[13.43048,55.58726],[13.4304,55.58735],[13.4304,55.58748],[13.43036,55.58763],[13.43028,55.5879],[13.42973,55.58792],[13.42941,55.58814],[13.42935,55.58844],[13.42928,55.58879],[13.4292,55.58902],[13.42928,55.58928],[13.42938,55.58958],[13.42965,55.58982],[13.42975,55.59007],[13.42974,55.59025],[13.42969,55.59043],[13.42966,55.59057],[13.42963,55.59071],[13.42975,55.59093],[13.4297,55.59112],[13.4295,55.59118],[13.4293,55.59132],[13.42918,55.5915],[13.42891,55.59167],[13.42882,55.59181],[13.42863,55.59187],[13.42824,55.59203],[13.42816,55.59234],[13.42806,55.59262],[13.42784,55.59283],[13.42735,55.59301],[13.42685,55.59319],[13.42635,55.59337],[13.42593,55.5936],[13.42539,55.59376],[13.42477,55.59389],[13.42421,55.59403],[13.42404,55.59408],[13.42358,55.5942],[13.42304,55.59436],[13.42264,55.59446],[13.42257,55.59437],[13.42237,55.59425],[13.42221,55.59423],[13.42219,55.59426],[13.42222,55.59435],[13.42241,55.59447],[13.4225,55.59455],[13.42285,55.59452],[13.42346,55.59436],[13.42405,55.59422],[13.42436,55.59411],[13.42489,55.59397],[13.42522,55.59382],[13.42535,55.59364],[13.42515,55.59351],[13.42508,55.59343],[13.42475,55.59351],[13.42416,55.59348],[13.42385,55.59336],[13.42331,55.59326],[13.42312,55.59308],[13.42287,55.59296],[13.42251,55.59291],[13.42225,55.59291],[13.42228,55.59295],[13.42209,55.59311],[13.42182,55.59334],[13.42142,55.59358],[13.42115,55.59387],[13.42097,55.59402],[13.42091,55.59407],[13.42062,55.59407],[13.42033,55.5941],[13.4203,55.5941],[13.42036,55.59417],[13.42058,55.59435],[13.42077,55.5944],[13.42088,55.59432],[13.42084,55.59412],[13.42094,55.59382],[13.42099,55.59359],[13.42108,55.59329],[13.42098,55.593],[13.42084,55.59289],[13.42047,55.59284],[13.42044,55.59269],[13.42022,55.59244],[13.41989,55.59226],[13.41964,55.59221],[13.41945,55.59219],[13.41928,55.59196],[13.41933,55.59176],[13.41912,55.59171],[13.4189,55.59171],[13.41851,55.59178],[13.41826,55.59175],[13.41822,55.5918],[13.41814,55.59198],[13.4183,55.59224],[13.41852,55.59249],[13.41847,55.5927],[13.41824,55.59292],[13.4183,55.59312],[13.41841,55.5934],[13.41866,55.59359],[13.41887,55.59384],[13.41861,55.59403],[13.41824,55.59406],[13.41792,55.59412],[13.41751,55.59412],[13.41756,55.59425],[13.41772,55.59446],[13.41771,55.59472],[13.41777,55.59502],[13.41772,55.59529],[13.41796,55.59531],[13.41909,55.59515]]}}