{"type":"Feature","properties":{},"geometry":{"type":"LineString","coordinates":[[13.38983,55.90275],[13.38957,55.90265],[13.3893,55.90243],[13.38901,55.90218],[13.38861,55.90197],[13.38821,55.90181],[13.38785,55.90207],[13.38751,55.90232],[13.38717,55.90256],[13.38689,55.90289],[13.38649,55.90321],[13.3859,55.90342],[13.38534,55.90353],[13.38482,55.90371],[13.3844,55.90368],[13.38426,55.90338],[13.38385,55.90324],[13.38323,55.90329],[13.38272,55.90361],[13.38206,55.9038],[13.38143,55.90391],[13.38083,55.90402],[13.38039,55.90424],[13.3801,55.90455],[13.38052,55.90474],[13.38093,55.90488],[13.38101,55.90512],[13.38088,55.90533],[13.38057,55.90549],[13.38019,55.90563],[13.37978,55.90585],[13.37931,55.90603],[13.3788,55.90624],[13.3784,55.90637],[13.37796,55.90644],[13.37767,55.90666],[13.37719,55.90682],[13.37677,55.90677],[13.37646,55.90658],[13.37627,55.90663],[13.37635,55.90681],[13.37643,55.9071],[13.3765,55.90745],[13.37624,55.90769],[13.37604,55.9078],[13.37571,55.90781],[13.3754,55.90784],[13.37517,55.90791],[13.37498,55.90792],[13.37479,55.90799],[13.37444,55.90811],[13.37404,55.90829],[13.37382,55.90836],[13.37356,55.90832],[13.37313,55.90818],[13.3727,55.90824],[13.37231,55.9083],[13.37197,55.90829],[13.37165,55.90847],[13.37146,55.90862],[13.3712,55.90866],[13.37082,55.9087],[13.37048,55.90906],[13.37024,55.90927],[13.36992,55.9096],[13.36974,55.90979],[13.36949,55.90982],[13.36977,55.90984],[13.37011,55.90956],[13.37048,55.90917],[13.37082,55.90881],[13.37107,55.90862],[13.37136,55.90833],[13.3718,55.90802],[13.37178,55.9079],[13.3717,55.90783],[13.37146,55.90774],[13.37121,55.9076],[13.37111,55.90746],[13.37089,55.90723],[13.37069,55.90706],[13.37042,55.90683],[13.37033,55.90666],[13.37022,55.90651],[13.37022,55.90634],[13.37032,55.90611],[13.37042,55.90595],[13.37052,55.90572],[13.37052,55.90562],[13.37036,55.90555],[13.37072,55.90553],[13.37123,55.90556],[13.37177,55.90549],[13.37217,55.9055],[13.37238,55.9053],[13.37244,55.905],[13.37278,55.90489],[13.37336,55.90503],[13.37406,55.90513],[13.37451,55.90522],[13.37488,55.90511],[13.37527,55.90495],[13.37556,55.90498],[13.37614,55.90506],[13.37656,55.90509],[13.37701,55.90514],[13.37739,55.90526],[13.37788,55.90518],[13.37799,55.90514],[13.37816,55.90509],[13.37828,55.90484],[13.37831,55.90459],[13.3782,55.9044],[13.37818,55.90429],[13.37843,55.90416],[13.37904,55.904],[13.37964,55.90385],[13.3801,55.90367],[13.38057,55.90343],[13.38101,55.90316],[13.38137,55.90289],[13.38165,55.90263],[13.38176,55.90239],[13.38188,55.90206],[13.38201,55.90174],[13.38235,55.90152],[13.38251,55.90126],[13.38279,55.90118],[13.38311,55.90109],[13.3835,55.90113],[13.38383,55.90115],[13.38421,55.90122],[13.38462,55.90132],[13.38467,55.90143],[13.38487,55.90156],[13.38512,55.90172],[13.3852,55.90188],[13.38532,55.90198],[13.38535,55.90204],[13.38521,55.90212],[13.38537,55.90206],[13.38541,55.90187],[13.38533,55.90154],[13.38561,55.90133],[13.38584,55.90095],[13.38575,55.90067],[13.38518,55.9006],[13.38517,55.90036],[13.38505,55.90034],[13.38488,55.90022],[13.38458,55.90014],[13.38444,55.90006],[13.38439,55.89983],[13.38461,55.89969],[13.38493,55.89959],[13.38519,55.89955],[13.38525,55.89954],[13.38535,55.89949],[13.3857,55.89945],[13.38574,55.89929],[13.3857,55.89925],[13.38574,55.89932],[13.38563,55.89927],[13.38559,55.89918],[13.38568,55.89912],[13.3858,55.89898],[13.38607,55.89882],[13.38629,55.89878],[13.38662,55.89888],[13.3871,55.89902],[13.38765,55.89913],[13.38826,55.89928],[13.38881,55.89941],[13.38925,55.89951],[13.38987,55.89963],[13.3902,55.89972],[13.39077,55.89986],[13.39148,55.90004],[13.39216,55.90019],[13.39279,55.90032],[13.39305,55.90047],[13.39296,55.90064],[13.39251,55.90083],[13.39227,55.90118],[13.39206,55.90146],[13.39196,55.90144],[13.39153,55.90147],[13.39133,55.90174],[13.39167,55.90207],[13.39213,55.90238],[13.39251,55.90262],[13.39252,55.90289],[13.39212,55.90313],[13.39242,55.90337],[13.39227,55.90346],[13.39225,55.90371],[13.39192,55.90351],[13.39129,55.90354],[13.39094,55.90342],[13.38977,55.90327]]}}