{"type":"Feature","properties":{},"geometry":{"type":"LineString","coordinates":[[13.27285,56.00385],[13.27279,56.00405],[13.27249,56.00422],[13.27199,56.00448],[13.27115,56.00455],[13.27042,56.00478],[13.26985,56.00512],[13.26897,56.00516],[13.2677,56.00501],[13.26704,56.00462],[13.26639,56.00425],[13.26605,56.00402],[13.26529,56.00376],[13.26431,56.00355],[13.26334,56.00328],[13.26251,56.00296],[13.26145,56.00288],[13.26054,56.00277],[13.25962,56.00273],[13.25893,56.00282],[13.2582,56.00275],[13.25736,56.00263],[13.25647,56.00268],[13.25595,56.00263],[13.25505,56.00248],[13.25416,56.00257],[13.25315,56.00286],[13.2523,56.00304],[13.25179,56.00298],[13.25159,56.00277],[13.25132,56.00252],[13.25072,56.00222],[13.2503,56.00201],[13.24955,56.00179],[13.24909,56.0017],[13.24959,56.0015],[13.25047,56.00126],[13.25157,56.00103],[13.25245,56.0007],[13.25324,56.00025],[13.2541,55.99994],[13.25463,55.99984],[13.25564,55.99975],[13.25651,55.99987],[13.25738,55.9999],[13.25839,55.99973],[13.25946,55.99975],[13.26056,55.99957],[13.26143,55.99943],[13.26236,55.99943],[13.26285,55.99951],[13.26367,55.99925],[13.26464,55.99939],[13.26564,55.99986],[13.2663,56.00021],[13.26719,56.00053],[13.26865,56.00058],[13.26934,56.00037],[13.26922,55.99994],[13.26904,55.99978],[13.26935,56.00017],[13.26975,56.00061],[13.27097,56.00085],[13.27114,56.001],[13.27108,56.00141],[13.27114,56.00177],[13.27171,56.00214],[13.27295,56.00244],[13.27356,56.00245],[13.27351,56.00235],[13.27399,56.00222],[13.2739,56.00153],[13.27403,56.00079],[13.27378,56.0003],[13.27296,56.00005],[13.27258,55.9998],[13.27201,55.99931],[13.27187,55.99881],[13.27135,55.99852],[13.2708,55.99837],[13.2703,55.99802],[13.26966,55.99813],[13.26953,55.99878],[13.2687,55.99894],[13.26791,55.99876],[13.26666,55.9986],[13.26585,55.99838],[13.26469,55.99796],[13.26365,55.99754],[13.26254,55.99766],[13.26169,55.99774],[13.26104,55.99781],[13.26021,55.99765],[13.25931,55.99778],[13.25878,55.99803],[13.25881,55.99839],[13.25928,55.99866],[13.25964,55.99905],[13.2598,55.99936],[13.25997,55.99973],[13.26009,56.00011],[13.26007,56.00047],[13.26011,56.00072],[13.26004,56.00113],[13.25984,56.00178],[13.25969,56.00235],[13.2593,56.00275],[13.25948,56.0031],[13.2605,56.00287],[13.2613,56.00315],[13.26244,56.00301],[13.26348,56.00331],[13.26422,56.00356],[13.26519,56.00382],[13.26603,56.00416],[13.26644,56.0046],[13.26736,56.00503],[13.26867,56.00518],[13.26997,56.00514],[13.27106,56.00514],[13.272,56.00513],[13.27308,56.00538],[13.27411,56.00539],[13.27384,56.00473],[13.27341,56.00434],[13.27382,56.00393],[13.27397,56.00334],[13.27388,56.00289],[13.27366,56.00254],[13.27354,56.00244],[13.27465,56.0025],[13.27591,56.00255],[13.27641,56.00217],[13.27684,56.00188],[13.27722,56.00165],[13.27731,56.00138],[13.2772,56.00109],[13.27658,56.0007],[13.27594,56.00028],[13.27506,55.99979],[13.27467,55.99968],[13.2741,55.99947],[13.27366,55.99903],[13.27279,55.99864],[13.27225,55.99844],[13.27177,55.99816],[13.27113,55.99803],[13.2702,55.99805],[13.26941,55.99844],[13.26926,55.99876],[13.26857,55.99904],[13.2677,55.99868],[13.26644,55.99852],[13.26554,55.99845],[13.2649,55.99877],[13.26434,55.99905],[13.26387,55.99925],[13.26337,55.99944],[13.26292,55.9995],[13.2623,55.99975],[13.26202,55.99976],[13.2611,55.99949],[13.26029,55.9993],[13.25943,55.99915],[13.25961,55.99949],[13.25964,55.99982],[13.25974,56.00014],[13.25985,56.00056],[13.25993,56.00094],[13.25932,56.00144],[13.25925,56.00204],[13.25896,56.00256],[13.25896,56.00311],[13.25973,56.00323],[13.2609,56.0032],[13.26192,56.00315],[13.26255,56.00314],[13.26357,56.00308],[13.26468,56.00307],[13.26559,56.00248],[13.26625,56.00185],[13.26721,56.00164],[13.26753,56.00118],[13.26793,56.00076],[13.26825,56.00056],[13.26842,56.00028],[13.26891,55.9999],[13.26896,55.9999],[13.26875,56.00024],[13.26939,56.00055],[13.26978,56.00093],[13.26999,56.00133],[13.27044,56.00163],[13.27115,56.0017],[13.27164,56.0021],[13.27317,56.0024],[13.27352,56.00239],[13.27358,56.00245],[13.27366,56.00246],[13.27365,56.00241]]}}