{"type":"Feature","properties":{},"geometry":{"type":"LineString","coordinates":[[13.37938,55.90493],[13.37967,55.90493],[13.37967,55.9049],[13.38017,55.90512],[13.3807,55.90541],[13.38141,55.90548],[13.38159,55.90582],[13.38154,55.90621],[13.38172,55.90657],[13.38125,55.90695],[13.3808,55.9071],[13.38012,55.9074],[13.37951,55.9076],[13.37873,55.90784],[13.37785,55.90807],[13.3774,55.90856],[13.37658,55.90884],[13.37583,55.90915],[13.37514,55.90941],[13.37456,55.90953],[13.37377,55.90977],[13.37289,55.91007],[13.37213,55.91031],[13.37141,55.91065],[13.37075,55.91099],[13.37039,55.91113],[13.37002,55.91121],[13.36968,55.91147],[13.36955,55.91186],[13.36909,55.91187],[13.36898,55.91209],[13.36884,55.9123],[13.36865,55.91284],[13.36818,55.9131],[13.36775,55.9129],[13.36702,55.91269],[13.36636,55.91248],[13.36569,55.9123],[13.36582,55.91217],[13.36607,55.91198],[13.3666,55.91154],[13.36693,55.91107],[13.36717,55.91059],[13.36783,55.91027],[13.3682,55.90987],[13.36836,55.90951],[13.36881,55.909],[13.36958,55.90858],[13.36957,55.90851],[13.36958,55.90848],[13.36956,55.90849],[13.36959,55.90848],[13.36961,55.90848],[13.36962,55.90854],[13.36962,55.90852],[13.36967,55.90851],[13.3696,55.90848],[13.36959,55.90849],[13.36962,55.90852],[13.3696,55.90852],[13.36949,55.90861],[13.36897,55.90884],[13.36939,55.90873],[13.36967,55.90854],[13.36967,55.90855],[13.36962,55.90852],[13.36957,55.90855],[13.36964,55.90849],[13.36956,55.90846],[13.36955,55.90851],[13.36957,55.90848],[13.36966,55.90854],[13.36916,55.90874],[13.36865,55.90911],[13.36845,55.90942],[13.36872,55.90916],[13.36911,55.90883],[13.36952,55.90866],[13.36956,55.90858],[13.36963,55.90852],[13.36956,55.90848],[13.3696,55.90847],[13.36957,55.90849],[13.36965,55.90853],[13.36963,55.90855],[13.36991,55.90848],[13.37038,55.90827],[13.37081,55.90799],[13.37118,55.90778],[13.37185,55.90758],[13.37261,55.90741],[13.37324,55.90696],[13.37368,55.90643],[13.37429,55.90601],[13.37511,55.90616],[13.37604,55.90628],[13.37693,55.90612],[13.37786,55.90588],[13.37877,55.90564],[13.37937,55.90519],[13.37957,55.90498],[13.37962,55.90492],[13.37962,55.90492],[13.37961,55.90491],[13.37961,55.90493],[13.37963,55.90489],[13.37963,55.90491],[13.37938,55.90516],[13.3787,55.90565],[13.37772,55.90592],[13.37672,55.90612],[13.37572,55.90627],[13.37491,55.90607],[13.37404,55.90601],[13.37344,55.90633],[13.37267,55.90627],[13.37206,55.9063],[13.3716,55.90631],[13.37095,55.90629],[13.37027,55.9062],[13.36996,55.90599],[13.36975,55.90629],[13.36954,55.90678],[13.36992,55.90713],[13.37066,55.90753],[13.37104,55.90777],[13.37141,55.908],[13.372,55.90825],[13.37255,55.90855],[13.37296,55.90885],[13.3723,55.90901],[13.37161,55.90937],[13.37101,55.90977],[13.37055,55.91016],[13.3702,55.91049],[13.37021,55.91081],[13.36996,55.91119],[13.36957,55.91137],[13.36913,55.91146],[13.36837,55.91156],[13.36795,55.91194],[13.36746,55.91207],[13.36682,55.91233],[13.36623,55.91233],[13.36568,55.91228],[13.36575,55.91258],[13.36679,55.91286],[13.36777,55.91305],[13.36825,55.91313],[13.36883,55.91281],[13.36955,55.91245],[13.36991,55.91198],[13.37001,55.91151],[13.37032,55.91116],[13.37065,55.91098],[13.37144,55.91063],[13.37231,55.91033],[13.37307,55.91006],[13.37401,55.90986],[13.37493,55.90969],[13.37513,55.90941],[13.37594,55.90913],[13.3767,55.90882],[13.37717,55.9086],[13.37701,55.90835],[13.37696,55.90786],[13.37688,55.90761],[13.37652,55.90714],[13.37714,55.90685],[13.37791,55.90652],[13.37817,55.90617],[13.37863,55.90574],[13.37935,55.90523],[13.37959,55.90491],[13.37959,55.90489],[13.37939,55.9049],[13.37938,55.90493],[13.37947,55.90495],[13.37951,55.90494],[13.37951,55.90493],[13.37948,55.90493],[13.37947,55.90496],[13.3795,55.90495],[13.37949,55.90494],[13.37951,55.90493],[13.37952,55.90492],[13.3795,55.90493],[13.37948,55.90494],[13.3795,55.90493],[13.37943,55.90497],[13.37943,55.90497],[13.37941,55.90497],[13.37944,55.90495],[13.37943,55.90494],[13.37942,55.90496],[13.37943,55.90496],[13.37939,55.90497],[13.37942,55.90498],[13.37945,55.90498],[13.37946,55.90493]]}}