{"type":"Feature","properties":{},"geometry":{"type":"LineString","coordinates":[[11.99016,57.87604],[11.99044,57.87612],[11.99077,57.87609],[11.99121,57.87595],[11.99155,57.87581],[11.99188,57.87568],[11.99219,57.87559],[11.99261,57.87556],[11.99301,57.87557],[11.99347,57.87558],[11.99387,57.8756],[11.99422,57.8757],[11.99438,57.87589],[11.99485,57.87585],[11.99521,57.87587],[11.99548,57.87585],[11.99572,57.87591],[11.996,57.87593],[11.99614,57.87581],[11.99616,57.87565],[11.99607,57.87551],[11.99596,57.87534],[11.99587,57.87519],[11.99589,57.87506],[11.99622,57.875],[11.99659,57.87496],[11.99691,57.87493],[11.99735,57.87495],[11.99782,57.87497],[11.99824,57.87485],[11.9984,57.87459],[11.99858,57.87433],[11.99868,57.87407],[11.99882,57.87384],[11.99928,57.87375],[11.9998,57.87368],[12.0003,57.87364],[12.00068,57.8735],[12.00116,57.87327],[12.00145,57.87318],[12.00188,57.87301],[12.00242,57.87292],[12.00298,57.87297],[12.00345,57.87302],[12.00395,57.87302],[12.00445,57.87299],[12.00504,57.87298],[12.00557,57.87295],[12.00609,57.87296],[12.0066,57.87296],[12.00712,57.87293],[12.00734,57.87275],[12.00725,57.87247],[12.00716,57.87222],[12.00712,57.87198],[12.00711,57.87176],[12.00717,57.87152],[12.00737,57.87133],[12.00776,57.87117],[12.00813,57.8711],[12.00864,57.87109],[12.00894,57.87126],[12.00926,57.87148],[12.0096,57.87166],[12.00992,57.87182],[12.0103,57.87194],[12.0105,57.87217],[12.01053,57.87239],[12.0107,57.87259],[12.01114,57.87271],[12.01145,57.87288],[12.01183,57.87308],[12.01211,57.87328],[12.01241,57.87352],[12.0128,57.87369],[12.01322,57.87391],[12.01358,57.87409],[12.01396,57.8743],[12.01426,57.87448],[12.01458,57.87466],[12.01486,57.87484],[12.01522,57.87504],[12.01555,57.87523],[12.01575,57.87544],[12.01592,57.87567],[12.01612,57.87594],[12.01652,57.87612],[12.01705,57.87624],[12.01754,57.87635],[12.01795,57.87654],[12.01823,57.87675],[12.01855,57.87695],[12.01875,57.87717],[12.01845,57.87729],[12.01804,57.87733],[12.01757,57.8774],[12.01715,57.87751],[12.01669,57.87759],[12.01629,57.87766],[12.01629,57.8779],[12.01635,57.87817],[12.01653,57.87841],[12.01683,57.87867],[12.01713,57.8789],[12.01721,57.87917],[12.01715,57.87943],[12.01707,57.87972],[12.01673,57.87982],[12.01626,57.87981],[12.0159,57.87971],[12.01544,57.87952],[12.01503,57.87935],[12.01467,57.87917],[12.01449,57.87899],[12.0141,57.87882],[12.01384,57.87863],[12.01363,57.87839],[12.0133,57.87826],[12.01294,57.87818],[12.0126,57.87802],[12.01225,57.87789],[12.01196,57.87776],[12.01165,57.87769],[12.01128,57.8776],[12.01083,57.87752],[12.01042,57.87748],[12.01002,57.87764],[12.00991,57.8779],[12.00989,57.8782],[12.01025,57.87836],[12.01071,57.87829],[12.01112,57.87827],[12.01135,57.87842],[12.0115,57.87865],[12.01159,57.87887],[12.01144,57.87913],[12.01114,57.87934],[12.01073,57.87953],[12.01025,57.87955],[12.00968,57.87951],[12.0092,57.87947],[12.00869,57.87943],[12.00825,57.87936],[12.00776,57.87934],[12.00726,57.87941],[12.00669,57.87947],[12.0062,57.87949],[12.00567,57.87957],[12.00524,57.87973],[12.00472,57.87981],[12.0042,57.87983],[12.00372,57.8798],[12.00328,57.87976],[12.00275,57.87983],[12.00228,57.87996],[12.00179,57.8801],[12.00134,57.8801],[12.00098,57.87994],[12.00065,57.87977],[12.00021,57.87965],[11.99981,57.87958],[11.99938,57.87953],[11.99896,57.87947],[11.99878,57.87941],[11.99901,57.87939],[11.99932,57.87938],[11.9996,57.87936],[11.99987,57.87931],[12.00015,57.8793],[12.00042,57.87931],[12.00086,57.87933],[12.00125,57.87937],[12.00159,57.87921],[12.00189,57.87905],[12.00191,57.87879],[12.00154,57.87869],[12.00104,57.87865],[12.00065,57.87855],[12.0003,57.87846],[12.00004,57.87842],[11.9997,57.87829],[11.99931,57.87816],[11.99889,57.87804],[11.99854,57.87796],[11.99819,57.87789],[11.99785,57.87779],[11.9974,57.87766],[11.99703,57.87748],[11.99698,57.87724],[11.99724,57.87707],[11.99755,57.87694],[11.99785,57.87682],[11.99815,57.87669],[11.99833,57.8765],[11.9983,57.87623],[11.9983,57.87595],[11.99858,57.87575],[11.99872,57.87551],[11.99865,57.87525],[11.99818,57.87496]]}}