{"type":"Feature","properties":{},"geometry":{"type":"LineString","coordinates":[[12.83879,55.38857],[12.83829,55.38823],[12.8372,55.38796],[12.83651,55.38759],[12.83619,55.38737],[12.8366,55.38766],[12.83728,55.38803],[12.83839,55.38827],[12.83944,55.38853],[12.84023,55.38855],[12.84059,55.38883],[12.84148,55.3892],[12.8422,55.38955],[12.84229,55.39017],[12.84276,55.39082],[12.84346,55.39129],[12.84329,55.39137],[12.84413,55.39117],[12.84486,55.39066],[12.84565,55.39069],[12.84646,55.39082],[12.84699,55.39073],[12.84783,55.39059],[12.84866,55.39083],[12.84875,55.3914],[12.84979,55.39168],[12.85074,55.39198],[12.85138,55.39219],[12.85039,55.39216],[12.84923,55.39215],[12.84823,55.39208],[12.84722,55.39171],[12.84637,55.3914],[12.84583,55.39145],[12.84553,55.39097],[12.84506,55.39073],[12.84462,55.39048],[12.84363,55.39004],[12.84291,55.38951],[12.84282,55.38925],[12.84261,55.38935],[12.84237,55.38982],[12.84206,55.3904],[12.84136,55.39082],[12.84061,55.39111],[12.84012,55.39164],[12.83951,55.39209],[12.83862,55.39205],[12.83788,55.39186],[12.83669,55.39166],[12.83562,55.39163],[12.83537,55.39166],[12.83544,55.39172],[12.83472,55.39126],[12.83475,55.39055],[12.83493,55.38982],[12.83529,55.38939],[12.83594,55.38926],[12.83622,55.38886],[12.83706,55.38857],[12.83792,55.38829],[12.83841,55.38802],[12.83835,55.3881],[12.83869,55.38866],[12.83923,55.38915],[12.83989,55.38962],[12.83975,55.39005],[12.84027,55.39034],[12.84006,55.39049],[12.8404,55.3909],[12.84063,55.39138],[12.84154,55.39185],[12.84215,55.3924],[12.84151,55.39292],[12.84137,55.3932],[12.84185,55.39332],[12.84263,55.39394],[12.84366,55.39405],[12.84487,55.39377],[12.84603,55.39348],[12.84713,55.39318],[12.84771,55.39335],[12.84834,55.39365],[12.84829,55.39308],[12.84802,55.39247],[12.84772,55.39202],[12.84696,55.39153],[12.84605,55.39135],[12.8464,55.39143],[12.84715,55.39156],[12.84838,55.39136],[12.84941,55.39162],[12.84997,55.39154],[12.85038,55.39129],[12.85005,55.39124],[12.84935,55.39101],[12.84854,55.39075],[12.84775,55.39054],[12.84732,55.39075],[12.84692,55.39097],[12.84595,55.39103],[12.84496,55.39081],[12.84431,55.39058],[12.84315,55.39032],[12.84239,55.39018],[12.8419,55.39],[12.84149,55.39008],[12.84058,55.39045],[12.84028,55.39077],[12.83955,55.39118],[12.83908,55.39168],[12.83852,55.39144],[12.83725,55.39153],[12.83598,55.39171],[12.83558,55.39163],[12.83532,55.39165],[12.83504,55.39199],[12.83384,55.3921],[12.83315,55.39163],[12.8322,55.39173],[12.83114,55.39143],[12.83023,55.39177],[12.82907,55.39198],[12.82904,55.39178],[12.82932,55.39123],[12.82951,55.39056],[12.82965,55.38989],[12.82987,55.38915],[12.8301,55.38863],[12.83048,55.3883],[12.8316,55.38839],[12.83238,55.38816],[12.83301,55.38794],[12.83251,55.38809],[12.83205,55.38844],[12.831,55.3882],[12.82993,55.38799],[12.82895,55.38757],[12.82829,55.38717],[12.82836,55.38676],[12.8289,55.38661],[12.82868,55.38632],[12.82918,55.38576],[12.82886,55.38526],[12.82859,55.38479],[12.82855,55.38472],[12.8285,55.38492],[12.82916,55.38546],[12.83011,55.38585],[12.8311,55.38613],[12.83159,55.38595],[12.83187,55.38607],[12.83184,55.38613],[12.83244,55.38631],[12.83305,55.38659],[12.83316,55.38704],[12.83298,55.38751],[12.83247,55.3881],[12.83158,55.38834],[12.83047,55.38821],[12.83008,55.38883],[12.83048,55.38948],[12.83027,55.39008],[12.83026,55.39026],[12.83129,55.39022],[12.83241,55.38991],[12.83318,55.38973],[12.83437,55.38964],[12.83503,55.38923],[12.83539,55.38865],[12.83661,55.38862],[12.83772,55.38864],[12.8383,55.38816],[12.83851,55.388],[12.83791,55.38836],[12.83738,55.38896],[12.83741,55.38941],[12.83765,55.38999],[12.83831,55.39048],[12.83769,55.39026],[12.83666,55.39057],[12.83607,55.39109],[12.83561,55.39165],[12.83548,55.39164],[12.8355,55.39164],[12.83547,55.39165],[12.83553,55.39168],[12.83553,55.39167],[12.83532,55.39166],[12.83533,55.39167],[12.83534,55.39168],[12.83534,55.39167],[12.83533,55.39168],[12.83534,55.39167],[12.83532,55.39166],[12.83533,55.39167],[12.83533,55.39167],[12.83542,55.39164],[12.83533,55.39167],[12.83532,55.39167]]}}