{"type":"Feature","properties":{},"geometry":{"type":"LineString","coordinates":[[14.19982,57.72137],[14.20017,57.72133],[14.20054,57.72126],[14.20073,57.72111],[14.20086,57.72085],[14.20091,57.72042],[14.20103,57.72012],[14.20119,57.71992],[14.20112,57.71954],[14.20135,57.71931],[14.20166,57.71907],[14.20213,57.71896],[14.20282,57.71898],[14.20325,57.71888],[14.20371,57.71871],[14.20404,57.7186],[14.20442,57.71859],[14.20487,57.71863],[14.20512,57.7187],[14.20549,57.71869],[14.20592,57.71857],[14.20655,57.71856],[14.20692,57.71863],[14.20744,57.71865],[14.20773,57.71863],[14.20782,57.71844],[14.20791,57.71804],[14.20809,57.71787],[14.20824,57.71775],[14.20838,57.71748],[14.2087,57.71728],[14.20891,57.717],[14.20915,57.71683],[14.20955,57.7166],[14.20974,57.71644],[14.21,57.71632],[14.21008,57.71603],[14.21026,57.71591],[14.21051,57.71579],[14.21087,57.71567],[14.21123,57.71573],[14.21177,57.71574],[14.21227,57.71568],[14.21271,57.71547],[14.2131,57.71542],[14.21343,57.71521],[14.21369,57.71515],[14.2141,57.71504],[14.21477,57.71502],[14.21502,57.71491],[14.2154,57.71484],[14.21575,57.71486],[14.21605,57.71481],[14.21635,57.71473],[14.21653,57.71459],[14.21655,57.71437],[14.21665,57.71419],[14.21705,57.71415],[14.21738,57.71421],[14.21798,57.71423],[14.21835,57.71434],[14.21883,57.71439],[14.2193,57.71445],[14.2197,57.7146],[14.21994,57.71464],[14.2202,57.71467],[14.22019,57.71476],[14.22036,57.7149],[14.22059,57.71484],[14.22062,57.71472],[14.22066,57.71452],[14.22065,57.71431],[14.22068,57.71414],[14.22072,57.714],[14.22085,57.71382],[14.22089,57.71345],[14.22132,57.71313],[14.22149,57.71284],[14.22178,57.71247],[14.22198,57.71207],[14.222,57.71183],[14.22225,57.71174],[14.22211,57.71148],[14.22177,57.71119],[14.22152,57.71075],[14.22168,57.71057],[14.22192,57.71049],[14.22213,57.71038],[14.22245,57.71031],[14.22268,57.71024],[14.22286,57.71018],[14.22301,57.71008],[14.22321,57.71013],[14.22335,57.71011],[14.22339,57.71001],[14.2235,57.70986],[14.22359,57.70977],[14.22346,57.70969],[14.22323,57.70958],[14.22305,57.70947],[14.22283,57.7094],[14.2226,57.70936],[14.22235,57.7093],[14.22218,57.70924],[14.2221,57.70912],[14.22198,57.70908],[14.22192,57.70913],[14.22177,57.70917],[14.22169,57.70914],[14.22156,57.70914],[14.22105,57.70924],[14.2204,57.70921],[14.22003,57.7091],[14.21966,57.70895],[14.21911,57.70868],[14.2189,57.70868],[14.21834,57.70857],[14.21752,57.70855],[14.21709,57.70863],[14.21638,57.70888],[14.21598,57.70903],[14.21574,57.70912],[14.21546,57.70915],[14.21519,57.70923],[14.21496,57.7094],[14.21468,57.7097],[14.2143,57.7098],[14.21396,57.70992],[14.21355,57.70991],[14.21313,57.7098],[14.21291,57.70979],[14.21256,57.70981],[14.21224,57.70983],[14.21204,57.70974],[14.21164,57.70976],[14.21139,57.70972],[14.21098,57.70966],[14.21061,57.70969],[14.21008,57.7096],[14.20965,57.70941],[14.20913,57.70939],[14.20864,57.70943],[14.20828,57.70945],[14.20786,57.7094],[14.20764,57.70938],[14.20745,57.70932],[14.2072,57.70924],[14.20701,57.70898],[14.20684,57.70885],[14.2066,57.70874],[14.20629,57.70864],[14.20605,57.70881],[14.20582,57.70891],[14.20552,57.70901],[14.20516,57.70908],[14.20476,57.70905],[14.20437,57.70909],[14.20389,57.70909],[14.20342,57.70916],[14.20295,57.70909],[14.20228,57.7092],[14.20148,57.70932],[14.20082,57.70943],[14.20042,57.70958],[14.20003,57.70991],[14.19951,57.71032],[14.19924,57.71052],[14.19925,57.71067],[14.19906,57.71084],[14.19913,57.71101],[14.19909,57.71114],[14.19883,57.7112],[14.19873,57.71129],[14.1986,57.71124],[14.19833,57.71119],[14.19802,57.71101],[14.19792,57.71068],[14.19778,57.71021],[14.19718,57.70984],[14.19626,57.70975],[14.19534,57.70984],[14.19459,57.70984],[14.19435,57.71006],[14.19426,57.71027],[14.19398,57.71034],[14.19369,57.71041],[14.19344,57.71037],[14.19311,57.71014],[14.1928,57.70987],[14.19228,57.70963],[14.19135,57.70946],[14.19095,57.7091],[14.19103,57.70858],[14.19116,57.70809],[14.19126,57.70762],[14.19119,57.70712],[14.19087,57.70676],[14.18994,57.70672],[14.18935,57.7067],[14.18925,57.70669]]}}