{"type":"Feature","properties":{},"geometry":{"type":"LineString","coordinates":[[11.99084,57.87614],[11.99103,57.87618],[11.99126,57.87635],[11.99161,57.87654],[11.99193,57.87667],[11.99234,57.87666],[11.99275,57.87662],[11.99309,57.87649],[11.99347,57.87635],[11.9939,57.87622],[11.9943,57.8761],[11.99467,57.87599],[11.99505,57.87589],[11.99529,57.87584],[11.99555,57.87586],[11.9958,57.87591],[11.99604,57.87589],[11.99614,57.87578],[11.99615,57.87563],[11.99607,57.87548],[11.99597,57.87533],[11.99585,57.87514],[11.99599,57.87504],[11.99623,57.875],[11.99649,57.87498],[11.99676,57.87496],[11.99706,57.87493],[11.99752,57.87496],[11.99797,57.87498],[11.99826,57.87482],[11.99839,57.87457],[11.99857,57.87433],[11.99865,57.87408],[11.9988,57.87387],[11.99923,57.87375],[11.9997,57.8737],[12.00017,57.87367],[12.00058,57.87355],[12.00082,57.87341],[12.00134,57.87317],[12.00171,57.87304],[12.00207,57.87293],[12.00255,57.8729],[12.003,57.87295],[12.00347,57.87302],[12.00389,57.87303],[12.00435,57.873],[12.00484,57.87299],[12.00534,57.87297],[12.00583,57.87297],[12.00634,57.87299],[12.00685,57.87296],[12.00728,57.87288],[12.00724,57.87263],[12.00715,57.87237],[12.00708,57.87212],[12.00704,57.87188],[12.00712,57.87166],[12.00721,57.87142],[12.00753,57.87127],[12.00791,57.87114],[12.00834,57.87107],[12.00879,57.87114],[12.00901,57.87132],[12.00936,57.8715],[12.00967,57.87169],[12.01002,57.87183],[12.01038,57.87199],[12.01054,57.8722],[12.01054,57.87243],[12.01084,57.87262],[12.01125,57.87276],[12.01161,57.87296],[12.01198,57.87316],[12.01221,57.87336],[12.01255,57.87356],[12.01291,57.87377],[12.01327,57.87396],[12.01364,57.87415],[12.01398,57.87433],[12.01425,57.87451],[12.01458,57.87466],[12.01492,57.87487],[12.01526,57.87508],[12.01561,57.87527],[12.01581,57.87547],[12.01599,57.87572],[12.01619,57.87595],[12.01659,57.87612],[12.01708,57.87623],[12.01753,57.87634],[12.0179,57.87649],[12.01817,57.8767],[12.01844,57.8769],[12.01864,57.87714],[12.01845,57.87726],[12.01804,57.87732],[12.01759,57.87742],[12.01715,57.8775],[12.01673,57.87759],[12.01629,57.87766],[12.01623,57.87789],[12.01634,57.87816],[12.01654,57.87842],[12.01683,57.87867],[12.01711,57.87892],[12.01719,57.87917],[12.01714,57.87943],[12.01714,57.87969],[12.01679,57.87983],[12.01635,57.87984],[12.01596,57.87973],[12.01554,57.87956],[12.0151,57.8794],[12.01474,57.87923],[12.01451,57.87904],[12.01419,57.87887],[12.01387,57.87871],[12.01372,57.87848],[12.01335,57.8783],[12.01291,57.87817],[12.01255,57.87801],[12.01221,57.8779],[12.01192,57.87776],[12.01158,57.87764],[12.01121,57.87755],[12.0108,57.87749],[12.01037,57.87748],[12.01002,57.8777],[12.00987,57.87797],[12.0099,57.87825],[12.01036,57.87835],[12.01084,57.87828],[12.01127,57.87833],[12.01142,57.87855],[12.01155,57.87881],[12.01146,57.87907],[12.01119,57.87931],[12.01083,57.87949],[12.01033,57.87955],[12.00981,57.87954],[12.00932,57.87948],[12.00886,57.87943],[12.00844,57.87937],[12.00796,57.87933],[12.00748,57.87939],[12.00696,57.87945],[12.00645,57.87952],[12.00593,57.87952],[12.00549,57.87962],[12.00507,57.87978],[12.00455,57.87983],[12.00404,57.87985],[12.00359,57.87978],[12.00311,57.87978],[12.00262,57.87984],[12.00216,57.88],[12.00172,57.88011],[12.00128,57.88009],[12.00098,57.87991],[12.00065,57.87975],[12.00029,57.87967],[11.99985,57.87959],[11.99944,57.87951],[11.999,57.87946],[11.99886,57.87941],[11.99924,57.87938],[11.99968,57.87933],[12.00011,57.87928],[12.00056,57.8793],[12.00094,57.87935],[12.00134,57.8794],[12.00163,57.87922],[12.00193,57.87906],[12.00194,57.8788],[12.00161,57.87867],[12.00118,57.87866],[12.00078,57.87859],[12.00042,57.87851],[12.00008,57.87841],[11.99972,57.87829],[11.99932,57.87818],[11.99892,57.87807],[11.99858,57.87797],[11.99825,57.87789],[11.99789,57.87779],[11.99746,57.87767],[11.99708,57.87751],[11.99699,57.87727],[11.99721,57.8771],[11.9975,57.87695],[11.99782,57.87683],[11.99811,57.87671],[11.99833,57.87653],[11.99835,57.87629],[11.99827,57.87602],[11.99849,57.87582],[11.99872,57.87561],[11.99868,57.87535],[11.99819,57.87496]]}}