{"type":"Feature","properties":{},"geometry":{"type":"LineString","coordinates":[[13.20616,55.55424],[13.20521,55.55415],[13.20482,55.55391],[13.20427,55.55381],[13.20401,55.55356],[13.20371,55.55335],[13.20352,55.55318],[13.20289,55.55312],[13.20237,55.55317],[13.20209,55.55351],[13.20175,55.55388],[13.20188,55.55421],[13.20209,55.55445],[13.20237,55.55472],[13.20249,55.55502],[13.20235,55.55529],[13.20228,55.55543],[13.2021,55.55558],[13.20198,55.55573],[13.20214,55.55596],[13.20186,55.5562],[13.20135,55.5564],[13.2009,55.55662],[13.2006,55.55654],[13.20032,55.55651],[13.20067,55.55674],[13.20073,55.55688],[13.20094,55.55713],[13.20123,55.55738],[13.20179,55.55756],[13.20184,55.55794],[13.20203,55.55824],[13.20232,55.55815],[13.20232,55.55793],[13.20225,55.55792],[13.20226,55.55801],[13.2023,55.55805],[13.2022,55.55807],[13.20217,55.55809],[13.20254,55.55803],[13.20296,55.55799],[13.20326,55.5578],[13.20362,55.55773],[13.20421,55.55762],[13.20457,55.55753],[13.20513,55.55736],[13.20548,55.55725],[13.2055,55.55723],[13.20564,55.55725],[13.20567,55.55737],[13.20576,55.55763],[13.20576,55.55779],[13.20594,55.55804],[13.20611,55.55831],[13.20632,55.55861],[13.20648,55.55877],[13.20692,55.55889],[13.207,55.55897],[13.20678,55.5588],[13.20609,55.55886],[13.20546,55.5591],[13.20501,55.55945],[13.20442,55.55966],[13.20404,55.55972],[13.20369,55.56006],[13.20353,55.56034],[13.20331,55.56045],[13.20322,55.56072],[13.20326,55.56072],[13.20297,55.5607],[13.20269,55.56077],[13.20239,55.5606],[13.20204,55.56065],[13.20219,55.56084],[13.2026,55.56094],[13.20289,55.56101],[13.20323,55.56123],[13.20357,55.56134],[13.20391,55.56146],[13.20423,55.56143],[13.2046,55.56147],[13.20509,55.5615],[13.20525,55.5614],[13.20531,55.56113],[13.20544,55.56094],[13.20549,55.5607],[13.20564,55.56048],[13.20571,55.56025],[13.20584,55.5601],[13.20599,55.56011],[13.20639,55.56014],[13.20701,55.56016],[13.20731,55.56013],[13.20779,55.5599],[13.20834,55.55968],[13.20866,55.55954],[13.2092,55.55958],[13.20978,55.55932],[13.21027,55.55899],[13.21092,55.55886],[13.21153,55.5587],[13.21197,55.5586],[13.21206,55.55874],[13.21246,55.55881],[13.21287,55.55896],[13.21311,55.55903],[13.2135,55.5592],[13.21411,55.55934],[13.21463,55.5594],[13.21534,55.55935],[13.21592,55.55934],[13.21606,55.55948],[13.21625,55.55979],[13.21691,55.55978],[13.21755,55.55978],[13.21791,55.55967],[13.21837,55.55942],[13.21891,55.55937],[13.21916,55.55939],[13.21969,55.55927],[13.22021,55.5591],[13.2207,55.55878],[13.22098,55.55834],[13.22121,55.5581],[13.22141,55.55793],[13.22181,55.5577],[13.222,55.55733],[13.22194,55.55708],[13.22142,55.55698],[13.22082,55.55678],[13.22033,55.55661],[13.22003,55.55659],[13.21975,55.55651],[13.21939,55.55639],[13.2189,55.5563],[13.21845,55.55624],[13.21806,55.55613],[13.2177,55.55624],[13.21733,55.55627],[13.21738,55.55618],[13.21705,55.55589],[13.21671,55.55585],[13.21612,55.55566],[13.21575,55.55543],[13.21537,55.5553],[13.21505,55.55523],[13.2148,55.55512],[13.21464,55.55497],[13.21488,55.55487],[13.21536,55.55463],[13.21582,55.55444],[13.2162,55.55422],[13.21665,55.5541],[13.2172,55.55397],[13.21749,55.55389],[13.2178,55.55372],[13.21797,55.55359],[13.2181,55.55345],[13.21815,55.55341],[13.21827,55.55334],[13.21842,55.55327],[13.21835,55.55308],[13.21839,55.553],[13.21836,55.55296],[13.21822,55.55267],[13.21797,55.55231],[13.21773,55.55205],[13.21766,55.55185],[13.21716,55.55159],[13.2172,55.55134],[13.21731,55.55112],[13.21715,55.55105],[13.2171,55.55097],[13.21703,55.55096],[13.21715,55.55098],[13.21697,55.55094],[13.21681,55.55093],[13.2164,55.55085],[13.21587,55.55094],[13.21525,55.55098],[13.2148,55.55117],[13.21456,55.55138],[13.21426,55.55154],[13.21374,55.55137],[13.21305,55.55126],[13.21241,55.55137],[13.21205,55.55176],[13.21184,55.55214],[13.2115,55.5526],[13.21114,55.55301],[13.21057,55.55308],[13.20982,55.55328],[13.20906,55.55355],[13.20842,55.55337],[13.20775,55.55334],[13.20711,55.55336],[13.20676,55.55304],[13.20654,55.55293],[13.20641,55.55318],[13.20609,55.5541]]}}