{"type":"Feature","properties":{},"geometry":{"type":"LineString","coordinates":[[13.35336,55.67518],[13.35341,55.6752],[13.35347,55.67543],[13.35359,55.67548],[13.35419,55.67559],[13.35483,55.67561],[13.35547,55.67553],[13.35621,55.67539],[13.35689,55.67538],[13.35761,55.67534],[13.35839,55.67546],[13.3586,55.67578],[13.35832,55.67612],[13.35855,55.67642],[13.35869,55.67684],[13.35901,55.67719],[13.35898,55.6776],[13.35892,55.67794],[13.35937,55.67822],[13.35989,55.67854],[13.36035,55.67861],[13.36037,55.67865],[13.3607,55.67879],[13.3613,55.67879],[13.36204,55.67881],[13.36236,55.67913],[13.36244,55.67957],[13.36254,55.6801],[13.36279,55.68051],[13.3636,55.68049],[13.36441,55.68046],[13.3652,55.68045],[13.36604,55.68043],[13.36665,55.68048],[13.3668,55.68078],[13.36675,55.68085],[13.3664,55.68111],[13.36574,55.68122],[13.36498,55.68136],[13.36427,55.68148],[13.36369,55.68153],[13.36344,55.68161],[13.36279,55.68159],[13.36264,55.68194],[13.362,55.6821],[13.36169,55.68209],[13.36141,55.68205],[13.36089,55.68211],[13.36017,55.68213],[13.35999,55.68207],[13.35941,55.68197],[13.35894,55.68171],[13.3586,55.68148],[13.35835,55.68131],[13.3582,55.68129],[13.35802,55.68134],[13.35764,55.68143],[13.3574,55.6816],[13.35702,55.68147],[13.35715,55.68138],[13.3569,55.6811],[13.35685,55.68066],[13.35678,55.68018],[13.35677,55.67964],[13.35674,55.67915],[13.35671,55.67868],[13.35721,55.67854],[13.35733,55.67843],[13.35723,55.67819],[13.35728,55.67769],[13.35676,55.67726],[13.3562,55.67694],[13.35527,55.6768],[13.3546,55.67661],[13.35457,55.6762],[13.35461,55.67571],[13.3539,55.67549],[13.35332,55.67523],[13.35333,55.67524],[13.35298,55.67558],[13.35275,55.67596],[13.35276,55.67648],[13.3533,55.67674],[13.35354,55.67713],[13.35404,55.67738],[13.35431,55.67757],[13.35474,55.67775],[13.35565,55.67775],[13.35628,55.67778],[13.35623,55.67812],[13.35647,55.67831],[13.35658,55.67871],[13.35659,55.67918],[13.35668,55.6797],[13.35673,55.6802],[13.35688,55.68066],[13.35742,55.68074],[13.3578,55.68076],[13.35818,55.68093],[13.35859,55.68115],[13.35876,55.68124],[13.35878,55.68142],[13.35871,55.68153],[13.35884,55.68162],[13.3586,55.6817],[13.35859,55.68164],[13.35848,55.68157],[13.35891,55.6816],[13.35889,55.68161],[13.3591,55.68176],[13.35935,55.68182],[13.35937,55.6818],[13.35891,55.68174],[13.35847,55.6818],[13.35804,55.6818],[13.35815,55.68189],[13.35846,55.68198],[13.35911,55.6821],[13.35974,55.68234],[13.36031,55.68253],[13.36089,55.68275],[13.36141,55.68269],[13.36206,55.68254],[13.36263,55.6824],[13.36285,55.68225],[13.36307,55.68223],[13.36347,55.68217],[13.36377,55.68211],[13.36421,55.68205],[13.3646,55.682],[13.36507,55.68204],[13.36539,55.68216],[13.36573,55.68213],[13.36636,55.68206],[13.367,55.682],[13.36761,55.68195],[13.36835,55.68181],[13.36887,55.6815],[13.3693,55.68125],[13.36971,55.68109],[13.36997,55.68101],[13.36998,55.68101],[13.37042,55.68101],[13.37105,55.68097],[13.37147,55.68101],[13.37188,55.68106],[13.37261,55.68112],[13.37307,55.6811],[13.37342,55.68101],[13.37304,55.68087],[13.37247,55.68078],[13.37184,55.68083],[13.37154,55.68051],[13.37128,55.68018],[13.37048,55.68021],[13.36971,55.68021],[13.36883,55.68025],[13.36792,55.68028],[13.36709,55.6803],[13.36619,55.68033],[13.36531,55.68037],[13.36444,55.6804],[13.36355,55.68043],[13.36265,55.68048],[13.36203,55.68049],[13.36121,55.68054],[13.36077,55.68046],[13.36043,55.68021],[13.36009,55.68024],[13.35971,55.68028],[13.3596,55.68024],[13.35948,55.68006],[13.3594,55.67988],[13.35928,55.67983],[13.35924,55.6797],[13.35897,55.67951],[13.35862,55.67937],[13.35791,55.67935],[13.35749,55.67933],[13.35736,55.67905],[13.35704,55.67891],[13.35673,55.67857],[13.35628,55.67835],[13.35611,55.67794],[13.356,55.67772],[13.35578,55.67737],[13.35542,55.677],[13.355,55.6767],[13.35462,55.67632],[13.3542,55.67594],[13.35372,55.67564],[13.35329,55.67534],[13.35348,55.67522],[13.35344,55.67519],[13.35332,55.67518],[13.35361,55.67512],[13.35374,55.67499],[13.35373,55.67503],[13.35376,55.67503],[13.35416,55.67519]]}}