{"type":"Feature","properties":{},"geometry":{"type":"LineString","coordinates":[[11.88584,57.88036],[11.88584,57.88073],[11.88531,57.88112],[11.88482,57.8817],[11.88448,57.88203],[11.88406,57.88206],[11.88354,57.88201],[11.88298,57.88192],[11.88234,57.88198],[11.88192,57.88228],[11.88173,57.88258],[11.88185,57.88271],[11.88215,57.88268],[11.8821,57.88264],[11.88197,57.88266],[11.88143,57.88295],[11.88062,57.883],[11.88002,57.88326],[11.87936,57.88353],[11.87904,57.88369],[11.87911,57.88361],[11.87858,57.88366],[11.87809,57.88384],[11.87756,57.88397],[11.87717,57.88401],[11.87691,57.88383],[11.87683,57.88381],[11.87643,57.88388],[11.87583,57.8839],[11.87518,57.88383],[11.87457,57.88383],[11.87373,57.88421],[11.8729,57.88439],[11.872,57.88416],[11.87106,57.88434],[11.87046,57.88416],[11.87021,57.88418],[11.87038,57.88413],[11.87052,57.88406],[11.87017,57.88419],[11.87016,57.88426],[11.87011,57.88447],[11.86953,57.88463],[11.86908,57.8848],[11.86862,57.88494],[11.86807,57.88495],[11.86772,57.88508],[11.86731,57.8851],[11.86703,57.8852],[11.86692,57.88524],[11.86695,57.88529],[11.86685,57.88503],[11.86648,57.88464],[11.86646,57.88442],[11.8663,57.88414],[11.86626,57.8839],[11.86632,57.88371],[11.86641,57.88359],[11.86614,57.88325],[11.86613,57.88301],[11.86612,57.8828],[11.86611,57.88255],[11.86609,57.88235],[11.86599,57.88217],[11.86579,57.882],[11.86535,57.88183],[11.86505,57.88158],[11.86455,57.88136],[11.86444,57.88127],[11.86456,57.88113],[11.86468,57.88104],[11.86479,57.88105],[11.86483,57.881],[11.86474,57.88085],[11.86442,57.88053],[11.86429,57.88033],[11.86433,57.88018],[11.86434,57.87995],[11.8641,57.87977],[11.86376,57.87963],[11.86334,57.87958],[11.86313,57.87925],[11.86269,57.87897],[11.86239,57.87887],[11.86241,57.87881],[11.86241,57.87893],[11.86313,57.87914],[11.86375,57.87929],[11.86436,57.8794],[11.86517,57.87958],[11.8656,57.87975],[11.86626,57.87995],[11.86699,57.88011],[11.86748,57.88012],[11.86781,57.88029],[11.86818,57.88034],[11.86823,57.88032],[11.86837,57.88026],[11.86888,57.88019],[11.86922,57.88013],[11.87007,57.88009],[11.87075,57.88016],[11.87116,57.88002],[11.87141,57.88018],[11.87174,57.88051],[11.87224,57.88061],[11.87305,57.88083],[11.8733,57.88079],[11.87302,57.88082],[11.87271,57.88066],[11.8721,57.88056],[11.87143,57.88025],[11.871,57.87999],[11.87066,57.87972],[11.87077,57.87951],[11.87092,57.87928],[11.87116,57.87909],[11.8709,57.8789],[11.87041,57.87872],[11.87021,57.87855],[11.86978,57.87831],[11.8692,57.87818],[11.86879,57.87797],[11.86843,57.87775],[11.86818,57.8776],[11.86803,57.87739],[11.86798,57.8774],[11.86796,57.87753],[11.868,57.87757],[11.8683,57.87756],[11.86903,57.87739],[11.86976,57.87711],[11.86964,57.87681],[11.86945,57.87678],[11.86949,57.87671],[11.86931,57.87647],[11.86894,57.87623],[11.86868,57.87601],[11.86835,57.87587],[11.86844,57.87566],[11.86854,57.87542],[11.86876,57.87533],[11.86892,57.87508],[11.86878,57.87495],[11.86883,57.87493],[11.86883,57.87493],[11.86901,57.87489],[11.8693,57.87468],[11.86964,57.87443],[11.86982,57.87433],[11.87009,57.87409],[11.87056,57.87378],[11.87075,57.8736],[11.87106,57.87339],[11.87133,57.87323],[11.87166,57.87307],[11.87174,57.87308],[11.87173,57.87308],[11.87206,57.87314],[11.87264,57.87327],[11.8732,57.87332],[11.8736,57.87334],[11.87395,57.87342],[11.87432,57.87336],[11.87474,57.87328],[11.87517,57.87326],[11.8753,57.87335],[11.87588,57.87376],[11.87652,57.87414],[11.87685,57.87452],[11.87747,57.8747],[11.8778,57.87464],[11.87774,57.8746],[11.87768,57.87455],[11.87755,57.87454],[11.87747,57.8746],[11.87755,57.87511],[11.87778,57.87563],[11.87827,57.87598],[11.87905,57.87626],[11.87903,57.87647],[11.87878,57.87693],[11.87886,57.87735],[11.87886,57.87743],[11.87883,57.87763],[11.87898,57.87812],[11.87915,57.87844],[11.87912,57.87864],[11.87912,57.87893],[11.87924,57.87913],[11.87895,57.87914],[11.87892,57.87915],[11.87914,57.87916],[11.87898,57.87915],[11.87943,57.87912],[11.88,57.87919],[11.88096,57.87956],[11.88179,57.87999],[11.88285,57.8799],[11.88535,57.87938]]}}