{"type":"Feature","properties":{},"geometry":{"type":"LineString","coordinates":[[11.93383,57.82034],[11.93397,57.8204],[11.93433,57.82049],[11.93466,57.82062],[11.93499,57.82066],[11.93531,57.82069],[11.9354,57.82061],[11.93545,57.82051],[11.93551,57.82048],[11.93565,57.82036],[11.9358,57.82037],[11.93589,57.82041],[11.936,57.8204],[11.93612,57.82029],[11.93619,57.81997],[11.93655,57.81989],[11.93722,57.81994],[11.93771,57.82017],[11.9384,57.82017],[11.93881,57.82015],[11.93939,57.8202],[11.93967,57.82011],[11.93988,57.82006],[11.94011,57.82003],[11.94033,57.81997],[11.94049,57.82],[11.94077,57.81996],[11.94094,57.82002],[11.94099,57.82007],[11.94098,57.82005],[11.94102,57.81998],[11.94093,57.8198],[11.94081,57.81977],[11.94054,57.81969],[11.94058,57.81958],[11.94063,57.81952],[11.94077,57.81954],[11.9408,57.81942],[11.94049,57.81918],[11.94015,57.81901],[11.94007,57.81889],[11.94022,57.81878],[11.94007,57.81866],[11.94018,57.81853],[11.94,57.81847],[11.93973,57.81844],[11.93944,57.81835],[11.9389,57.81842],[11.93857,57.81827],[11.9383,57.81827],[11.93787,57.81824],[11.93756,57.81822],[11.93727,57.81816],[11.93692,57.81813],[11.93644,57.81794],[11.93585,57.81779],[11.93552,57.81774],[11.93525,57.81759],[11.93496,57.81746],[11.93456,57.81736],[11.93422,57.81746],[11.93419,57.81753],[11.93419,57.81758],[11.93427,57.81755],[11.93446,57.81738],[11.93426,57.81713],[11.93391,57.8169],[11.93364,57.81676],[11.93333,57.81658],[11.93301,57.81636],[11.9327,57.81629],[11.93254,57.81637],[11.93246,57.81634],[11.93233,57.81638],[11.93232,57.81646],[11.9322,57.81649],[11.93241,57.81645],[11.93256,57.81638],[11.93271,57.81631],[11.93292,57.81623],[11.93285,57.8161],[11.93262,57.81602],[11.93251,57.81606],[11.93247,57.81605],[11.93247,57.81603],[11.93245,57.81603],[11.93258,57.81605],[11.93251,57.816],[11.9325,57.81595],[11.93248,57.81592],[11.93276,57.81594],[11.93327,57.81594],[11.93346,57.81603],[11.9338,57.81626],[11.93415,57.8163],[11.93447,57.81633],[11.93463,57.81647],[11.93489,57.81674],[11.93533,57.81691],[11.9356,57.81716],[11.93561,57.81739],[11.93566,57.81759],[11.9359,57.81798],[11.93598,57.81839],[11.93625,57.81858],[11.93685,57.81863],[11.93756,57.81868],[11.93785,57.8187],[11.93808,57.81874],[11.93846,57.81873],[11.93867,57.81874],[11.93873,57.81874],[11.93901,57.81881],[11.93929,57.81893],[11.93947,57.81916],[11.93955,57.81937],[11.93964,57.81956],[11.93954,57.81976],[11.93954,57.81994],[11.93942,57.82018],[11.93942,57.82029],[11.93948,57.82058],[11.93947,57.82077],[11.93957,57.82096],[11.93975,57.82117],[11.93992,57.82135],[11.94,57.82148],[11.9401,57.82162],[11.94006,57.82174],[11.93995,57.82189],[11.93987,57.82201],[11.93956,57.82194],[11.93944,57.82192],[11.93948,57.82192],[11.93944,57.82197],[11.9395,57.82197],[11.93937,57.82197],[11.93946,57.82213],[11.93973,57.82231],[11.93977,57.82254],[11.93965,57.8227],[11.93937,57.82265],[11.93901,57.82265],[11.93845,57.82258],[11.93795,57.82238],[11.93725,57.82247],[11.93693,57.82285],[11.93659,57.82316],[11.93635,57.82329],[11.93628,57.82332],[11.93609,57.82331],[11.93605,57.82331],[11.93618,57.82332],[11.93622,57.82332],[11.93612,57.82326],[11.93579,57.82315],[11.9354,57.82317],[11.93521,57.82316],[11.93495,57.8231],[11.93476,57.82307],[11.93457,57.82313],[11.93446,57.82309],[11.93471,57.82313],[11.93484,57.82305],[11.93494,57.82303],[11.93501,57.82297],[11.93508,57.82288],[11.93521,57.8228],[11.93544,57.82282],[11.93564,57.82275],[11.93566,57.82264],[11.93572,57.82246],[11.93572,57.82237],[11.93581,57.82232],[11.9357,57.82217],[11.93574,57.82207],[11.93568,57.82193],[11.93545,57.82176],[11.93535,57.82163],[11.9352,57.82146],[11.93482,57.8213],[11.93452,57.82114],[11.93425,57.82104],[11.93416,57.82102],[11.93393,57.82102],[11.93368,57.82101],[11.93352,57.82103],[11.93331,57.821],[11.93312,57.82091],[11.93293,57.82076],[11.93295,57.82043],[11.93259,57.82],[11.93204,57.81979],[11.93127,57.8197],[11.93057,57.81967],[11.92992,57.81985],[11.9297,57.81996],[11.92955,57.82002],[11.92932,57.82028],[11.92914,57.82059]]}}