{"type":"Feature","properties":{},"geometry":{"type":"LineString","coordinates":[[13.21209,55.56046],[13.21186,55.56076],[13.21123,55.56103],[13.21065,55.561],[13.21015,55.56112],[13.20992,55.5612],[13.20973,55.5611],[13.20941,55.56111],[13.20928,55.5614],[13.2093,55.56163],[13.20945,55.56177],[13.20935,55.56155],[13.20902,55.56136],[13.20873,55.56111],[13.20826,55.5609],[13.20783,55.5606],[13.20774,55.56025],[13.2079,55.55993],[13.2079,55.55965],[13.20778,55.5594],[13.20757,55.55928],[13.20716,55.55902],[13.2069,55.55896],[13.20649,55.55887],[13.20577,55.55901],[13.2051,55.55908],[13.2047,55.55905],[13.20403,55.55892],[13.20358,55.55895],[13.20301,55.55893],[13.20259,55.559],[13.20216,55.55897],[13.20184,55.55885],[13.20192,55.55875],[13.20199,55.55857],[13.20201,55.55825],[13.20198,55.55803],[13.20197,55.55763],[13.20209,55.55742],[13.20225,55.55709],[13.20249,55.55672],[13.20256,55.55641],[13.20252,55.55599],[13.20257,55.55559],[13.20262,55.55525],[13.20282,55.55524],[13.20334,55.55529],[13.20384,55.55537],[13.20425,55.55536],[13.20464,55.55544],[13.20499,55.55561],[13.20511,55.55583],[13.20522,55.5561],[13.20534,55.55638],[13.20567,55.5563],[13.20624,55.5561],[13.20671,55.556],[13.20693,55.55596],[13.20746,55.55574],[13.20758,55.55542],[13.20734,55.55536],[13.2077,55.5552],[13.20818,55.55491],[13.2085,55.55476],[13.20898,55.55455],[13.20937,55.55434],[13.20963,55.5543],[13.20989,55.55433],[13.2101,55.55439],[13.21038,55.55412],[13.21096,55.55402],[13.21185,55.55393],[13.21243,55.5539],[13.21284,55.55365],[13.21284,55.55326],[13.21286,55.55301],[13.21293,55.55274],[13.21314,55.55237],[13.21352,55.55211],[13.21365,55.55217],[13.21411,55.55216],[13.21466,55.55218],[13.21505,55.55225],[13.21551,55.55244],[13.2161,55.55257],[13.21675,55.55274],[13.21713,55.55288],[13.21747,55.55298],[13.21788,55.5531],[13.21816,55.55321],[13.2183,55.55331],[13.21845,55.55338],[13.21868,55.55327],[13.21925,55.55306],[13.21958,55.5526],[13.21964,55.55234],[13.21978,55.5521],[13.21977,55.55187],[13.21964,55.55169],[13.21983,55.55169],[13.22027,55.55179],[13.2203,55.55207],[13.22031,55.55233],[13.22026,55.55265],[13.22058,55.55294],[13.22117,55.55301],[13.22162,55.55319],[13.22199,55.55323],[13.22247,55.55329],[13.22305,55.55336],[13.22358,55.55329],[13.22405,55.55323],[13.22461,55.55335],[13.2247,55.55355],[13.2251,55.55381],[13.22568,55.55411],[13.22579,55.55457],[13.2257,55.55497],[13.22578,55.55528],[13.22602,55.55546],[13.22647,55.55572],[13.22668,55.55592],[13.22681,55.55596],[13.22685,55.55596],[13.22699,55.55604],[13.22729,55.55621],[13.22757,55.55628],[13.22775,55.55636],[13.22797,55.55654],[13.22825,55.55655],[13.22831,55.55669],[13.228,55.55689],[13.22728,55.55678],[13.2265,55.55652],[13.22601,55.55623],[13.22545,55.5564],[13.22517,55.55652],[13.22493,55.55657],[13.22452,55.55668],[13.22409,55.55677],[13.22391,55.557],[13.22366,55.55709],[13.22327,55.55718],[13.22308,55.55712],[13.22305,55.55709],[13.2231,55.55701],[13.22305,55.55697],[13.22287,55.55709],[13.2226,55.55722],[13.22215,55.55716],[13.22185,55.55719],[13.22157,55.55732],[13.22129,55.55762],[13.22115,55.5578],[13.2211,55.55803],[13.2212,55.5583],[13.22101,55.55838],[13.22071,55.5585],[13.22024,55.5587],[13.21962,55.55888],[13.21931,55.559],[13.2191,55.55911],[13.21909,55.55896],[13.21907,55.55868],[13.21881,55.55852],[13.2183,55.55824],[13.21798,55.55806],[13.21773,55.55794],[13.21752,55.55773],[13.21741,55.55738],[13.21723,55.55715],[13.21718,55.557],[13.21689,55.55682],[13.21641,55.55669],[13.21618,55.55644],[13.21627,55.55616],[13.21623,55.55588],[13.21573,55.5556],[13.21534,55.55535],[13.21516,55.55534],[13.2151,55.55561],[13.21487,55.55562],[13.21437,55.55574],[13.21364,55.55579],[13.21281,55.55593],[13.21216,55.55588],[13.21173,55.55595],[13.21151,55.55621],[13.21169,55.55653],[13.21159,55.55672],[13.21167,55.55703],[13.2117,55.55725],[13.21182,55.55758],[13.21203,55.55781],[13.21174,55.55821],[13.21137,55.55864],[13.21159,55.55886],[13.21179,55.55905],[13.2118,55.55945],[13.21202,55.56038]]}}