{"type":"Feature","properties":{},"geometry":{"type":"LineString","coordinates":[[13.20232,55.5494],[13.20213,55.54945],[13.20178,55.54934],[13.20152,55.54896],[13.20134,55.54878],[13.20112,55.54853],[13.20104,55.54824],[13.20103,55.54808],[13.20121,55.54797],[13.2012,55.54771],[13.20133,55.54755],[13.20141,55.54729],[13.20136,55.54717],[13.2015,55.54706],[13.20161,55.54695],[13.20153,55.54675],[13.20176,55.54697],[13.20197,55.54702],[13.20255,55.54691],[13.20306,55.54686],[13.20352,55.54676],[13.20392,55.5466],[13.20427,55.54649],[13.20445,55.54626],[13.20455,55.54607],[13.20459,55.54592],[13.20473,55.54572],[13.20486,55.54558],[13.20538,55.54553],[13.20596,55.54531],[13.20657,55.54517],[13.20674,55.54491],[13.20657,55.54459],[13.2063,55.54423],[13.20589,55.54394],[13.20548,55.54371],[13.20521,55.54349],[13.2055,55.54341],[13.20574,55.54323],[13.20595,55.54298],[13.20618,55.5428],[13.20648,55.54262],[13.20664,55.54257],[13.2068,55.5424],[13.20696,55.54229],[13.20714,55.54236],[13.20768,55.54251],[13.20815,55.54267],[13.20835,55.54279],[13.20879,55.54296],[13.20927,55.54302],[13.20957,55.54317],[13.20953,55.54332],[13.20936,55.54356],[13.20948,55.5439],[13.20969,55.54404],[13.20986,55.5441],[13.21021,55.54405],[13.21046,55.54412],[13.21069,55.5442],[13.21086,55.54428],[13.2109,55.54432],[13.21071,55.54418],[13.21038,55.54408],[13.21025,55.54401],[13.20997,55.54383],[13.20955,55.54362],[13.20939,55.54361],[13.20952,55.54354],[13.20965,55.5435],[13.20995,55.54316],[13.21048,55.54296],[13.21114,55.54302],[13.21173,55.54291],[13.21219,55.5427],[13.21227,55.54265],[13.21261,55.54287],[13.21328,55.54292],[13.21397,55.54289],[13.21465,55.5429],[13.21524,55.54288],[13.21548,55.54271],[13.21564,55.54241],[13.21595,55.54217],[13.21614,55.54203],[13.21641,55.54178],[13.21656,55.54159],[13.2166,55.54128],[13.21659,55.54101],[13.2167,55.541],[13.21703,55.54098],[13.21741,55.54102],[13.21786,55.54101],[13.21827,55.5411],[13.21868,55.54123],[13.21904,55.54136],[13.21917,55.54146],[13.21949,55.54159],[13.2197,55.54169],[13.22011,55.5416],[13.22058,55.54165],[13.22096,55.54181],[13.22143,55.54198],[13.22185,55.54208],[13.22184,55.54204],[13.22145,55.54215],[13.22102,55.54234],[13.22074,55.54248],[13.22042,55.5426],[13.21996,55.54272],[13.21967,55.5429],[13.21925,55.54289],[13.21854,55.54283],[13.21798,55.54307],[13.21754,55.54323],[13.21755,55.5433],[13.21769,55.54343],[13.21764,55.54366],[13.21722,55.54391],[13.21694,55.54426],[13.21707,55.54447],[13.21731,55.54466],[13.21777,55.54484],[13.21777,55.54495],[13.21762,55.54509],[13.21741,55.54531],[13.21704,55.54557],[13.21671,55.54579],[13.21633,55.54583],[13.21609,55.54586],[13.21588,55.54602],[13.21567,55.54617],[13.21546,55.54631],[13.21551,55.54653],[13.21565,55.54682],[13.21565,55.54716],[13.21555,55.54728],[13.21536,55.54719],[13.21489,55.54717],[13.21458,55.54718],[13.21436,55.5472],[13.21417,55.5472],[13.21401,55.54714],[13.21378,55.54705],[13.21342,55.54696],[13.21301,55.54686],[13.21275,55.54653],[13.21261,55.54643],[13.21265,55.54666],[13.21299,55.54697],[13.21323,55.54714],[13.21347,55.54745],[13.21365,55.54787],[13.21393,55.54821],[13.21384,55.54846],[13.21358,55.54875],[13.21324,55.54871],[13.21281,55.5488],[13.21252,55.54864],[13.21236,55.54852],[13.21215,55.54846],[13.21164,55.54844],[13.21123,55.54818],[13.21091,55.54788],[13.21059,55.54753],[13.2102,55.54729],[13.20964,55.54742],[13.20927,55.54757],[13.20922,55.54785],[13.20928,55.54784],[13.20886,55.54784],[13.20826,55.54803],[13.20782,55.54829],[13.20759,55.54869],[13.20748,55.54896],[13.20735,55.54905],[13.20714,55.54904],[13.20692,55.54909],[13.20656,55.54902],[13.20634,55.54889],[13.20601,55.54893],[13.20543,55.54901],[13.20468,55.54903],[13.204,55.54896],[13.20355,55.54913],[13.20291,55.54929],[13.20274,55.54934],[13.20268,55.54936],[13.20275,55.54936],[13.20279,55.54937],[13.20277,55.54938],[13.20273,55.54943],[13.20271,55.54943],[13.20272,55.54942],[13.20272,55.54939],[13.2027,55.54943],[13.20263,55.54947],[13.20242,55.54953],[13.20211,55.54956],[13.2021,55.54957]]}}