{"type":"Feature","properties":{},"geometry":{"type":"LineString","coordinates":[[14.038,56.3947],[14.03804,56.39471],[14.03867,56.39487],[14.03888,56.39499],[14.03928,56.39538],[14.03944,56.39567],[14.03962,56.39588],[14.03958,56.39616],[14.03984,56.39642],[14.04007,56.39666],[14.03985,56.39689],[14.03981,56.39713],[14.03946,56.39742],[14.03951,56.39763],[14.03984,56.39782],[14.03989,56.39815],[14.04014,56.39836],[14.04036,56.39841],[14.04092,56.39854],[14.04137,56.39866],[14.04181,56.39876],[14.04203,56.39894],[14.04234,56.39913],[14.04267,56.39924],[14.04331,56.39931],[14.04383,56.39942],[14.04399,56.39932],[14.0441,56.39924],[14.0445,56.39896],[14.04476,56.39878],[14.04525,56.39859],[14.04569,56.39852],[14.04595,56.39851],[14.04625,56.39848],[14.04661,56.39837],[14.04679,56.3982],[14.04684,56.39808],[14.0471,56.39799],[14.04741,56.39799],[14.04785,56.39783],[14.04854,56.39776],[14.0492,56.39782],[14.04965,56.39768],[14.05014,56.39764],[14.05052,56.39761],[14.05081,56.39752],[14.05139,56.3974],[14.05201,56.39734],[14.05258,56.39734],[14.05298,56.39741],[14.05302,56.39707],[14.05252,56.39668],[14.05211,56.39644],[14.05235,56.39621],[14.05259,56.39609],[14.05278,56.39581],[14.05287,56.39567],[14.05327,56.39551],[14.05365,56.39529],[14.05409,56.39522],[14.05446,56.39513],[14.05498,56.39534],[14.05583,56.39547],[14.05647,56.39572],[14.0572,56.39604],[14.05797,56.39617],[14.05856,56.39627],[14.05882,56.39626],[14.05902,56.39602],[14.05935,56.39594],[14.0596,56.39589],[14.05975,56.39584],[14.05981,56.39565],[14.06003,56.39552],[14.06014,56.3955],[14.06018,56.39534],[14.06024,56.39504],[14.06028,56.39477],[14.06032,56.39456],[14.0604,56.39445],[14.06038,56.39434],[14.06065,56.39414],[14.06105,56.39399],[14.06139,56.39384],[14.06175,56.39386],[14.06207,56.39371],[14.06221,56.39346],[14.06231,56.39313],[14.06231,56.39278],[14.06254,56.39257],[14.06251,56.39236],[14.06226,56.39225],[14.06204,56.39213],[14.06174,56.392],[14.06157,56.39192],[14.06142,56.39175],[14.06125,56.39162],[14.06091,56.39136],[14.06075,56.3913],[14.06041,56.39149],[14.06012,56.39162],[14.05975,56.39167],[14.05966,56.39169],[14.05955,56.39163],[14.05935,56.39164],[14.05951,56.39188],[14.05934,56.39184],[14.05892,56.39181],[14.05864,56.3916],[14.05834,56.39154],[14.05781,56.39146],[14.05737,56.39135],[14.05684,56.39144],[14.0561,56.39151],[14.05558,56.39192],[14.05515,56.39229],[14.0547,56.39264],[14.05435,56.39267],[14.05352,56.3926],[14.05311,56.39269],[14.05275,56.39288],[14.05236,56.39295],[14.05202,56.393],[14.05236,56.39332],[14.05245,56.39374],[14.05232,56.39408],[14.05146,56.39417],[14.05049,56.39409],[14.04954,56.39415],[14.04908,56.39388],[14.04879,56.39365],[14.04862,56.39354],[14.04871,56.39339],[14.04866,56.39341],[14.04876,56.39372],[14.04871,56.39402],[14.04851,56.39434],[14.0483,56.39453],[14.04832,56.3949],[14.04843,56.39524],[14.04842,56.39552],[14.04811,56.39575],[14.04799,56.39601],[14.04794,56.39633],[14.04783,56.39658],[14.04777,56.39691],[14.04764,56.3969],[14.04706,56.39701],[14.04649,56.39711],[14.04551,56.39706],[14.04477,56.39715],[14.04455,56.39747],[14.0445,56.39769],[14.04446,56.3979],[14.04435,56.39799],[14.04433,56.39814],[14.04385,56.39817],[14.04409,56.39803],[14.04407,56.39761],[14.04368,56.39726],[14.04332,56.39704],[14.04305,56.39676],[14.04303,56.39635],[14.0429,56.39608],[14.04256,56.39562],[14.04201,56.39525],[14.04167,56.39518],[14.04148,56.39489],[14.04134,56.39469],[14.04109,56.39456],[14.04097,56.39421],[14.04073,56.3938],[14.0404,56.39355],[14.0401,56.39334],[14.03958,56.39314],[14.03908,56.39284],[14.03836,56.39263],[14.03811,56.39229],[14.0377,56.39183],[14.03748,56.39134],[14.03745,56.39085],[14.03702,56.39061],[14.03705,56.39021],[14.03707,56.38969],[14.03628,56.38948],[14.03538,56.38935],[14.0345,56.3893],[14.03362,56.3892],[14.03342,56.38896],[14.03362,56.38874],[14.03368,56.38845],[14.03346,56.38821],[14.033,56.38792],[14.03218,56.3877],[14.03144,56.38731],[14.03071,56.38685],[14.02997,56.3868],[14.02954,56.38651],[14.02953,56.3865],[14.02949,56.38637]]}}