{"type":"Feature","properties":{},"geometry":{"type":"LineString","coordinates":[[13.21225,55.56049],[13.21173,55.56059],[13.2113,55.5609],[13.21105,55.56129],[13.2107,55.56163],[13.21032,55.5618],[13.20972,55.56185],[13.20945,55.5618],[13.20911,55.56166],[13.20856,55.56152],[13.20805,55.56147],[13.20759,55.56136],[13.20722,55.56133],[13.20679,55.56138],[13.20627,55.56143],[13.20568,55.56148],[13.20511,55.56147],[13.20482,55.56154],[13.20452,55.56168],[13.20439,55.56183],[13.20402,55.56174],[13.20369,55.56177],[13.2035,55.56167],[13.20313,55.56146],[13.20323,55.56121],[13.20288,55.56102],[13.20274,55.56089],[13.20271,55.56063],[13.20255,55.56027],[13.20251,55.56011],[13.20245,55.55994],[13.2025,55.55972],[13.2024,55.55951],[13.20219,55.55921],[13.20212,55.55893],[13.20221,55.55868],[13.20229,55.55849],[13.202,55.55816],[13.20198,55.55777],[13.20179,55.5575],[13.20147,55.55727],[13.20196,55.55709],[13.20228,55.55681],[13.20226,55.55646],[13.20224,55.55627],[13.20236,55.55608],[13.20234,55.55579],[13.20246,55.55556],[13.20233,55.55541],[13.20248,55.55557],[13.20292,55.55584],[13.20331,55.55613],[13.20391,55.55627],[13.20444,55.55644],[13.20499,55.55664],[13.20554,55.55675],[13.20602,55.55662],[13.20637,55.55647],[13.20673,55.55641],[13.20709,55.55636],[13.20748,55.55646],[13.20794,55.55638],[13.2082,55.55638],[13.20853,55.55633],[13.20893,55.55626],[13.20929,55.55617],[13.20955,55.55618],[13.20999,55.55606],[13.21032,55.55597],[13.21073,55.55598],[13.21127,55.5561],[13.21174,55.55586],[13.21221,55.55563],[13.21254,55.55528],[13.21263,55.55516],[13.21311,55.55513],[13.21361,55.55521],[13.214,55.55526],[13.21453,55.55533],[13.21504,55.55531],[13.21522,55.55541],[13.21517,55.55522],[13.21507,55.555],[13.21491,55.55481],[13.21446,55.55462],[13.21399,55.55441],[13.21353,55.55426],[13.21312,55.55425],[13.21271,55.55463],[13.21254,55.55498],[13.2126,55.5549],[13.2128,55.55455],[13.21312,55.55424],[13.21287,55.55394],[13.21251,55.55356],[13.212,55.55324],[13.21151,55.55317],[13.21095,55.55308],[13.21063,55.553],[13.21035,55.55281],[13.21009,55.55265],[13.20973,55.55262],[13.20935,55.55255],[13.20916,55.55253],[13.20904,55.55247],[13.209,55.55237],[13.20897,55.55217],[13.20908,55.55207],[13.20952,55.55204],[13.21014,55.55201],[13.21049,55.55196],[13.21072,55.5517],[13.21118,55.55155],[13.21141,55.55149],[13.21177,55.55143],[13.21215,55.55138],[13.21238,55.5514],[13.21286,55.55131],[13.21357,55.5514],[13.21416,55.55153],[13.21443,55.55126],[13.21488,55.55096],[13.21545,55.5508],[13.21515,55.55097],[13.21495,55.55124],[13.21532,55.55153],[13.21543,55.55168],[13.21564,55.55183],[13.21582,55.55203],[13.21601,55.55239],[13.21634,55.55274],[13.21659,55.55284],[13.2169,55.55294],[13.21718,55.55304],[13.21734,55.55312],[13.21769,55.55312],[13.21792,55.55322],[13.21785,55.55335],[13.21781,55.5535],[13.21771,55.55366],[13.21774,55.55379],[13.21808,55.55392],[13.21837,55.55405],[13.21882,55.55413],[13.21915,55.55429],[13.2194,55.55456],[13.21967,55.55492],[13.22018,55.55523],[13.22061,55.55554],[13.22075,55.55581],[13.22074,55.55625],[13.22089,55.55642],[13.22111,55.55661],[13.22109,55.55686],[13.22129,55.55696],[13.22182,55.55712],[13.22204,55.55722],[13.22185,55.55726],[13.22148,55.5575],[13.22119,55.55765],[13.22081,55.55781],[13.22077,55.55822],[13.22076,55.55866],[13.22031,55.55898],[13.22025,55.55937],[13.22035,55.55965],[13.22031,55.55979],[13.22012,55.55993],[13.21987,55.56005],[13.21982,55.56001],[13.21951,55.55991],[13.21913,55.55973],[13.21862,55.5595],[13.21833,55.55924],[13.21801,55.55905],[13.21769,55.55891],[13.21733,55.55877],[13.21691,55.55877],[13.21642,55.559],[13.21576,55.55918],[13.21506,55.55922],[13.21475,55.55917],[13.2144,55.55912],[13.21388,55.55906],[13.21351,55.55897],[13.21316,55.55885],[13.21266,55.55865],[13.21226,55.55847],[13.21205,55.55866],[13.21214,55.55902],[13.21206,55.55933],[13.21203,55.55973],[13.21199,55.5601],[13.21199,55.56048],[13.21208,55.56053],[13.21216,55.56052],[13.21224,55.56054],[13.21234,55.56054],[13.21238,55.56053],[13.21235,55.56053]]}}