{"type":"Feature","properties":{},"geometry":{"type":"LineString","coordinates":[[14.30507,57.68888],[14.30544,57.68884],[14.30588,57.6888],[14.30619,57.68854],[14.30642,57.68831],[14.30665,57.68809],[14.30696,57.68794],[14.3073,57.68799],[14.30747,57.68789],[14.30763,57.68796],[14.30791,57.68806],[14.30827,57.6881],[14.30846,57.68812],[14.30862,57.68817],[14.30895,57.68811],[14.30911,57.68797],[14.30921,57.68786],[14.30922,57.68772],[14.30934,57.68755],[14.3096,57.68746],[14.30966,57.6874],[14.30984,57.68719],[14.30994,57.68697],[14.31011,57.68678],[14.31024,57.68671],[14.31024,57.68655],[14.31023,57.68647],[14.31035,57.68655],[14.3107,57.68662],[14.311,57.68661],[14.31119,57.68663],[14.31147,57.68667],[14.31163,57.68657],[14.31184,57.6864],[14.31208,57.68629],[14.31261,57.6861],[14.31309,57.68597],[14.31322,57.68597],[14.31335,57.68592],[14.3135,57.68589],[14.31368,57.68576],[14.31419,57.68555],[14.31464,57.68551],[14.31518,57.68548],[14.31539,57.68557],[14.31533,57.68577],[14.31529,57.68591],[14.31525,57.68609],[14.31518,57.68623],[14.31543,57.68638],[14.31572,57.68654],[14.31578,57.68669],[14.31592,57.68697],[14.3158,57.68718],[14.31583,57.68739],[14.31595,57.68739],[14.31625,57.6873],[14.31661,57.68718],[14.31696,57.68702],[14.31746,57.68688],[14.31765,57.68647],[14.31751,57.68612],[14.31762,57.68597],[14.31788,57.68587],[14.31815,57.68578],[14.31846,57.68575],[14.31874,57.68573],[14.31896,57.68569],[14.31925,57.68567],[14.31956,57.6856],[14.31978,57.68548],[14.3201,57.68532],[14.3204,57.68518],[14.3206,57.6851],[14.32076,57.68507],[14.32092,57.68518],[14.32117,57.6854],[14.32134,57.68546],[14.3218,57.68549],[14.32227,57.68561],[14.32265,57.68573],[14.32304,57.68572],[14.32321,57.68573],[14.32352,57.68579],[14.3239,57.68576],[14.32414,57.68584],[14.3243,57.68591],[14.32444,57.68603],[14.32441,57.6862],[14.32433,57.68632],[14.32412,57.68648],[14.3239,57.68656],[14.32367,57.6866],[14.32362,57.68678],[14.32381,57.68695],[14.32376,57.68708],[14.32377,57.68721],[14.32377,57.68727],[14.32374,57.68732],[14.32376,57.68736],[14.3236,57.68746],[14.32349,57.68759],[14.3234,57.68776],[14.32327,57.68799],[14.32322,57.68812],[14.32354,57.68806],[14.3236,57.68806],[14.32379,57.68819],[14.32424,57.68841],[14.32478,57.68866],[14.32474,57.68887],[14.32469,57.68911],[14.32505,57.68917],[14.32519,57.68921],[14.32554,57.68932],[14.32595,57.68954],[14.32614,57.6897],[14.32651,57.68975],[14.32659,57.68983],[14.32657,57.68994],[14.32652,57.69027],[14.32634,57.69054],[14.32622,57.69072],[14.32615,57.69081],[14.32626,57.6909],[14.32633,57.691],[14.3263,57.69103],[14.3263,57.69109],[14.32627,57.69114],[14.32618,57.6912],[14.32607,57.69123],[14.32605,57.69127],[14.32604,57.69139],[14.32589,57.69152],[14.32583,57.69153],[14.32586,57.69152],[14.32597,57.6915],[14.32614,57.6915],[14.32628,57.69146],[14.3265,57.69141],[14.3265,57.69129],[14.32641,57.69128],[14.32626,57.69131],[14.3261,57.69129],[14.32596,57.69124],[14.32575,57.69122],[14.32554,57.69127],[14.32542,57.69133],[14.32523,57.69143],[14.32507,57.69159],[14.32479,57.69167],[14.32445,57.69173],[14.32427,57.69172],[14.32413,57.69181],[14.32399,57.69191],[14.32361,57.69205],[14.32321,57.69226],[14.32291,57.69243],[14.32269,57.69253],[14.32276,57.69272],[14.32316,57.69311],[14.32362,57.69346],[14.32363,57.69378],[14.3236,57.694],[14.32352,57.69421],[14.323,57.69442],[14.32266,57.69468],[14.32247,57.69487],[14.3223,57.6948],[14.32194,57.69468],[14.32169,57.69462],[14.32138,57.69462],[14.3211,57.69469],[14.32087,57.69476],[14.32062,57.69477],[14.32042,57.69471],[14.32022,57.6947],[14.3199,57.69471],[14.31982,57.69475],[14.31973,57.69476],[14.31945,57.69484],[14.31918,57.69491],[14.31885,57.69504],[14.31841,57.69502],[14.31807,57.69505],[14.31781,57.69505],[14.3174,57.69498],[14.31702,57.69491],[14.31663,57.69502],[14.31632,57.69511],[14.31584,57.69533],[14.31532,57.69549],[14.31476,57.69559],[14.31443,57.69572],[14.31395,57.69585],[14.31323,57.69616],[14.31248,57.69633],[14.3118,57.69656],[14.31173,57.69698],[14.31146,57.69638]]}}