{"type":"Feature","properties":{},"geometry":{"type":"LineString","coordinates":[[12.94201,55.80834],[12.94213,55.80852],[12.94234,55.8088],[12.94238,55.80914],[12.94236,55.80953],[12.94271,55.80985],[12.94319,55.8101],[12.94345,55.81038],[12.94357,55.81063],[12.94336,55.81087],[12.94298,55.81104],[12.94253,55.81122],[12.94212,55.81111],[12.94191,55.81109],[12.94147,55.8111],[12.94107,55.81107],[12.94072,55.81105],[12.94034,55.81106],[12.94006,55.81106],[12.93982,55.811],[12.93941,55.81095],[12.939,55.81093],[12.93846,55.81095],[12.93831,55.81079],[12.93827,55.81062],[12.93792,55.81041],[12.93782,55.81006],[12.93785,55.80971],[12.93792,55.80931],[12.938,55.80901],[12.93807,55.80871],[12.93841,55.80856],[12.9388,55.80843],[12.939,55.80825],[12.93911,55.80823],[12.93951,55.80814],[12.93998,55.80798],[12.94053,55.80788],[12.94096,55.80774],[12.94134,55.80755],[12.9417,55.80724],[12.94187,55.80695],[12.94233,55.80673],[12.94273,55.80652],[12.94317,55.80633],[12.94354,55.80604],[12.9439,55.8058],[12.94424,55.80557],[12.94437,55.80542],[12.94452,55.80527],[12.94468,55.80512],[12.94494,55.80498],[12.94545,55.80476],[12.94594,55.80454],[12.94646,55.80431],[12.94689,55.80413],[12.94722,55.80413],[12.94746,55.80432],[12.94768,55.80448],[12.94787,55.8045],[12.94797,55.80429],[12.94769,55.80403],[12.94768,55.80383],[12.94751,55.80349],[12.94717,55.80322],[12.94717,55.80299],[12.94734,55.80276],[12.9471,55.80247],[12.94688,55.80229],[12.9467,55.80225],[12.94657,55.8021],[12.94645,55.80177],[12.94655,55.80151],[12.94648,55.80132],[12.9463,55.80098],[12.94618,55.8007],[12.94612,55.8005],[12.94616,55.80017],[12.94616,55.79985],[12.94629,55.79961],[12.94626,55.79941],[12.94637,55.79911],[12.94642,55.79899],[12.94641,55.79873],[12.94659,55.79845],[12.94664,55.79822],[12.94689,55.79795],[12.9469,55.79775],[12.94669,55.79766],[12.94629,55.79772],[12.94561,55.79784],[12.94496,55.79788],[12.94432,55.798],[12.94372,55.79813],[12.94332,55.79819],[12.943,55.79824],[12.94256,55.7984],[12.94208,55.79835],[12.94157,55.79849],[12.94108,55.79875],[12.94054,55.7989],[12.94009,55.79887],[12.93989,55.79887],[12.94004,55.79899],[12.94038,55.79917],[12.94065,55.79944],[12.94104,55.79952],[12.94112,55.79962],[12.94141,55.79977],[12.94179,55.79988],[12.94225,55.79994],[12.94242,55.80009],[12.94274,55.80026],[12.94269,55.80063],[12.94265,55.80095],[12.94264,55.80115],[12.94267,55.8014],[12.94302,55.80147],[12.94361,55.80152],[12.94411,55.80159],[12.94423,55.80148],[12.94399,55.80127],[12.94386,55.80124],[12.94366,55.80131],[12.94351,55.80132],[12.94313,55.80151],[12.9427,55.8017],[12.94255,55.80203],[12.94248,55.80241],[12.94239,55.80277],[12.94235,55.80316],[12.94233,55.80334],[12.94231,55.80354],[12.94222,55.8038],[12.94182,55.8038],[12.94152,55.8036],[12.9413,55.80342],[12.94159,55.80359],[12.94199,55.80378],[12.94273,55.80375],[12.94333,55.80381],[12.9439,55.80386],[12.94441,55.8038],[12.94498,55.80372],[12.9455,55.80355],[12.94595,55.80361],[12.9464,55.80375],[12.94641,55.80389],[12.94654,55.80406],[12.94636,55.80423],[12.94608,55.80445],[12.94605,55.80458],[12.94616,55.80474],[12.94632,55.80501],[12.94674,55.80511],[12.94699,55.80516],[12.94695,55.80529],[12.94699,55.80545],[12.9471,55.80558],[12.94706,55.80575],[12.94677,55.80612],[12.94649,55.8064],[12.94603,55.80655],[12.94555,55.80659],[12.9452,55.80639],[12.94522,55.80647],[12.94551,55.80661],[12.94603,55.80661],[12.9465,55.80653],[12.94678,55.80649],[12.94715,55.80645],[12.94756,55.80636],[12.94787,55.80637],[12.9482,55.80641],[12.94818,55.80651],[12.94812,55.80665],[12.94802,55.80686],[12.94753,55.80718],[12.94729,55.80758],[12.94729,55.808],[12.94716,55.80841],[12.94714,55.80867],[12.94714,55.80898],[12.94711,55.80933],[12.94708,55.80964],[12.94754,55.80985],[12.94731,55.80985],[12.94718,55.80953],[12.94652,55.80948],[12.94584,55.80947],[12.94531,55.80948],[12.94511,55.80933],[12.9447,55.80909],[12.94421,55.80894],[12.94396,55.8088],[12.94364,55.80856],[12.9431,55.80828],[12.94245,55.80797],[12.94225,55.8079],[12.9422,55.80787]]}}