{"type":"Feature","properties":{},"geometry":{"type":"LineString","coordinates":[[13.22608,55.54937],[13.22581,55.5492],[13.22522,55.54931],[13.22518,55.54991],[13.22529,55.55048],[13.22462,55.55088],[13.22359,55.55078],[13.22261,55.55059],[13.22164,55.55078],[13.22099,55.55109],[13.22063,55.5516],[13.22002,55.55199],[13.21944,55.55205],[13.21923,55.5516],[13.21856,55.55126],[13.21804,55.55094],[13.21753,55.55078],[13.21697,55.55064],[13.21605,55.55068],[13.2157,55.5506],[13.21607,55.55039],[13.21651,55.5501],[13.21648,55.54955],[13.21691,55.5491],[13.21734,55.54885],[13.21799,55.5486],[13.21806,55.54823],[13.21806,55.5479],[13.21854,55.54768],[13.21911,55.54767],[13.21971,55.54762],[13.22013,55.54728],[13.22031,55.5469],[13.22071,55.54687],[13.22178,55.54653],[13.22272,55.54624],[13.22348,55.54627],[13.22352,55.54637],[13.22343,55.54674],[13.22356,55.54711],[13.22396,55.54735],[13.22423,55.54745],[13.22455,55.54735],[13.22528,55.54731],[13.22611,55.54717],[13.22664,55.54687],[13.22699,55.54659],[13.22766,55.5462],[13.22805,55.5461],[13.22881,55.54612],[13.22947,55.54589],[13.23054,55.54557],[13.2317,55.54562],[13.23275,55.54583],[13.23339,55.54601],[13.23366,55.54614],[13.23362,55.54639],[13.23397,55.54663],[13.23392,55.54689],[13.23419,55.54733],[13.23408,55.54742],[13.23359,55.54766],[13.23309,55.54793],[13.23238,55.54809],[13.23143,55.54833],[13.23074,55.54854],[13.22973,55.54855],[13.22886,55.54886],[13.22808,55.54934],[13.22699,55.54929],[13.22609,55.54925],[13.22606,55.5492],[13.2262,55.54869],[13.22612,55.54836],[13.22619,55.54782],[13.22655,55.54756],[13.22669,55.547],[13.22698,55.54667],[13.22749,55.54631],[13.22795,55.54603],[13.22795,55.54576],[13.22796,55.54541],[13.22807,55.54502],[13.22763,55.54471],[13.22726,55.5444],[13.22709,55.54423],[13.22689,55.54383],[13.2263,55.54381],[13.22549,55.54364],[13.22461,55.54345],[13.22435,55.54324],[13.22421,55.54301],[13.22361,55.5428],[13.2233,55.54271],[13.22292,55.54256],[13.22267,55.54234],[13.22233,55.54216],[13.22192,55.54186],[13.22141,55.54156],[13.22087,55.54141],[13.2211,55.54131],[13.22157,55.541],[13.22209,55.54072],[13.22272,55.54037],[13.22306,55.54026],[13.22321,55.54046],[13.22338,55.54084],[13.22317,55.5412],[13.22343,55.54125],[13.22312,55.54142],[13.2227,55.54172],[13.22247,55.54224],[13.2221,55.54278],[13.22175,55.5433],[13.22199,55.54388],[13.22188,55.54451],[13.22156,55.54493],[13.22065,55.54501],[13.22007,55.5451],[13.21937,55.54519],[13.21876,55.5455],[13.21801,55.54561],[13.21765,55.5457],[13.21774,55.54601],[13.21779,55.54641],[13.21773,55.54667],[13.21808,55.547],[13.21787,55.54751],[13.21773,55.54781],[13.21777,55.54822],[13.21788,55.54853],[13.21833,55.54865],[13.21869,55.54875],[13.21924,55.54869],[13.21996,55.5489],[13.22056,55.54908],[13.22137,55.54881],[13.22213,55.54837],[13.22322,55.54829],[13.22371,55.54868],[13.22468,55.54897],[13.22568,55.54925],[13.22606,55.54928],[13.2255,55.5491],[13.22445,55.54883],[13.22378,55.54858],[13.22348,55.54826],[13.22259,55.5482],[13.22203,55.54804],[13.22161,55.54787],[13.22096,55.54785],[13.22024,55.54774],[13.21989,55.54773],[13.2194,55.54767],[13.21924,55.54765],[13.21965,55.54763],[13.21998,55.54728],[13.22029,55.54699],[13.22023,55.5466],[13.22024,55.54616],[13.22059,55.54594],[13.22057,55.54564],[13.22031,55.5454],[13.22022,55.54517],[13.22053,55.54498],[13.22061,55.54466],[13.22068,55.54433],[13.2208,55.54404],[13.22103,55.544],[13.22113,55.54421],[13.22167,55.5444],[13.2218,55.54468],[13.22187,55.54524],[13.22188,55.54584],[13.22187,55.54622],[13.22217,55.54639],[13.2227,55.54626],[13.22317,55.54622],[13.22348,55.54635],[13.22329,55.54652],[13.22355,55.54682],[13.22375,55.54701],[13.22412,55.54735],[13.22419,55.54746],[13.22426,55.54766],[13.22442,55.54803],[13.22452,55.54836],[13.22492,55.54874],[13.22518,55.54903],[13.22592,55.54928],[13.22596,55.5493],[13.22597,55.54932],[13.22601,55.54939],[13.22612,55.54933],[13.22609,55.54932],[13.22605,55.54933],[13.22613,55.54935],[13.22614,55.54936],[13.22609,55.54936],[13.22612,55.54932]]}}