{"type":"Feature","properties":{},"geometry":{"type":"LineString","coordinates":[[13.20236,55.54956],[13.20288,55.54941],[13.20332,55.5492],[13.20394,55.54902],[13.20452,55.54903],[13.20511,55.54907],[13.20562,55.54902],[13.20611,55.54899],[13.20658,55.54908],[13.20707,55.54914],[13.2076,55.54918],[13.2082,55.5492],[13.2088,55.54922],[13.20923,55.54921],[13.20965,55.54922],[13.21015,55.54931],[13.21058,55.54922],[13.21085,55.54901],[13.21118,55.54889],[13.21138,55.54871],[13.21157,55.54864],[13.21193,55.54858],[13.21222,55.5485],[13.21249,55.54841],[13.21276,55.54839],[13.21308,55.5483],[13.21333,55.54813],[13.2135,55.54797],[13.21375,55.5478],[13.21373,55.54753],[13.21379,55.54724],[13.21392,55.54703],[13.21395,55.5469],[13.21399,55.54667],[13.21397,55.54649],[13.21386,55.54626],[13.21379,55.54608],[13.21403,55.54598],[13.21412,55.54603],[13.21438,55.54622],[13.21471,55.54642],[13.21492,55.54659],[13.21518,55.54676],[13.21543,55.54693],[13.21555,55.54716],[13.21589,55.54729],[13.21634,55.54742],[13.21648,55.54751],[13.21607,55.5476],[13.21576,55.54784],[13.21561,55.54813],[13.21572,55.54828],[13.21595,55.54853],[13.21605,55.54864],[13.216,55.5489],[13.21602,55.54913],[13.21611,55.54934],[13.21623,55.54961],[13.21638,55.54987],[13.21658,55.55012],[13.21679,55.55027],[13.21687,55.55048],[13.21693,55.55061],[13.21678,55.55075],[13.21672,55.55092],[13.21681,55.55099],[13.21683,55.55117],[13.21684,55.55142],[13.21693,55.55161],[13.217,55.55171],[13.21723,55.55183],[13.21757,55.55196],[13.21792,55.5521],[13.21804,55.55241],[13.21822,55.55271],[13.2187,55.55299],[13.21913,55.55319],[13.21944,55.55331],[13.21958,55.55344],[13.21977,55.55359],[13.21993,55.55372],[13.22005,55.55392],[13.22016,55.55404],[13.22042,55.55417],[13.22067,55.55426],[13.221,55.55421],[13.22126,55.55418],[13.22156,55.55407],[13.22187,55.5539],[13.22224,55.5538],[13.22251,55.55374],[13.22295,55.55359],[13.22335,55.55356],[13.22372,55.55349],[13.22388,55.55343],[13.22398,55.55328],[13.22412,55.55305],[13.22429,55.55282],[13.22435,55.55269],[13.22425,55.55239],[13.2242,55.55205],[13.22399,55.55193],[13.2239,55.55183],[13.22386,55.55165],[13.22408,55.55141],[13.22447,55.55113],[13.22491,55.55086],[13.22539,55.55075],[13.22557,55.55062],[13.2253,55.55038],[13.22523,55.55009],[13.22538,55.54984],[13.22535,55.54953],[13.22523,55.54923],[13.22512,55.54903],[13.2247,55.54893],[13.22415,55.5488],[13.2238,55.54867],[13.22363,55.54843],[13.22329,55.54827],[13.22285,55.54824],[13.22245,55.5482],[13.22217,55.54812],[13.22178,55.548],[13.22171,55.54778],[13.2217,55.54745],[13.22147,55.54722],[13.22131,55.547],[13.22112,55.5468],[13.22093,55.54669],[13.22047,55.54651],[13.22018,55.54634],[13.21997,55.54611],[13.21982,55.54602],[13.21963,55.54597],[13.21928,55.54592],[13.21902,55.54581],[13.2189,55.54576],[13.21856,55.54576],[13.2181,55.54579],[13.21771,55.54582],[13.21732,55.54585],[13.21693,55.54591],[13.21649,55.54591],[13.21594,55.54584],[13.2156,55.54582],[13.21533,55.54579],[13.21495,55.54585],[13.21467,55.54587],[13.21445,55.54587],[13.21444,55.54581],[13.2145,55.54576],[13.21423,55.54579],[13.21397,55.54597],[13.2139,55.54603],[13.21371,55.54602],[13.21326,55.54598],[13.21275,55.54588],[13.21219,55.54596],[13.21172,55.54615],[13.21127,55.54638],[13.21094,55.54652],[13.21076,55.54665],[13.2106,55.54679],[13.21051,55.54686],[13.21049,55.54699],[13.21032,55.54713],[13.21024,55.54721],[13.21022,55.54719],[13.2102,55.54707],[13.21,55.54692],[13.20964,55.54679],[13.20917,55.54673],[13.20908,55.54674],[13.20877,55.54652],[13.20847,55.54641],[13.20817,55.54642],[13.208,55.54641],[13.20792,55.54636],[13.20777,55.54637],[13.20748,55.54639],[13.20705,55.54641],[13.20667,55.54646],[13.20625,55.54653],[13.20592,55.54654],[13.20558,55.54648],[13.20541,55.54637],[13.20517,55.5464],[13.2048,55.54658],[13.20437,55.54675],[13.2041,55.54704],[13.20387,55.54735],[13.20343,55.54754],[13.20301,55.54768],[13.20292,55.54796],[13.20292,55.54827],[13.20291,55.54857],[13.20306,55.54881],[13.20301,55.54901],[13.20265,55.54945]]}}