{"type":"Feature","properties":{},"geometry":{"type":"LineString","coordinates":[[14.19804,57.6955],[14.19818,57.69553],[14.1986,57.69571],[14.1989,57.69582],[14.19933,57.69594],[14.19945,57.69608],[14.19981,57.6962],[14.19999,57.69632],[14.20001,57.69644],[14.19987,57.69656],[14.19977,57.69669],[14.19972,57.69677],[14.19978,57.69686],[14.20003,57.69699],[14.20018,57.69706],[14.20009,57.69712],[14.20032,57.69715],[14.20058,57.69708],[14.20069,57.69699],[14.20064,57.69693],[14.20055,57.6969],[14.20083,57.69696],[14.20075,57.69718],[14.20057,57.69732],[14.20036,57.69739],[14.20035,57.69732],[14.20069,57.69724],[14.20111,57.69728],[14.2015,57.69742],[14.20189,57.69732],[14.20216,57.69716],[14.20261,57.69714],[14.20297,57.6972],[14.20349,57.69733],[14.2039,57.69735],[14.2042,57.6974],[14.2044,57.6975],[14.20466,57.69753],[14.20497,57.69755],[14.20533,57.69752],[14.20575,57.69758],[14.20595,57.69764],[14.2062,57.69766],[14.20658,57.69771],[14.20677,57.69778],[14.20718,57.69793],[14.20752,57.69799],[14.20781,57.69809],[14.20792,57.69826],[14.20814,57.69843],[14.20833,57.6984],[14.20859,57.69843],[14.2088,57.69856],[14.20904,57.69855],[14.20914,57.69855],[14.20936,57.69854],[14.20954,57.69865],[14.2095,57.69885],[14.20995,57.69898],[14.2103,57.69905],[14.21065,57.69905],[14.21095,57.69917],[14.2113,57.69921],[14.21166,57.69933],[14.21199,57.69944],[14.21203,57.69948],[14.21234,57.69957],[14.21264,57.69965],[14.21271,57.69982],[14.21243,57.70012],[14.21214,57.70036],[14.21208,57.70047],[14.21202,57.70068],[14.21238,57.70086],[14.21242,57.70101],[14.21272,57.70122],[14.21306,57.70137],[14.21336,57.70158],[14.21364,57.70169],[14.21391,57.70184],[14.21417,57.70196],[14.21431,57.70219],[14.21444,57.70238],[14.21461,57.70257],[14.21459,57.70273],[14.21447,57.70289],[14.21428,57.70283],[14.21403,57.70286],[14.21374,57.70299],[14.2135,57.70315],[14.21334,57.70338],[14.21304,57.70365],[14.21273,57.70389],[14.21235,57.70406],[14.2123,57.70422],[14.21215,57.70427],[14.21182,57.70428],[14.21164,57.70421],[14.21132,57.70413],[14.21097,57.70409],[14.21067,57.70402],[14.2105,57.70384],[14.21031,57.70386],[14.21016,57.70387],[14.20997,57.70383],[14.20969,57.70389],[14.20945,57.70391],[14.20916,57.70391],[14.20893,57.704],[14.2087,57.70402],[14.20837,57.70402],[14.20805,57.70402],[14.20762,57.70412],[14.20744,57.70414],[14.20711,57.70407],[14.20682,57.7041],[14.20645,57.7041],[14.20613,57.70411],[14.20607,57.7041],[14.20599,57.70391],[14.2059,57.70371],[14.20594,57.70362],[14.20611,57.70363],[14.2064,57.70367],[14.20659,57.70356],[14.2067,57.70332],[14.20654,57.70311],[14.20635,57.70309],[14.20613,57.70301],[14.20574,57.70308],[14.20533,57.70299],[14.20487,57.70282],[14.20463,57.70266],[14.20425,57.70253],[14.20397,57.70244],[14.20364,57.70239],[14.20326,57.70244],[14.20284,57.70253],[14.20255,57.70249],[14.20228,57.70237],[14.20217,57.70219],[14.20188,57.70213],[14.20164,57.70202],[14.20138,57.70195],[14.20118,57.70185],[14.20095,57.70181],[14.2008,57.70182],[14.20079,57.7018],[14.20075,57.70171],[14.20071,57.70164],[14.20061,57.70149],[14.20055,57.7014],[14.20047,57.70135],[14.20025,57.70135],[14.19998,57.7015],[14.19965,57.70165],[14.19943,57.70185],[14.19932,57.70194],[14.19929,57.70199],[14.19923,57.70208],[14.19897,57.70211],[14.19853,57.70216],[14.19826,57.70221],[14.19796,57.70231],[14.19754,57.70234],[14.19725,57.70242],[14.19686,57.70233],[14.1965,57.7022],[14.19622,57.70226],[14.19586,57.70228],[14.1956,57.70225],[14.19545,57.7023],[14.19521,57.70226],[14.19505,57.70217],[14.19472,57.70209],[14.19428,57.70213],[14.19404,57.70219],[14.19409,57.70233],[14.19411,57.70244],[14.19401,57.70257],[14.19391,57.70262],[14.19388,57.70262],[14.19371,57.70267],[14.19336,57.70275],[14.19313,57.70291],[14.19273,57.70303],[14.19233,57.70325],[14.19176,57.70341],[14.19126,57.70369],[14.19075,57.70399],[14.19043,57.70433],[14.1903,57.70473],[14.19019,57.70514],[14.19045,57.70552],[14.19085,57.70587],[14.19108,57.70626],[14.19121,57.70665],[14.1905,57.70674],[14.18973,57.70671],[14.18937,57.7067]]}}