{"type":"Feature","properties":{},"geometry":{"type":"LineString","coordinates":[[12.00153,57.87318],[12.00169,57.87311],[12.00196,57.87297],[12.00239,57.8729],[12.0028,57.87293],[12.00322,57.87299],[12.00367,57.873],[12.00408,57.87301],[12.00448,57.873],[12.00491,57.87298],[12.00536,57.87298],[12.00577,57.87296],[12.00624,57.87297],[12.0067,57.87297],[12.00712,57.87293],[12.00732,57.87278],[12.00727,57.87253],[12.00717,57.87231],[12.00709,57.87212],[12.00707,57.87191],[12.00708,57.8717],[12.00715,57.87149],[12.00736,57.87131],[12.00769,57.87119],[12.00804,57.87111],[12.00847,57.87108],[12.00882,57.87115],[12.00903,57.87134],[12.00933,57.8715],[12.00959,57.87166],[12.00988,57.87181],[12.0103,57.87191],[12.01049,57.8721],[12.01057,57.87228],[12.01062,57.8725],[12.01097,57.87265],[12.01127,57.87275],[12.0116,57.87292],[12.0119,57.8731],[12.01216,57.87329],[12.01239,57.87347],[12.0127,57.87364],[12.01303,57.87381],[12.01334,57.874],[12.0137,57.87419],[12.01402,57.87434],[12.01426,57.87449],[12.01454,57.87464],[12.01484,57.87483],[12.01516,57.87502],[12.01548,57.8752],[12.01573,57.87537],[12.01589,57.87558],[12.01605,57.87581],[12.01621,57.87602],[12.01665,57.87615],[12.01714,57.87625],[12.01759,57.87635],[12.0179,57.87648],[12.01818,57.87667],[12.01843,57.87688],[12.01862,57.87707],[12.01861,57.87729],[12.01828,57.8773],[12.01785,57.87737],[12.01751,57.87746],[12.01712,57.87755],[12.01673,57.87762],[12.01636,57.87766],[12.01621,57.87785],[12.01635,57.87808],[12.01649,57.8783],[12.01666,57.87852],[12.01695,57.87875],[12.01716,57.87898],[12.01721,57.87922],[12.01716,57.87943],[12.01715,57.87967],[12.01688,57.87983],[12.01653,57.87986],[12.0161,57.87979],[12.01573,57.87963],[12.01529,57.87947],[12.01493,57.87934],[12.01458,57.87918],[12.01436,57.87901],[12.01409,57.87886],[12.0138,57.8787],[12.01371,57.87849],[12.01336,57.87831],[12.01301,57.87821],[12.01263,57.87807],[12.01231,57.87795],[12.01206,57.87784],[12.01179,57.87773],[12.01142,57.87763],[12.01105,57.87755],[12.01071,57.8775],[12.01031,57.87751],[12.00999,57.8777],[12.00989,57.87795],[12.00987,57.87818],[12.01018,57.87837],[12.01063,57.8783],[12.01105,57.87826],[12.01133,57.87842],[12.0115,57.87865],[12.01154,57.8789],[12.01141,57.87914],[12.01113,57.87935],[12.01076,57.87951],[12.01034,57.87956],[12.00986,57.87954],[12.0094,57.8795],[12.00895,57.87946],[12.00856,57.87942],[12.00812,57.87935],[12.00768,57.87936],[12.00726,57.8794],[12.00678,57.87946],[12.00633,57.8795],[12.00585,57.87953],[12.00545,57.87964],[12.00506,57.87979],[12.00463,57.87983],[12.00417,57.87985],[12.00378,57.87983],[12.00339,57.87974],[12.00293,57.87981],[12.00251,57.87989],[12.0021,57.88004],[12.00169,57.88012],[12.00129,57.88009],[12.00103,57.87994],[12.00072,57.87978],[12.00033,57.87965],[11.99996,57.87959],[11.99959,57.87954],[11.99917,57.8795],[11.99882,57.87943],[11.99898,57.87937],[11.99936,57.87934],[11.99978,57.87929],[12.00014,57.87929],[12.00055,57.8793],[12.00093,57.87933],[12.0013,57.87939],[12.00156,57.87926],[12.00177,57.87911],[12.00205,57.87892],[12.0019,57.87871],[12.00154,57.87867],[12.0011,57.87865],[12.00074,57.87861],[12.00045,57.87853],[12.00017,57.87844],[11.99985,57.87833],[11.99948,57.87824],[11.99913,57.87813],[11.99882,57.87804],[11.99848,57.87795],[11.99816,57.87787],[11.99779,57.87777],[11.99736,57.87765],[11.997,57.87746],[11.99697,57.87726],[11.9972,57.87709],[11.99745,57.87697],[11.99773,57.87686],[11.99803,57.87674],[11.99828,57.87657],[11.99836,57.87633],[11.99829,57.8761],[11.99836,57.87588],[11.99863,57.87573],[11.99874,57.87552],[11.99866,57.87534],[11.99863,57.87509],[11.99822,57.87497],[11.99776,57.87493],[11.99728,57.87489],[11.99681,57.87488],[11.99635,57.87495],[11.99597,57.875],[11.99581,57.8752],[11.99594,57.87545],[11.99604,57.87567],[11.99587,57.87587],[11.99541,57.87582],[11.99498,57.87585],[11.99459,57.87589],[11.99428,57.87573],[11.99389,57.87555],[11.99339,57.87551],[11.99284,57.8755],[11.99233,57.8755],[11.99187,57.87561],[11.99146,57.87574],[11.99101,57.87592],[11.99028,57.87604]]}}