{"type":"Feature","properties":{},"geometry":{"type":"LineString","coordinates":[[17.04342,57.26575],[17.04326,57.26567],[17.04261,57.26561],[17.04234,57.26544],[17.0421,57.26525],[17.04173,57.26499],[17.04138,57.26489],[17.04101,57.26478],[17.04079,57.2646],[17.04054,57.26458],[17.04011,57.26473],[17.03972,57.26485],[17.03926,57.26481],[17.03894,57.26487],[17.03854,57.26492],[17.03815,57.26495],[17.0378,57.26505],[17.03734,57.26512],[17.03705,57.26527],[17.03684,57.26542],[17.03669,57.2656],[17.03646,57.26566],[17.03625,57.26573],[17.03619,57.26586],[17.03627,57.26582],[17.03623,57.26562],[17.03611,57.26545],[17.03611,57.26527],[17.03609,57.26533],[17.03552,57.26538],[17.03497,57.26545],[17.03451,57.26543],[17.03396,57.26536],[17.03333,57.26528],[17.03261,57.26522],[17.03221,57.26512],[17.03206,57.26499],[17.03189,57.26486],[17.03155,57.26491],[17.03121,57.26517],[17.03088,57.26545],[17.03049,57.26562],[17.03012,57.26574],[17.02994,57.26591],[17.02963,57.26612],[17.02954,57.2662],[17.02933,57.26635],[17.02898,57.26656],[17.0288,57.2667],[17.02889,57.26667],[17.02932,57.26647],[17.0296,57.26634],[17.02955,57.26625],[17.02945,57.26622],[17.02956,57.26618],[17.02968,57.26608],[17.03005,57.2658],[17.0301,57.26586],[17.03011,57.26612],[17.03006,57.2664],[17.03,57.26657],[17.03004,57.26672],[17.03007,57.26696],[17.02983,57.26704],[17.02944,57.26712],[17.02901,57.26734],[17.02852,57.26757],[17.02843,57.26786],[17.02808,57.26799],[17.02803,57.26799],[17.02807,57.26825],[17.02827,57.26846],[17.02842,57.26872],[17.02865,57.26903],[17.02862,57.26927],[17.02849,57.2693],[17.02821,57.26933],[17.02801,57.26949],[17.0277,57.26977],[17.02781,57.2702],[17.02781,57.27059],[17.02792,57.27099],[17.02801,57.2714],[17.02808,57.27177],[17.02825,57.27215],[17.02833,57.27254],[17.02832,57.27278],[17.02801,57.27277],[17.0276,57.27285],[17.02716,57.2729],[17.02681,57.27293],[17.02668,57.27296],[17.02688,57.27298],[17.02718,57.273],[17.02766,57.27311],[17.02802,57.27322],[17.02836,57.27303],[17.02857,57.2729],[17.0287,57.27278],[17.02892,57.27256],[17.02932,57.27237],[17.02958,57.27225],[17.02974,57.27211],[17.02984,57.27197],[17.03014,57.27192],[17.03053,57.27198],[17.03072,57.27191],[17.03104,57.2718],[17.03123,57.2717],[17.03109,57.27165],[17.03096,57.27163],[17.03072,57.27152],[17.03051,57.27151],[17.03031,57.27146],[17.03004,57.27157],[17.02993,57.27166],[17.02992,57.27175],[17.02991,57.27166],[17.02985,57.27141],[17.03001,57.27131],[17.03025,57.27125],[17.03033,57.27119],[17.03034,57.27113],[17.03033,57.2712],[17.03033,57.27135],[17.0303,57.27152],[17.03019,57.27157],[17.02992,57.27163],[17.02993,57.2718],[17.03015,57.27189],[17.03023,57.27199],[17.0301,57.27212],[17.02997,57.27214],[17.02959,57.27212],[17.02962,57.27216],[17.0296,57.27205],[17.02957,57.27197],[17.02957,57.27187],[17.0296,57.27178],[17.02976,57.27156],[17.02982,57.27126],[17.02972,57.27099],[17.03004,57.27088],[17.03003,57.27074],[17.02982,57.27058],[17.02963,57.27044],[17.0295,57.27027],[17.02932,57.27002],[17.02968,57.26987],[17.03004,57.26967],[17.03025,57.26943],[17.03082,57.26921],[17.03143,57.26904],[17.03206,57.26894],[17.03273,57.26878],[17.03344,57.26865],[17.03405,57.26854],[17.03471,57.26841],[17.03531,57.26831],[17.03563,57.26828],[17.0359,57.26821],[17.03573,57.26805],[17.03569,57.26796],[17.03558,57.26787],[17.03567,57.26766],[17.03566,57.26765],[17.03584,57.26753],[17.03613,57.26742],[17.03623,57.26743],[17.03659,57.2675],[17.03685,57.26757],[17.03692,57.26787],[17.03757,57.26788],[17.03828,57.26774],[17.03895,57.26764],[17.0396,57.26751],[17.04005,57.26738],[17.04036,57.26724],[17.04071,57.26711],[17.04096,57.26703],[17.04117,57.26695],[17.04159,57.26703],[17.04181,57.26735],[17.04184,57.2677],[17.04189,57.26804],[17.04184,57.26834],[17.04181,57.26859],[17.04175,57.26892],[17.04185,57.26923],[17.04205,57.26953],[17.04271,57.26973],[17.04329,57.26992],[17.04374,57.27024],[17.04414,57.27055],[17.04484,57.27064],[17.04552,57.27089],[17.04599,57.27125],[17.04634,57.27164],[17.04636,57.27168],[17.04638,57.27176]]}}