{"type":"Feature","properties":{},"geometry":{"type":"LineString","coordinates":[[13.20867,55.55756],[13.20838,55.5577],[13.20797,55.55802],[13.20791,55.55845],[13.20793,55.55873],[13.20798,55.55898],[13.20804,55.55919],[13.20801,55.55943],[13.2079,55.55965],[13.20773,55.55988],[13.20747,55.56013],[13.20754,55.56046],[13.20743,55.56055],[13.2072,55.56034],[13.20705,55.56038],[13.20677,55.56044],[13.20633,55.56062],[13.20575,55.56083],[13.20536,55.56101],[13.20492,55.56118],[13.2046,55.56145],[13.20453,55.56155],[13.20433,55.56162],[13.20401,55.56169],[13.20383,55.56179],[13.20365,55.56187],[13.20342,55.56187],[13.2032,55.5618],[13.20303,55.56175],[13.20313,55.56186],[13.20354,55.56185],[13.20347,55.56174],[13.20323,55.56148],[13.20311,55.56125],[13.20291,55.56113],[13.20263,55.56103],[13.20238,55.56095],[13.20211,55.56079],[13.2019,55.56067],[13.20146,55.5606],[13.20122,55.56036],[13.20108,55.56002],[13.20107,55.55969],[13.20139,55.55945],[13.20156,55.55927],[13.20151,55.55903],[13.20151,55.55894],[13.20154,55.5588],[13.20171,55.55873],[13.20193,55.55857],[13.20196,55.55822],[13.20202,55.55787],[13.20222,55.55778],[13.20234,55.55774],[13.20244,55.55764],[13.20257,55.55733],[13.2025,55.55716],[13.20248,55.55693],[13.20258,55.55664],[13.20256,55.5563],[13.20248,55.55607],[13.20225,55.55589],[13.20197,55.55575],[13.20189,55.55558],[13.20182,55.55543],[13.20192,55.55529],[13.20209,55.55518],[13.20228,55.55504],[13.20247,55.55493],[13.20291,55.555],[13.20355,55.55494],[13.20371,55.55464],[13.20403,55.55437],[13.2042,55.55419],[13.20436,55.55402],[13.20456,55.55383],[13.20471,55.55348],[13.20496,55.5531],[13.20533,55.55296],[13.20565,55.55288],[13.20593,55.5528],[13.20633,55.55281],[13.20682,55.55275],[13.20711,55.55267],[13.20754,55.5525],[13.20799,55.55234],[13.2084,55.55241],[13.2088,55.55237],[13.209,55.55229],[13.20903,55.55208],[13.20925,55.55181],[13.20962,55.55158],[13.20988,55.55136],[13.21001,55.55134],[13.21026,55.55142],[13.21046,55.55151],[13.2105,55.55161],[13.21045,55.5518],[13.21044,55.55199],[13.21059,55.55227],[13.21048,55.5526],[13.21067,55.55287],[13.2107,55.55303],[13.21096,55.55318],[13.2114,55.55329],[13.21202,55.55342],[13.21243,55.55364],[13.21269,55.55383],[13.21303,55.55395],[13.21345,55.55396],[13.21379,55.55398],[13.21393,55.55408],[13.21401,55.55428],[13.21442,55.55446],[13.21481,55.55451],[13.21501,55.55457],[13.21523,55.55465],[13.21544,55.55481],[13.21558,55.55497],[13.21573,55.55512],[13.2161,55.55527],[13.21654,55.55537],[13.2169,55.55542],[13.21691,55.55553],[13.217,55.5557],[13.21722,55.55584],[13.21758,55.5559],[13.21766,55.55576],[13.21761,55.55587],[13.21768,55.55598],[13.21805,55.5561],[13.21809,55.5562],[13.21809,55.55638],[13.21829,55.55658],[13.21858,55.55669],[13.21887,55.55692],[13.21897,55.55706],[13.21907,55.5572],[13.21939,55.5573],[13.21955,55.55746],[13.21962,55.55767],[13.21971,55.55778],[13.21992,55.55779],[13.2202,55.55782],[13.22046,55.55784],[13.22066,55.55811],[13.22075,55.55847],[13.2205,55.55875],[13.22016,55.55909],[13.22023,55.5594],[13.22058,55.55968],[13.22102,55.55981],[13.22137,55.55988],[13.22169,55.55994],[13.2216,55.56003],[13.22127,55.56011],[13.22095,55.56021],[13.22072,55.56037],[13.2205,55.56041],[13.22025,55.56032],[13.22007,55.56021],[13.2199,55.56006],[13.21971,55.55993],[13.21941,55.55986],[13.21887,55.55983],[13.21829,55.5598],[13.21769,55.55978],[13.21721,55.55975],[13.21661,55.55982],[13.21608,55.55995],[13.21559,55.55997],[13.21545,55.55988],[13.21518,55.5598],[13.21497,55.55977],[13.21468,55.55975],[13.21451,55.55977],[13.21451,55.55959],[13.2148,55.55925],[13.215,55.5589],[13.21518,55.55855],[13.21575,55.55843],[13.21625,55.55824],[13.21639,55.55807],[13.21649,55.55792],[13.21666,55.55768],[13.21662,55.55749],[13.2166,55.55734],[13.21633,55.5574],[13.21611,55.5574],[13.21576,55.5574],[13.21516,55.55749],[13.21454,55.55743],[13.21394,55.55726],[13.2134,55.55716],[13.21282,55.55736],[13.21235,55.55767],[13.21185,55.55782],[13.21127,55.55785],[13.21063,55.55782],[13.20963,55.55745]]}}