{"type":"Feature","properties":{},"geometry":{"type":"LineString","coordinates":[[14.06493,57.63694],[14.06504,57.63691],[14.06505,57.63676],[14.065,57.63649],[14.06529,57.63625],[14.06521,57.63599],[14.06515,57.63573],[14.06498,57.63547],[14.06494,57.63526],[14.06456,57.6351],[14.06444,57.63489],[14.06472,57.63462],[14.06476,57.63439],[14.0646,57.63426],[14.06429,57.63418],[14.06398,57.6341],[14.0638,57.63411],[14.06359,57.63421],[14.06327,57.63433],[14.06297,57.6342],[14.06263,57.63411],[14.06245,57.63394],[14.06252,57.63357],[14.0626,57.63311],[14.06282,57.63268],[14.06312,57.63226],[14.06357,57.63209],[14.06415,57.63196],[14.06434,57.6318],[14.0646,57.63178],[14.06479,57.6318],[14.06494,57.63187],[14.06521,57.63192],[14.06569,57.6319],[14.06566,57.63174],[14.06527,57.63147],[14.06478,57.63137],[14.06432,57.63111],[14.06377,57.63094],[14.06371,57.63073],[14.0636,57.63053],[14.06298,57.63043],[14.06256,57.63023],[14.06225,57.63012],[14.06192,57.63011],[14.06147,57.63025],[14.0609,57.63037],[14.06034,57.63037],[14.05988,57.63039],[14.05956,57.63042],[14.05916,57.63043],[14.05892,57.63042],[14.05866,57.63041],[14.05848,57.6303],[14.05805,57.63005],[14.05763,57.62982],[14.05716,57.62962],[14.05682,57.62943],[14.05634,57.62921],[14.05595,57.62902],[14.05562,57.62897],[14.05527,57.62906],[14.05494,57.62913],[14.0547,57.62904],[14.05455,57.62915],[14.05445,57.62937],[14.05425,57.62961],[14.05403,57.62977],[14.05373,57.62988],[14.05352,57.62998],[14.05326,57.63008],[14.053,57.63029],[14.05271,57.63044],[14.05248,57.63056],[14.0521,57.63083],[14.05231,57.631],[14.05288,57.63112],[14.05346,57.63119],[14.0536,57.63143],[14.05359,57.63163],[14.05382,57.63192],[14.05436,57.63214],[14.05477,57.63245],[14.05522,57.63272],[14.05588,57.6329],[14.05637,57.63309],[14.05687,57.63338],[14.05728,57.63365],[14.0576,57.63401],[14.05771,57.6342],[14.05798,57.63429],[14.05843,57.63448],[14.05875,57.63469],[14.05905,57.63487],[14.05912,57.63518],[14.05935,57.63534],[14.05956,57.63553],[14.05976,57.63581],[14.0598,57.63611],[14.05991,57.63627],[14.05999,57.63643],[14.06017,57.63654],[14.06016,57.63678],[14.06045,57.63701],[14.06058,57.63716],[14.06052,57.63736],[14.06057,57.63755],[14.06078,57.63773],[14.06098,57.63804],[14.06124,57.63831],[14.06149,57.63849],[14.06173,57.6387],[14.06179,57.63886],[14.06176,57.63903],[14.06177,57.6392],[14.06155,57.63936],[14.06143,57.63947],[14.0613,57.63957],[14.06105,57.63968],[14.06062,57.63984],[14.06032,57.63992],[14.05996,57.64003],[14.05973,57.64016],[14.05939,57.64025],[14.05929,57.64039],[14.05922,57.64061],[14.05915,57.64083],[14.05896,57.64117],[14.05892,57.64138],[14.05891,57.64168],[14.05884,57.64187],[14.05876,57.6421],[14.05876,57.64246],[14.05878,57.6428],[14.05869,57.64298],[14.05845,57.64322],[14.05829,57.64337],[14.05808,57.64353],[14.05783,57.6437],[14.05749,57.64385],[14.05727,57.64406],[14.05702,57.64446],[14.05684,57.64476],[14.057,57.64495],[14.05706,57.64514],[14.05674,57.64528],[14.05643,57.64548],[14.05609,57.6456],[14.05591,57.64576],[14.05603,57.64594],[14.05626,57.6461],[14.05642,57.64625],[14.05669,57.64638],[14.05698,57.64654],[14.05721,57.64669],[14.05766,57.64681],[14.05805,57.64684],[14.05858,57.64695],[14.05898,57.64702],[14.05925,57.64706],[14.05966,57.64717],[14.0598,57.6473],[14.05998,57.64747],[14.06013,57.64763],[14.06024,57.64769],[14.06041,57.64772],[14.06054,57.64779],[14.06083,57.64785],[14.06114,57.6479],[14.06113,57.64804],[14.06121,57.64821],[14.0614,57.6484],[14.06168,57.64856],[14.06187,57.64874],[14.06192,57.64898],[14.06201,57.64915],[14.06215,57.64931],[14.06207,57.64944],[14.06193,57.64947],[14.0616,57.64955],[14.06119,57.64972],[14.06081,57.64986],[14.06033,57.65008],[14.06009,57.65036],[14.05998,57.65059],[14.05998,57.65074],[14.05996,57.65092],[14.0599,57.65104],[14.05961,57.65115],[14.05953,57.65129],[14.05963,57.65154],[14.05994,57.65179],[14.06005,57.65206],[14.06008,57.65226],[14.06033,57.65246],[14.0608,57.65269],[14.06114,57.65304],[14.06171,57.65329],[14.06251,57.65337],[14.06287,57.65401]]}}