{"type":"Feature","properties":{},"geometry":{"type":"LineString","coordinates":[[13.20603,55.55421],[13.2062,55.55408],[13.20648,55.55379],[13.20661,55.55353],[13.20662,55.55337],[13.20674,55.55303],[13.20645,55.55278],[13.20603,55.5525],[13.20574,55.55225],[13.20555,55.55182],[13.20539,55.55151],[13.20505,55.55125],[13.20522,55.55099],[13.2053,55.55069],[13.20548,55.55029],[13.20576,55.55],[13.20616,55.54975],[13.20689,55.54973],[13.20755,55.5495],[13.20763,55.54901],[13.20732,55.54866],[13.20704,55.54835],[13.20674,55.54825],[13.20637,55.54822],[13.20612,55.54818],[13.20624,55.54803],[13.20674,55.54792],[13.20713,55.54802],[13.20758,55.54806],[13.20812,55.54807],[13.20842,55.54806],[13.20881,55.54801],[13.20919,55.54808],[13.20946,55.54832],[13.20966,55.54843],[13.21015,55.54859],[13.21059,55.54874],[13.21122,55.54872],[13.21149,55.54853],[13.21194,55.54846],[13.21218,55.54837],[13.21212,55.54827],[13.21236,55.54823],[13.21286,55.54838],[13.21294,55.54842],[13.21355,55.5483],[13.21408,55.54833],[13.21456,55.54816],[13.21512,55.54797],[13.21571,55.54763],[13.21607,55.54757],[13.21637,55.54728],[13.21676,55.54712],[13.21726,55.54673],[13.21738,55.54648],[13.21728,55.54619],[13.21719,55.54604],[13.2172,55.54584],[13.21716,55.54567],[13.21738,55.54538],[13.21748,55.54506],[13.21695,55.54485],[13.21638,55.54465],[13.21574,55.54471],[13.21523,55.54456],[13.21483,55.54446],[13.21422,55.54454],[13.21401,55.54436],[13.21374,55.54412],[13.21347,55.54397],[13.21344,55.54376],[13.21327,55.54352],[13.21305,55.5433],[13.21275,55.54317],[13.21251,55.54318],[13.21232,55.54292],[13.21149,55.54292],[13.21107,55.54304],[13.21102,55.54345],[13.21078,55.54374],[13.21067,55.54395],[13.21054,55.54434],[13.21043,55.54464],[13.21019,55.54483],[13.21011,55.5452],[13.21026,55.54569],[13.21017,55.5461],[13.21024,55.54627],[13.21051,55.54662],[13.21095,55.54674],[13.2109,55.54689],[13.21103,55.54706],[13.21154,55.54728],[13.21169,55.5474],[13.21204,55.54762],[13.21233,55.54776],[13.2122,55.54785],[13.21218,55.54801],[13.21222,55.54816],[13.21241,55.54822],[13.2129,55.54835],[13.21276,55.54846],[13.21282,55.54878],[13.21315,55.549],[13.21332,55.54917],[13.21338,55.54936],[13.21368,55.54973],[13.21434,55.55003],[13.21444,55.5505],[13.21448,55.55097],[13.21456,55.55118],[13.21424,55.55143],[13.21465,55.55175],[13.21526,55.55198],[13.21539,55.55223],[13.21548,55.55255],[13.21552,55.55273],[13.21589,55.55289],[13.21628,55.5531],[13.2163,55.5535],[13.21668,55.55366],[13.21698,55.55381],[13.21742,55.55395],[13.21756,55.55407],[13.21801,55.55398],[13.21833,55.55387],[13.21817,55.55369],[13.21777,55.55358],[13.21746,55.55371],[13.21706,55.55396],[13.21659,55.55395],[13.21586,55.5539],[13.21539,55.55392],[13.21497,55.55388],[13.21456,55.55386],[13.21385,55.55391],[13.21308,55.55388],[13.21273,55.55359],[13.21271,55.55325],[13.21265,55.55311],[13.21243,55.55328],[13.2121,55.55348],[13.21199,55.5538],[13.21196,55.55417],[13.21176,55.55455],[13.21158,55.55452],[13.21116,55.55459],[13.21075,55.55467],[13.21098,55.55472],[13.2111,55.55484],[13.21077,55.55493],[13.21027,55.55492],[13.20984,55.55477],[13.2091,55.55471],[13.2087,55.55486],[13.20842,55.55497],[13.20828,55.55514],[13.20809,55.55513],[13.20766,55.5551],[13.20727,55.55539],[13.20708,55.55561],[13.20699,55.5558],[13.20688,55.55612],[13.20683,55.55625],[13.20656,55.55637],[13.20622,55.55639],[13.20624,55.5563],[13.20588,55.5562],[13.20559,55.55606],[13.20508,55.55588],[13.20467,55.55572],[13.204,55.55563],[13.20374,55.55547],[13.2034,55.55537],[13.20313,55.55535],[13.20299,55.55528],[13.20289,55.55521],[13.20241,55.55521],[13.20211,55.55534],[13.20232,55.55539],[13.20292,55.55541],[13.20337,55.55529],[13.20397,55.5552],[13.20441,55.55513],[13.20492,55.55518],[13.20527,55.55513],[13.20467,55.55511],[13.20425,55.55495],[13.20374,55.55481],[13.20348,55.55451],[13.20306,55.55433],[13.20272,55.55417],[13.20316,55.55437],[13.2036,55.55453],[13.20395,55.55468],[13.20447,55.55462],[13.20478,55.55461],[13.20464,55.55456],[13.20476,55.55462],[13.20599,55.55426]]}}