{"type":"Feature","properties":{},"geometry":{"type":"LineString","coordinates":[[13.3901,56.2935],[13.39077,56.29381],[13.39154,56.29434],[13.39194,56.29469],[13.39175,56.295],[13.3914,56.29532],[13.39103,56.29556],[13.39077,56.29572],[13.39014,56.29602],[13.39022,56.29621],[13.39041,56.29648],[13.39073,56.29689],[13.3914,56.29726],[13.39201,56.29741],[13.39286,56.29745],[13.3936,56.29758],[13.39407,56.29776],[13.39472,56.29772],[13.39552,56.29783],[13.39612,56.29809],[13.39635,56.29813],[13.39658,56.29813],[13.39609,56.29772],[13.39577,56.29773],[13.39594,56.29823],[13.39646,56.29834],[13.39712,56.29831],[13.39785,56.29825],[13.39863,56.29834],[13.39948,56.29833],[13.40006,56.29854],[13.40028,56.29893],[13.40057,56.29923],[13.40081,56.29947],[13.40115,56.29963],[13.40141,56.29986],[13.40141,56.30024],[13.40147,56.30064],[13.4018,56.3008],[13.40195,56.30104],[13.4024,56.3012],[13.40295,56.30125],[13.40276,56.30124],[13.40195,56.30147],[13.40151,56.30191],[13.40127,56.30207],[13.40088,56.30234],[13.40016,56.30249],[13.39971,56.30268],[13.3993,56.30299],[13.39935,56.30329],[13.39951,56.30357],[13.39969,56.30365],[13.39953,56.30374],[13.3993,56.30383],[13.39931,56.30391],[13.39914,56.30398],[13.39941,56.30416],[13.39985,56.30434],[13.40013,56.30461],[13.40031,56.30484],[13.4005,56.30513],[13.40072,56.30517],[13.40103,56.30507],[13.4013,56.30493],[13.40161,56.30468],[13.40191,56.30465],[13.40206,56.30437],[13.40215,56.30409],[13.40233,56.30388],[13.40256,56.30356],[13.40247,56.3034],[13.40195,56.30305],[13.4016,56.30259],[13.40168,56.30219],[13.40188,56.30203],[13.40216,56.30184],[13.40246,56.30161],[13.40299,56.30146],[13.40371,56.30139],[13.4043,56.30139],[13.40511,56.30133],[13.40542,56.30115],[13.40561,56.30125],[13.40646,56.30128],[13.40672,56.30145],[13.40718,56.30176],[13.40797,56.30184],[13.40844,56.30168],[13.40888,56.30165],[13.40902,56.30138],[13.40917,56.30119],[13.40923,56.30097],[13.40942,56.30078],[13.41005,56.30051],[13.41055,56.30031],[13.41098,56.30021],[13.41145,56.29996],[13.41175,56.29967],[13.41208,56.29939],[13.41237,56.29916],[13.41268,56.29885],[13.41251,56.29856],[13.41234,56.2982],[13.41225,56.29772],[13.41231,56.29743],[13.41248,56.29713],[13.41216,56.29691],[13.41223,56.29669],[13.4126,56.29634],[13.41279,56.29613],[13.41314,56.29601],[13.41402,56.29606],[13.41461,56.29608],[13.41516,56.29598],[13.41588,56.29593],[13.41637,56.29589],[13.41687,56.29575],[13.41739,56.2956],[13.4176,56.29569],[13.418,56.2958],[13.41837,56.29609],[13.41911,56.29607],[13.4194,56.29606],[13.41979,56.29597],[13.42004,56.2957],[13.41988,56.29553],[13.41987,56.29541],[13.42034,56.29526],[13.42072,56.29514],[13.42108,56.29495],[13.42134,56.29521],[13.42176,56.29535],[13.4222,56.29538],[13.42268,56.29555],[13.4229,56.29568],[13.4225,56.29581],[13.42195,56.29603],[13.42146,56.29612],[13.42112,56.29628],[13.42081,56.29648],[13.42015,56.29657],[13.41951,56.29663],[13.41869,56.29687],[13.41821,56.29705],[13.41785,56.29725],[13.4176,56.29736],[13.4174,56.29734],[13.41711,56.2976],[13.4169,56.29782],[13.41638,56.2981],[13.41576,56.29819],[13.41493,56.29839],[13.41443,56.29864],[13.41379,56.29863],[13.41306,56.29817],[13.41227,56.29772],[13.41132,56.29732],[13.41067,56.29713],[13.40959,56.29696],[13.40887,56.29693],[13.40862,56.29669],[13.40821,56.29615],[13.40764,56.29571],[13.40711,56.29538],[13.40645,56.29574],[13.40585,56.29612],[13.40492,56.29588],[13.40398,56.29548],[13.40305,56.29505],[13.40213,56.29459],[13.40141,56.29403],[13.40076,56.29345],[13.40001,56.29308],[13.39921,56.29302],[13.39866,56.29307],[13.39791,56.29308],[13.39784,56.29289],[13.39811,56.29272],[13.39848,56.2924],[13.39865,56.29208],[13.39869,56.29172],[13.39856,56.29149],[13.39869,56.29123],[13.39875,56.29084],[13.39881,56.29053],[13.39892,56.29003],[13.39845,56.28994],[13.39758,56.29001],[13.39707,56.29002],[13.39633,56.28999],[13.39579,56.28951],[13.39493,56.28938],[13.39426,56.28931],[13.39334,56.28936],[13.39275,56.28941],[13.39209,56.28935],[13.39133,56.28927],[13.39025,56.28938],[13.38866,56.2897]]}}