{"type":"Feature","properties":{},"geometry":{"type":"LineString","coordinates":[[17.11189,57.31171],[17.11207,57.31168],[17.11308,57.31166],[17.11373,57.31175],[17.1144,57.31199],[17.11496,57.31227],[17.11556,57.3125],[17.11597,57.31274],[17.11641,57.31304],[17.11668,57.31336],[17.11756,57.31348],[17.11831,57.31344],[17.11892,57.3135],[17.11944,57.31365],[17.12008,57.31377],[17.12053,57.31358],[17.12085,57.31334],[17.12106,57.31302],[17.12134,57.31261],[17.12137,57.31226],[17.12141,57.31192],[17.12142,57.31163],[17.12108,57.31142],[17.12047,57.31121],[17.11971,57.3111],[17.11897,57.3109],[17.11861,57.31087],[17.11803,57.31089],[17.11735,57.31089],[17.11692,57.31077],[17.11625,57.31057],[17.11561,57.31045],[17.11506,57.31041],[17.11408,57.3104],[17.11319,57.31039],[17.11259,57.31018],[17.11217,57.31007],[17.11171,57.30997],[17.11098,57.30988],[17.11044,57.30981],[17.11001,57.30985],[17.10937,57.30989],[17.10859,57.30993],[17.10808,57.30993],[17.10764,57.30996],[17.10701,57.30992],[17.10669,57.30992],[17.10597,57.30977],[17.10527,57.30956],[17.1046,57.30948],[17.10417,57.30936],[17.10364,57.30934],[17.10316,57.30927],[17.10245,57.30918],[17.10206,57.30907],[17.10187,57.30893],[17.10169,57.30876],[17.10162,57.30852],[17.10132,57.30836],[17.10075,57.30815],[17.10052,57.30808],[17.09992,57.30806],[17.09929,57.30784],[17.09853,57.30776],[17.09776,57.30773],[17.09724,57.30771],[17.09649,57.30766],[17.09579,57.3076],[17.09521,57.30731],[17.09448,57.30698],[17.09376,57.30671],[17.09313,57.30641],[17.09246,57.30619],[17.0919,57.30602],[17.0912,57.30586],[17.09066,57.3057],[17.09037,57.30557],[17.09034,57.30541],[17.08997,57.30522],[17.09022,57.30496],[17.0903,57.30473],[17.08998,57.30464],[17.08925,57.30462],[17.08872,57.30503],[17.08834,57.30548],[17.08778,57.3058],[17.08704,57.3059],[17.0863,57.30583],[17.08557,57.30582],[17.08467,57.30573],[17.0841,57.30558],[17.08382,57.30538],[17.08339,57.30517],[17.08311,57.30505],[17.0831,57.30488],[17.08287,57.30454],[17.08276,57.30417],[17.08273,57.3038],[17.08258,57.30342],[17.08228,57.30306],[17.08209,57.30291],[17.08202,57.30282],[17.08224,57.30257],[17.08211,57.30235],[17.08175,57.30203],[17.0817,57.30184],[17.08221,57.30158],[17.08254,57.30142],[17.08263,57.30122],[17.08268,57.30101],[17.08256,57.30078],[17.08239,57.3006],[17.08212,57.3004],[17.08152,57.30004],[17.08097,57.29971],[17.08073,57.29951],[17.08071,57.29926],[17.08094,57.29899],[17.08117,57.2986],[17.0815,57.29845],[17.08202,57.2985],[17.08282,57.29848],[17.0832,57.29852],[17.08352,57.29873],[17.08374,57.29891],[17.08411,57.29928],[17.08472,57.29955],[17.08504,57.29979],[17.08505,57.30009],[17.08501,57.30038],[17.08506,57.30071],[17.085,57.30111],[17.08501,57.30134],[17.085,57.30158],[17.08492,57.30189],[17.08521,57.30212],[17.08581,57.30245],[17.08572,57.30287],[17.08596,57.30332],[17.08592,57.30372],[17.08585,57.30411],[17.08629,57.3045],[17.08634,57.30479],[17.08719,57.3049],[17.08795,57.30512],[17.08866,57.30531],[17.08887,57.30535],[17.08953,57.30548],[17.09039,57.30573],[17.09114,57.30594],[17.09192,57.30609],[17.09258,57.30632],[17.09326,57.30658],[17.09392,57.30688],[17.09464,57.30718],[17.09534,57.30747],[17.09595,57.30774],[17.09631,57.30774],[17.09681,57.30775],[17.09755,57.30779],[17.09792,57.30782],[17.0983,57.30781],[17.09891,57.3078],[17.09966,57.30777],[17.1002,57.30741],[17.10054,57.30726],[17.10093,57.30718],[17.10148,57.307],[17.10204,57.30683],[17.10234,57.30684],[17.10243,57.30701],[17.1025,57.30717],[17.10264,57.30739],[17.10286,57.30778],[17.10287,57.30803],[17.10303,57.30827],[17.10315,57.30867],[17.10325,57.30895],[17.10327,57.30924],[17.10338,57.30966],[17.10349,57.3101],[17.1034,57.31044],[17.10338,57.31063],[17.1034,57.31089],[17.1035,57.31122],[17.10354,57.3116],[17.10371,57.312],[17.1038,57.31224],[17.10408,57.31258],[17.10424,57.31298],[17.10426,57.31322],[17.10431,57.31345],[17.10449,57.31376],[17.10457,57.31418],[17.10503,57.31451],[17.10567,57.31493],[17.10617,57.31535],[17.10672,57.31568],[17.1061,57.31614],[17.10568,57.31642]]}}