{"type":"Feature","properties":{},"geometry":{"type":"LineString","coordinates":[[12.9241,55.59],[12.9242,55.59011],[12.92431,55.59024],[12.92436,55.59038],[12.92448,55.59067],[12.92466,55.59093],[12.92482,55.59108],[12.92499,55.59125],[12.92503,55.59139],[12.92472,55.59147],[12.92448,55.59155],[12.92454,55.59157],[12.92479,55.59165],[12.9249,55.5918],[12.9248,55.59201],[12.92472,55.59216],[12.92473,55.59224],[12.92475,55.59232],[12.92476,55.5924],[12.92482,55.59245],[12.92499,55.5924],[12.92503,55.59241],[12.92509,55.59241],[12.92519,55.59237],[12.92537,55.59241],[12.92554,55.5925],[12.92556,55.59268],[12.92561,55.5929],[12.92568,55.59306],[12.92568,55.59297],[12.92591,55.59293],[12.92615,55.593],[12.92631,55.59313],[12.92638,55.59316],[12.92654,55.59327],[12.92667,55.59344],[12.92653,55.5936],[12.92628,55.59374],[12.9261,55.59389],[12.92611,55.59407],[12.92634,55.5942],[12.92624,55.59429],[12.92604,55.59433],[12.92587,55.59432],[12.92569,55.5943],[12.92543,55.59416],[12.92511,55.59405],[12.92487,55.59393],[12.92462,55.59388],[12.9245,55.59394],[12.92438,55.59397],[12.9245,55.59396],[12.92477,55.59393],[12.92498,55.5939],[12.92507,55.5938],[12.92519,55.59373],[12.92515,55.59372],[12.92509,55.59371],[12.92497,55.59365],[12.92485,55.59355],[12.92473,55.59348],[12.92465,55.59338],[12.9246,55.59324],[12.92455,55.59314],[12.92445,55.59306],[12.92437,55.59299],[12.92432,55.59293],[12.92446,55.59284],[12.92468,55.59288],[12.92447,55.5928],[12.92445,55.59274],[12.92436,55.59261],[12.92414,55.59245],[12.92379,55.59246],[12.92348,55.59254],[12.92313,55.59248],[12.92287,55.59249],[12.92275,55.5923],[12.92255,55.59214],[12.92247,55.59198],[12.92234,55.59179],[12.92223,55.59162],[12.92222,55.59147],[12.92212,55.59144],[12.92219,55.59133],[12.92224,55.59114],[12.92218,55.59093],[12.9221,55.59082],[12.92191,55.59062],[12.92177,55.59049],[12.92169,55.59038],[12.92153,55.59033],[12.92139,55.59034],[12.92122,55.59047],[12.92121,55.5904],[12.92118,55.59021],[12.92108,55.5901],[12.92094,55.59001],[12.92078,55.58991],[12.92067,55.58978],[12.9206,55.58964],[12.92043,55.58945],[12.92023,55.5893],[12.92003,55.5891],[12.91988,55.58893],[12.91972,55.58883],[12.91937,55.58895],[12.91909,55.58906],[12.91876,55.58919],[12.91849,55.58931],[12.9182,55.58938],[12.91806,55.5892],[12.91826,55.58911],[12.91846,55.58904],[12.91865,55.58897],[12.9187,55.5888],[12.91862,55.5886],[12.9186,55.58849],[12.91849,55.5884],[12.9185,55.58829],[12.91874,55.5882],[12.91885,55.58798],[12.91875,55.58793],[12.91856,55.588],[12.91845,55.58797],[12.91831,55.58801],[12.9181,55.58814],[12.9179,55.58826],[12.91766,55.58826],[12.91763,55.58807],[12.91765,55.58791],[12.91747,55.58789],[12.91718,55.58791],[12.91693,55.5878],[12.91697,55.58758],[12.91714,55.58744],[12.91695,55.58736],[12.917,55.58736],[12.91706,55.58739],[12.91709,55.58747],[12.91703,55.58758],[12.91713,55.58778],[12.91736,55.58788],[12.91775,55.58784],[12.91805,55.58773],[12.91831,55.58765],[12.91872,55.58763],[12.91907,55.58756],[12.91944,55.58748],[12.9198,55.58737],[12.92014,55.58738],[12.92051,55.58735],[12.92054,55.58743],[12.92053,55.58764],[12.92054,55.58786],[12.9204,55.58803],[12.92017,55.58817],[12.92012,55.58819],[12.91982,55.58823],[12.91963,55.58835],[12.91981,55.5885],[12.91993,55.58869],[12.92005,55.58889],[12.92012,55.589],[12.92022,55.5891],[12.92045,55.58917],[12.92082,55.58911],[12.92106,55.58912],[12.92142,55.58906],[12.92187,55.58899],[12.92227,55.58897],[12.92264,55.58896],[12.92263,55.58897],[12.92266,55.58899],[12.92271,55.58901],[12.9227,55.58901],[12.92271,55.589],[12.92266,55.58898],[12.9226,55.589],[12.92259,55.58899],[12.92259,55.58899],[12.9226,55.58899],[12.92259,55.58899],[12.92259,55.58899],[12.92259,55.589],[12.92259,55.589],[12.92259,55.58901],[12.92259,55.58901],[12.92259,55.58901],[12.92259,55.58901],[12.92259,55.58901],[12.92259,55.58901],[12.92259,55.58901],[12.92259,55.58901],[12.92259,55.58901],[12.92258,55.58901],[12.92258,55.58901],[12.92258,55.58901],[12.92258,55.58901],[12.92259,55.58901]]}}