{"type":"Feature","properties":{},"geometry":{"type":"LineString","coordinates":[[13.35919,55.69179],[13.35957,55.69223],[13.36041,55.69249],[13.36097,55.69279],[13.36167,55.69325],[13.36206,55.69375],[13.362,55.69418],[13.362,55.69467],[13.36221,55.69493],[13.3627,55.69541],[13.36281,55.69551],[13.36277,55.6957],[13.36297,55.69589],[13.36319,55.69629],[13.3634,55.69674],[13.36346,55.69713],[13.36372,55.69729],[13.3634,55.69775],[13.36342,55.69834],[13.36301,55.69849],[13.36353,55.69886],[13.36434,55.6991],[13.36518,55.69943],[13.36617,55.6992],[13.36686,55.69906],[13.36809,55.69906],[13.36848,55.69948],[13.36822,55.69967],[13.36891,55.69992],[13.36937,55.70047],[13.36929,55.70016],[13.36907,55.69955],[13.36899,55.69915],[13.36906,55.69868],[13.37001,55.69842],[13.37022,55.69821],[13.37062,55.69816],[13.37046,55.69809],[13.36945,55.69802],[13.36864,55.69774],[13.36816,55.69753],[13.36751,55.69756],[13.3673,55.69745],[13.36699,55.69713],[13.36602,55.69705],[13.36562,55.69688],[13.36561,55.6965],[13.36551,55.69612],[13.36544,55.69573],[13.36545,55.69546],[13.36592,55.69549],[13.3664,55.69537],[13.36684,55.69519],[13.367,55.69484],[13.36744,55.69485],[13.36757,55.69484],[13.36714,55.6947],[13.36695,55.69437],[13.36706,55.6941],[13.36704,55.69366],[13.36674,55.69323],[13.36639,55.69284],[13.36589,55.69275],[13.36571,55.69248],[13.36536,55.69225],[13.36434,55.69218],[13.36304,55.69223],[13.36173,55.69209],[13.36042,55.69198],[13.35924,55.69172],[13.35941,55.69177],[13.36011,55.69189],[13.36043,55.69134],[13.36102,55.69077],[13.36143,55.69012],[13.36202,55.68985],[13.36198,55.68908],[13.3619,55.68844],[13.36226,55.68803],[13.36341,55.6881],[13.36432,55.6881],[13.36498,55.68806],[13.36615,55.68795],[13.3668,55.68754],[13.36711,55.68746],[13.36728,55.68782],[13.36734,55.68819],[13.36738,55.68882],[13.36787,55.68909],[13.36871,55.68917],[13.36906,55.68945],[13.3697,55.6899],[13.37,55.69044],[13.37091,55.69028],[13.3716,55.69048],[13.37204,55.69068],[13.37252,55.69079],[13.37282,55.69076],[13.37256,55.69108],[13.37208,55.69139],[13.37174,55.6918],[13.37104,55.69212],[13.37031,55.69257],[13.36971,55.69282],[13.36929,55.69263],[13.3693,55.69267],[13.3697,55.69286],[13.3697,55.69299],[13.37019,55.69327],[13.37075,55.6936],[13.37109,55.69388],[13.37103,55.6942],[13.37063,55.69459],[13.37016,55.69496],[13.36986,55.69514],[13.36961,55.69534],[13.36986,55.69577],[13.36979,55.69571],[13.36924,55.6954],[13.36859,55.69543],[13.36785,55.69552],[13.36723,55.69569],[13.36683,55.69564],[13.3669,55.69542],[13.36691,55.69498],[13.36686,55.69471],[13.36668,55.6944],[13.3672,55.69401],[13.36684,55.69353],[13.36668,55.69307],[13.36628,55.69263],[13.36584,55.69245],[13.36549,55.6922],[13.36431,55.69216],[13.363,55.69221],[13.36174,55.69208],[13.36043,55.69198],[13.35925,55.69171],[13.35924,55.6917],[13.35921,55.69119],[13.35901,55.69062],[13.35891,55.69015],[13.35905,55.68964],[13.35922,55.68916],[13.35912,55.68882],[13.35897,55.68839],[13.35898,55.68795],[13.35886,55.68753],[13.35892,55.6871],[13.35893,55.68674],[13.35864,55.68636],[13.35832,55.68592],[13.35807,55.68556],[13.35795,55.68514],[13.35827,55.68473],[13.35859,55.68444],[13.35949,55.68444],[13.36033,55.68443],[13.36126,55.68451],[13.36185,55.68432],[13.3627,55.68402],[13.3633,55.68362],[13.36393,55.68353],[13.36506,55.68343],[13.36569,55.68348],[13.36669,55.6836],[13.36704,55.68374],[13.36781,55.68409],[13.36863,55.68436],[13.36803,55.68457],[13.3672,55.68497],[13.36631,55.68502],[13.36599,55.6852],[13.36581,55.68562],[13.36608,55.6859],[13.36604,55.6863],[13.36583,55.68661],[13.3647,55.68689],[13.36392,55.68747],[13.36351,55.68808],[13.36321,55.68866],[13.3632,55.68917],[13.36321,55.68982],[13.36347,55.6902],[13.36386,55.6904],[13.3643,55.69032],[13.36486,55.69071],[13.3653,55.6911],[13.36551,55.69151],[13.36557,55.6921],[13.36577,55.69243],[13.36523,55.69215],[13.36397,55.69215],[13.36269,55.69218],[13.3613,55.69204],[13.35986,55.69188],[13.35911,55.69171],[13.35925,55.6917],[13.35936,55.69168],[13.35923,55.69169]]}}