{"type":"Feature","properties":{},"geometry":{"type":"LineString","coordinates":[[13.23344,55.55373],[13.23343,55.55374],[13.23341,55.55374],[13.23338,55.55377],[13.23338,55.55379],[13.23339,55.55379],[13.23337,55.55377],[13.23335,55.55378],[13.23336,55.55379],[13.23337,55.55378],[13.23341,55.55379],[13.23341,55.5538],[13.23339,55.5538],[13.23339,55.5538],[13.23341,55.55385],[13.23349,55.55403],[13.23381,55.5543],[13.2341,55.55446],[13.23432,55.5546],[13.23462,55.55479],[13.23484,55.55495],[13.23489,55.55498],[13.23484,55.55485],[13.2346,55.55469],[13.23435,55.55447],[13.2342,55.55427],[13.23389,55.55396],[13.2335,55.55374],[13.23342,55.55374],[13.23337,55.55377],[13.23335,55.55377],[13.23333,55.55377],[13.23335,55.55377],[13.23335,55.55377],[13.23336,55.55376],[13.23334,55.55377],[13.23334,55.55377],[13.23337,55.55379],[13.23339,55.55378],[13.23338,55.55379],[13.23339,55.5538],[13.23377,55.55389],[13.23417,55.55407],[13.23428,55.55416],[13.23451,55.55429],[13.2346,55.55441],[13.23472,55.5546],[13.23488,55.55475],[13.23501,55.55488],[13.23503,55.55487],[13.23494,55.55485],[13.23489,55.55484],[13.23493,55.55486],[13.23489,55.55497],[13.23483,55.55485],[13.23473,55.55477],[13.23482,55.55483],[13.23515,55.55486],[13.23529,55.55469],[13.23545,55.55469],[13.23549,55.55485],[13.23537,55.55491],[13.23522,55.55485],[13.23492,55.55478],[13.23472,55.55466],[13.23439,55.55461],[13.23425,55.55442],[13.23392,55.55425],[13.23366,55.55398],[13.23352,55.55376],[13.23348,55.5538],[13.23344,55.55371],[13.23339,55.55373],[13.23335,55.55374],[13.23335,55.55376],[13.23337,55.55378],[13.23335,55.55371],[13.23337,55.55373],[13.23338,55.55375],[13.23342,55.55377],[13.23341,55.55374],[13.23343,55.55377],[13.23348,55.55381],[13.234,55.55397],[13.2343,55.55414],[13.23452,55.55432],[13.23487,55.55444],[13.23521,55.55459],[13.23524,55.55454],[13.23495,55.5543],[13.23461,55.55417],[13.23431,55.55399],[13.23393,55.55384],[13.2335,55.55373],[13.23342,55.55369],[13.2334,55.5537],[13.23342,55.55373],[13.2334,55.55375],[13.23341,55.55375],[13.23339,55.55372],[13.23339,55.55372],[13.23339,55.55371],[13.23336,55.55371],[13.23324,55.5537],[13.23284,55.55371],[13.23257,55.55384],[13.23235,55.55399],[13.23219,55.55416],[13.23206,55.5543],[13.23195,55.55446],[13.23182,55.55464],[13.23169,55.55473],[13.23213,55.55462],[13.23246,55.55451],[13.2328,55.55437],[13.23318,55.55414],[13.23345,55.55389],[13.23348,55.55376],[13.23348,55.5537],[13.23341,55.55374],[13.23335,55.55373],[13.23338,55.55371],[13.2334,55.55369],[13.23341,55.5537],[13.23344,55.55371],[13.23344,55.55373],[13.23341,55.55371],[13.23339,55.5537],[13.23339,55.55372],[13.23333,55.55376],[13.23325,55.55392],[13.23293,55.55412],[13.2327,55.55424],[13.23239,55.55443],[13.2321,55.55455],[13.23165,55.55454],[13.23156,55.55454],[13.23163,55.55439],[13.23166,55.55423],[13.23178,55.55408],[13.23191,55.55397],[13.23192,55.55391],[13.23213,55.55388],[13.23251,55.55379],[13.23295,55.55377],[13.23339,55.55379],[13.23343,55.55372],[13.23342,55.55368],[13.23341,55.55367],[13.23342,55.55365],[13.23344,55.55363],[13.23343,55.55364],[13.23338,55.55366],[13.23339,55.55367],[13.23338,55.55367],[13.23338,55.55366],[13.23338,55.55364],[13.23332,55.55364],[13.23331,55.55363],[13.23331,55.55363],[13.23334,55.55364],[13.23333,55.55363],[13.23315,55.55359],[13.23267,55.55351],[13.23218,55.55343],[13.23168,55.55337],[13.23115,55.55343],[13.23074,55.55353],[13.23051,55.55373],[13.23046,55.55378],[13.23068,55.55361],[13.23062,55.55345],[13.23082,55.55347],[13.23135,55.55345],[13.2319,55.55344],[13.23238,55.55354],[13.23275,55.5536],[13.23322,55.55372],[13.23335,55.55368],[13.23331,55.55365],[13.23329,55.55365],[13.23329,55.55364],[13.23328,55.55362],[13.23331,55.55363],[13.23331,55.55365],[13.23324,55.55365],[13.23323,55.55364],[13.23327,55.55362],[13.23328,55.55361],[13.2333,55.55362],[13.23314,55.55359],[13.23281,55.55353],[13.23324,55.5537],[13.23328,55.55372],[13.23328,55.55373],[13.23327,55.55372],[13.23325,55.55367],[13.23326,55.55361],[13.2333,55.55361],[13.23326,55.55362]]}}