{"type":"Feature","properties":{},"geometry":{"type":"LineString","coordinates":[[12.97097,55.59789],[12.97092,55.59792],[12.97083,55.59797],[12.97076,55.59801],[12.97074,55.59805],[12.97074,55.59808],[12.97071,55.59812],[12.97068,55.59816],[12.97065,55.59822],[12.9706,55.59829],[12.97056,55.59834],[12.97051,55.5984],[12.97047,55.59847],[12.97043,55.59853],[12.97039,55.59859],[12.97037,55.59865],[12.97035,55.59871],[12.97035,55.59878],[12.97036,55.59884],[12.97036,55.59889],[12.97036,55.59894],[12.97035,55.599],[12.97033,55.59906],[12.9703,55.59912],[12.97028,55.59919],[12.97024,55.59925],[12.97021,55.59931],[12.97018,55.59937],[12.97016,55.59941],[12.97012,55.59947],[12.97009,55.59953],[12.97007,55.5996],[12.97004,55.59966],[12.97002,55.59972],[12.97,55.59978],[12.96997,55.59984],[12.96993,55.59989],[12.9699,55.59993],[12.96986,55.59999],[12.96983,55.60004],[12.9698,55.6001],[12.96977,55.60015],[12.96974,55.60021],[12.96971,55.60026],[12.96968,55.60032],[12.96966,55.60038],[12.96964,55.60042],[12.96961,55.60048],[12.96957,55.60054],[12.96954,55.6006],[12.96951,55.60066],[12.96947,55.60072],[12.96942,55.60077],[12.96938,55.60083],[12.96933,55.60089],[12.96931,55.60093],[12.96928,55.60099],[12.96925,55.60105],[12.96922,55.60111],[12.96919,55.60117],[12.96918,55.60124],[12.96915,55.6013],[12.96914,55.60137],[12.96917,55.60143],[12.96918,55.60147],[12.96916,55.60153],[12.96911,55.60158],[12.96902,55.60163],[12.96892,55.60165],[12.96885,55.60171],[12.96884,55.60178],[12.96885,55.60185],[12.96885,55.60192],[12.96887,55.60196],[12.96897,55.602],[12.96906,55.60202],[12.96916,55.60205],[12.96925,55.60208],[12.96934,55.6021],[12.96944,55.60213],[12.96954,55.60215],[12.96964,55.60218],[12.96972,55.6022],[12.96984,55.60221],[12.96998,55.60222],[12.97011,55.60222],[12.97023,55.60224],[12.97034,55.60227],[12.97045,55.6023],[12.97053,55.60234],[12.97061,55.60239],[12.97067,55.60243],[12.97075,55.60247],[12.97085,55.60252],[12.97094,55.60256],[12.97106,55.60259],[12.97118,55.6026],[12.97129,55.60261],[12.97141,55.60262],[12.97153,55.60263],[12.97166,55.60265],[12.97173,55.60266],[12.97184,55.60269],[12.97194,55.60271],[12.97204,55.60274],[12.97213,55.60277],[12.97224,55.60281],[12.97233,55.60284],[12.97243,55.60288],[12.97252,55.60293],[12.97257,55.60296],[12.97266,55.603],[12.97274,55.60304],[12.97282,55.60309],[12.97291,55.60314],[12.97298,55.60318],[12.97301,55.6032],[12.97311,55.60323],[12.97322,55.60325],[12.97329,55.60326],[12.9734,55.60327],[12.97351,55.60328],[12.97362,55.6033],[12.97373,55.60331],[12.97384,55.60332],[12.97395,55.60334],[12.97405,55.60336],[12.97415,55.60338],[12.97421,55.6034],[12.97431,55.60343],[12.97441,55.60345],[12.97451,55.60349],[12.97461,55.60352],[12.97471,55.60355],[12.97481,55.60359],[12.97492,55.60362],[12.97501,55.60364],[12.97507,55.60367],[12.97516,55.6037],[12.97525,55.60374],[12.97532,55.60378],[12.9754,55.60382],[12.97549,55.60386],[12.97558,55.6039],[12.97569,55.60392],[12.9758,55.60393],[12.97588,55.60394],[12.97599,55.60394],[12.9761,55.60395],[12.9762,55.60396],[12.9763,55.60397],[12.97641,55.60397],[12.97653,55.60397],[12.97665,55.60398],[12.97677,55.60399],[12.97685,55.604],[12.97697,55.60401],[12.97708,55.60402],[12.9772,55.60404],[12.9773,55.60405],[12.97741,55.60408],[12.97749,55.6041],[12.97758,55.60414],[12.97767,55.60418],[12.97772,55.60421],[12.9778,55.60425],[12.97788,55.6043],[12.97797,55.60434],[12.97806,55.60438],[12.97815,55.60441],[12.97825,55.60444],[12.97835,55.60448],[12.97844,55.60451],[12.97851,55.60454],[12.97859,55.60458],[12.97868,55.60462],[12.97876,55.60466],[12.97884,55.60469],[12.97891,55.60473],[12.97899,55.60477],[12.97909,55.60481],[12.9792,55.60484],[12.97927,55.60485],[12.97938,55.60486],[12.97949,55.60487],[12.97958,55.60486],[12.97967,55.60485],[12.97976,55.60483],[12.97985,55.6048],[12.9799,55.60477],[12.97991,55.60475],[12.97992,55.60475],[12.97992,55.60474],[12.97992,55.60473],[12.97995,55.60472],[12.97999,55.60468],[12.98004,55.60465],[12.98007,55.60462],[12.9801,55.60459],[12.98019,55.60456]]}}