{"type":"Feature","properties":{},"geometry":{"type":"LineString","coordinates":[[11.93992,57.68051],[11.93971,57.68051],[11.93928,57.68049],[11.93921,57.68061],[11.93954,57.68093],[11.93965,57.68105],[11.93926,57.68098],[11.93885,57.681],[11.9385,57.68093],[11.93831,57.68108],[11.93807,57.68117],[11.93794,57.68129],[11.93776,57.68141],[11.93766,57.68163],[11.93767,57.68184],[11.9377,57.682],[11.93756,57.68212],[11.93746,57.68225],[11.9374,57.68242],[11.93749,57.68255],[11.93782,57.68273],[11.938,57.68294],[11.93831,57.68321],[11.93847,57.6834],[11.93884,57.6835],[11.93923,57.68358],[11.93961,57.68365],[11.94001,57.68364],[11.94047,57.68352],[11.94096,57.68342],[11.94122,57.68331],[11.94144,57.68321],[11.94178,57.6832],[11.94232,57.68319],[11.94272,57.68316],[11.943,57.68306],[11.94288,57.6828],[11.94278,57.68257],[11.94275,57.68238],[11.94254,57.6821],[11.94235,57.68198],[11.94208,57.68204],[11.94156,57.68211],[11.94119,57.68203],[11.94097,57.6821],[11.94081,57.68211],[11.94072,57.68209],[11.94057,57.68211],[11.94042,57.68213],[11.94032,57.68213],[11.94012,57.68208],[11.9399,57.6821],[11.93969,57.6821],[11.93973,57.68219],[11.93991,57.68234],[11.93986,57.68254],[11.93969,57.68267],[11.93969,57.68281],[11.9395,57.68297],[11.93926,57.68318],[11.93912,57.68334],[11.93879,57.68365],[11.93835,57.68387],[11.93781,57.68393],[11.93756,57.68408],[11.93737,57.68428],[11.93738,57.68463],[11.93763,57.68473],[11.93762,57.68487],[11.93754,57.68494],[11.93772,57.68505],[11.93805,57.68515],[11.93824,57.68529],[11.93836,57.68549],[11.93847,57.68571],[11.93878,57.68585],[11.93921,57.68595],[11.93952,57.68612],[11.93964,57.6863],[11.93946,57.68614],[11.93911,57.6863],[11.93892,57.68663],[11.93865,57.68697],[11.93852,57.68724],[11.93829,57.68757],[11.93866,57.68779],[11.93903,57.68793],[11.93942,57.68799],[11.93939,57.68798],[11.93879,57.68783],[11.93815,57.6876],[11.9379,57.68741],[11.93771,57.68728],[11.93753,57.68731],[11.93764,57.68731],[11.93773,57.68736],[11.93769,57.68749],[11.9373,57.68742],[11.93702,57.6873],[11.93662,57.68731],[11.93646,57.68759],[11.93621,57.68776],[11.93588,57.6879],[11.93589,57.68806],[11.93568,57.68814],[11.93556,57.68809],[11.93541,57.68803],[11.93522,57.68798],[11.93491,57.68799],[11.93463,57.68797],[11.93452,57.68813],[11.93463,57.68813],[11.93476,57.68821],[11.93505,57.68837],[11.93524,57.68855],[11.9354,57.68865],[11.93562,57.68875],[11.93566,57.68864],[11.93591,57.68858],[11.93615,57.68861],[11.93621,57.68866],[11.93624,57.6886],[11.93625,57.68851],[11.93624,57.6884],[11.93605,57.68828],[11.9358,57.68832],[11.93576,57.68829],[11.9359,57.68821],[11.93605,57.6881],[11.93606,57.68809],[11.93599,57.68821],[11.93617,57.68832],[11.93636,57.68821],[11.93656,57.68814],[11.93665,57.68826],[11.93673,57.68842],[11.93654,57.68862],[11.93632,57.68868],[11.93606,57.68872],[11.93583,57.68877],[11.93569,57.68877],[11.9355,57.68884],[11.93549,57.68888],[11.93577,57.68888],[11.93633,57.68895],[11.93679,57.68904],[11.93732,57.68912],[11.93775,57.6892],[11.93811,57.68916],[11.93836,57.68927],[11.93871,57.68942],[11.93905,57.68968],[11.93936,57.68978],[11.93957,57.68971],[11.93974,57.68962],[11.94005,57.68952],[11.94035,57.68955],[11.94072,57.68958],[11.94122,57.68957],[11.94189,57.68947],[11.94224,57.68928],[11.94253,57.68909],[11.94278,57.68895],[11.94296,57.68871],[11.94294,57.68844],[11.94283,57.68824],[11.94285,57.68804],[11.94273,57.68786],[11.94247,57.68779],[11.9426,57.68786],[11.94287,57.68785],[11.94303,57.68758],[11.94331,57.6873],[11.94368,57.68732],[11.94412,57.68744],[11.94441,57.6874],[11.94446,57.68737],[11.9445,57.68736],[11.94448,57.68726],[11.94453,57.6872],[11.94467,57.68722],[11.94482,57.68711],[11.94497,57.68695],[11.94497,57.68678],[11.94492,57.6866],[11.94542,57.68658],[11.94612,57.68668],[11.94632,57.68652],[11.94606,57.68607],[11.94611,57.68559],[11.94639,57.68556],[11.94642,57.68597],[11.94638,57.68599],[11.94638,57.68606],[11.94643,57.68616],[11.94653,57.68626],[11.94657,57.68631],[11.9466,57.68635],[11.94671,57.6864],[11.94672,57.68643]]}}