{"type":"Feature","properties":{},"geometry":{"type":"LineString","coordinates":[[13.20606,55.55426],[13.20605,55.55404],[13.20649,55.55376],[13.20698,55.55356],[13.2076,55.55352],[13.20806,55.55329],[13.20837,55.55312],[13.20862,55.553],[13.2088,55.55273],[13.20884,55.55257],[13.20894,55.55258],[13.20917,55.55265],[13.20933,55.55295],[13.20952,55.55323],[13.20982,55.5535],[13.2102,55.55377],[13.21041,55.55399],[13.21068,55.55416],[13.21114,55.55443],[13.21172,55.5545],[13.21179,55.55453],[13.21179,55.55465],[13.21191,55.55461],[13.212,55.55438],[13.21226,55.55407],[13.21262,55.55394],[13.21321,55.55394],[13.21352,55.5536],[13.21358,55.55318],[13.21359,55.55287],[13.21353,55.5527],[13.2136,55.55268],[13.21395,55.55267],[13.2139,55.55237],[13.21409,55.55202],[13.21445,55.55175],[13.21503,55.55188],[13.21568,55.55203],[13.2163,55.5522],[13.21705,55.55227],[13.21773,55.55215],[13.2183,55.55184],[13.21873,55.55154],[13.21934,55.55132],[13.21988,55.55108],[13.2205,55.5509],[13.2212,55.5508],[13.2217,55.551],[13.22233,55.55123],[13.22295,55.55148],[13.22339,55.55173],[13.22389,55.55201],[13.22445,55.55224],[13.22487,55.55249],[13.22505,55.55267],[13.22506,55.55274],[13.22513,55.55274],[13.22537,55.55276],[13.22587,55.55273],[13.22638,55.55287],[13.22655,55.55314],[13.2267,55.55346],[13.22671,55.55363],[13.22699,55.55382],[13.22725,55.55404],[13.22745,55.55427],[13.22777,55.55447],[13.22797,55.55465],[13.22828,55.55479],[13.22839,55.55487],[13.22825,55.55489],[13.22805,55.55494],[13.22785,55.55502],[13.2275,55.55506],[13.22732,55.55502],[13.22725,55.55496],[13.22706,55.55489],[13.22675,55.55494],[13.22641,55.55505],[13.22614,55.55515],[13.22598,55.55525],[13.22568,55.55532],[13.22538,55.55542],[13.22508,55.55546],[13.22469,55.55545],[13.22438,55.55559],[13.22398,55.55563],[13.22353,55.55558],[13.22317,55.55555],[13.22282,55.55552],[13.22258,55.55571],[13.2226,55.55592],[13.22235,55.55603],[13.22201,55.55614],[13.22175,55.55624],[13.22157,55.55636],[13.22148,55.55657],[13.22156,55.55675],[13.22156,55.5568],[13.22141,55.55694],[13.22112,55.55696],[13.22089,55.55706],[13.22095,55.55725],[13.22104,55.55745],[13.22107,55.55764],[13.2211,55.55781],[13.22113,55.55798],[13.22124,55.55812],[13.22136,55.55828],[13.22128,55.55834],[13.22099,55.55839],[13.22075,55.55844],[13.22045,55.55855],[13.22012,55.55858],[13.21984,55.55867],[13.21964,55.55865],[13.21951,55.55847],[13.21928,55.5583],[13.21909,55.55816],[13.21906,55.55792],[13.21894,55.55772],[13.21879,55.55756],[13.21852,55.55746],[13.21819,55.55754],[13.21792,55.55771],[13.21764,55.55787],[13.21728,55.55797],[13.21695,55.55805],[13.21661,55.55814],[13.21628,55.5582],[13.21593,55.55832],[13.21564,55.55839],[13.2153,55.55848],[13.21499,55.55848],[13.21465,55.55847],[13.21425,55.55856],[13.21392,55.55858],[13.21362,55.55858],[13.21328,55.55855],[13.21302,55.55859],[13.21272,55.5586],[13.21248,55.55863],[13.21224,55.55867],[13.21195,55.55878],[13.21179,55.55877],[13.21158,55.55876],[13.21156,55.55874],[13.21137,55.55878],[13.21148,55.55877],[13.2115,55.55878],[13.21142,55.55875],[13.21123,55.55884],[13.21109,55.5589],[13.21111,55.55887],[13.21125,55.55883],[13.21154,55.5587],[13.21171,55.55841],[13.21186,55.55818],[13.212,55.55798],[13.21214,55.55786],[13.21243,55.55774],[13.21266,55.55762],[13.21286,55.55745],[13.21272,55.55725],[13.21273,55.55715],[13.21278,55.557],[13.21263,55.55685],[13.21239,55.55672],[13.21209,55.55651],[13.21178,55.55633],[13.21148,55.55619],[13.21113,55.5562],[13.21083,55.55622],[13.21057,55.55623],[13.2102,55.55623],[13.2099,55.55627],[13.2097,55.55627],[13.20953,55.55638],[13.20945,55.55639],[13.20937,55.5564],[13.2093,55.55632],[13.20931,55.55621],[13.20931,55.5562],[13.20932,55.5561],[13.20938,55.55594],[13.20948,55.55578],[13.20948,55.5556],[13.20935,55.55551],[13.20934,55.55539],[13.20914,55.55525],[13.209,55.55521],[13.20882,55.55524],[13.20861,55.55515],[13.20833,55.55504],[13.2081,55.55492],[13.20781,55.55486],[13.20752,55.55481],[13.20746,55.55466],[13.20723,55.55451],[13.20675,55.55424]]}}