{"type":"Feature","properties":{},"geometry":{"type":"LineString","coordinates":[[13.43179,55.60041],[13.43197,55.60049],[13.4321,55.60061],[13.43235,55.60079],[13.43239,55.60094],[13.43254,55.60107],[13.43259,55.6012],[13.43266,55.60137],[13.43272,55.60156],[13.43262,55.60182],[13.43254,55.60203],[13.4327,55.60224],[13.43282,55.60244],[13.43287,55.60259],[13.43301,55.60269],[13.433,55.60279],[13.4329,55.60302],[13.43274,55.60316],[13.43243,55.60318],[13.43221,55.60315],[13.43194,55.60314],[13.43157,55.60311],[13.43105,55.60314],[13.43074,55.60314],[13.43038,55.6032],[13.42993,55.60322],[13.42955,55.60325],[13.42912,55.60337],[13.42887,55.60341],[13.42868,55.60351],[13.42879,55.60373],[13.42865,55.60384],[13.42855,55.60399],[13.42851,55.60419],[13.4285,55.6044],[13.42853,55.60453],[13.42845,55.60469],[13.42836,55.60482],[13.4282,55.60496],[13.42825,55.60514],[13.42853,55.60537],[13.42872,55.60553],[13.42887,55.60564],[13.42915,55.60564],[13.42952,55.60567],[13.42988,55.60567],[13.43016,55.60564],[13.43052,55.60561],[13.43085,55.60578],[13.43104,55.6059],[13.43133,55.60586],[13.43159,55.60581],[13.43181,55.60584],[13.43207,55.60587],[13.43233,55.60596],[13.43261,55.60618],[13.43291,55.60611],[13.43306,55.60604],[13.43334,55.60599],[13.4336,55.60596],[13.4339,55.60601],[13.43413,55.60609],[13.43442,55.60622],[13.43476,55.60621],[13.43502,55.60627],[13.43531,55.60626],[13.43563,55.60619],[13.43592,55.60604],[13.43623,55.60584],[13.43655,55.60563],[13.43686,55.60542],[13.43719,55.60521],[13.43752,55.60506],[13.43777,55.60507],[13.43798,55.60512],[13.43822,55.60515],[13.43843,55.60519],[13.43874,55.60526],[13.43897,55.60527],[13.43901,55.60518],[13.43933,55.60518],[13.43964,55.60524],[13.43984,55.6053],[13.4401,55.60529],[13.44013,55.60536],[13.44027,55.60552],[13.44048,55.60583],[13.44059,55.60602],[13.44105,55.60614],[13.44161,55.60608],[13.44207,55.606],[13.44242,55.60596],[13.44275,55.60592],[13.44332,55.60581],[13.44388,55.60572],[13.44445,55.60563],[13.44474,55.60565],[13.44492,55.60577],[13.4452,55.60596],[13.44523,55.60608],[13.44551,55.60622],[13.4458,55.60637],[13.44621,55.60642],[13.44642,55.60628],[13.44653,55.6061],[13.44661,55.60593],[13.44664,55.60575],[13.44655,55.60551],[13.44644,55.60533],[13.44634,55.60513],[13.44619,55.60493],[13.44601,55.60468],[13.44588,55.60445],[13.44578,55.6043],[13.44589,55.6042],[13.4461,55.60416],[13.44603,55.60397],[13.44637,55.60386],[13.44652,55.60377],[13.44667,55.60369],[13.44682,55.60352],[13.4467,55.60332],[13.4467,55.60307],[13.44717,55.60299],[13.4478,55.60292],[13.44817,55.60279],[13.44823,55.60257],[13.44837,55.60239],[13.44797,55.60215],[13.44761,55.60184],[13.4476,55.6017],[13.44786,55.60152],[13.44796,55.60133],[13.44806,55.60117],[13.44819,55.60092],[13.44835,55.60066],[13.44833,55.60057],[13.44809,55.60049],[13.44782,55.60045],[13.44739,55.60051],[13.4469,55.6005],[13.44642,55.60051],[13.44608,55.60055],[13.44585,55.60053],[13.44542,55.60059],[13.44512,55.60061],[13.44494,55.60065],[13.44476,55.60071],[13.44461,55.60076],[13.44444,55.60085],[13.44424,55.60091],[13.44406,55.60093],[13.44382,55.6007],[13.44358,55.60053],[13.44322,55.60033],[13.44284,55.60027],[13.44245,55.6002],[13.44222,55.60015],[13.44197,55.6001],[13.44152,55.60011],[13.44099,55.60007],[13.44048,55.60005],[13.44022,55.60004],[13.43996,55.59987],[13.43968,55.59979],[13.43939,55.59979],[13.43902,55.59973],[13.43863,55.59985],[13.43825,55.59973],[13.43789,55.59952],[13.43752,55.59937],[13.43699,55.59939],[13.43644,55.59942],[13.43596,55.59944],[13.43578,55.59938],[13.43576,55.59911],[13.43533,55.59891],[13.43487,55.59885],[13.4345,55.59879],[13.4342,55.59853],[13.43392,55.59841],[13.43347,55.59826],[13.43298,55.59817],[13.43242,55.59804],[13.43184,55.59801],[13.43126,55.59794],[13.43076,55.59797],[13.4305,55.59813],[13.4303,55.59829],[13.43002,55.59849],[13.42986,55.59854],[13.42978,55.59847],[13.42956,55.59839],[13.42933,55.59837],[13.42909,55.59836],[13.42888,55.59832],[13.42872,55.59824],[13.42862,55.59812],[13.42851,55.598],[13.42842,55.59772]]}}