{"type":"Feature","properties":{},"geometry":{"type":"LineString","coordinates":[[12.95099,55.80339],[12.95127,55.80343],[12.95209,55.80342],[12.95226,55.80369],[12.95212,55.80399],[12.95201,55.8043],[12.95196,55.80449],[12.95225,55.8047],[12.95223,55.80478],[12.9523,55.80494],[12.95213,55.805],[12.95185,55.80521],[12.9514,55.80515],[12.9512,55.80507],[12.95135,55.80497],[12.95125,55.80492],[12.95059,55.80475],[12.94996,55.80448],[12.94942,55.80424],[12.9489,55.80408],[12.94817,55.80413],[12.94736,55.80402],[12.94723,55.80406],[12.94636,55.80426],[12.94562,55.80445],[12.94476,55.8046],[12.94429,55.80424],[12.9436,55.80388],[12.94283,55.80359],[12.9423,55.8034],[12.94173,55.80313],[12.94153,55.80287],[12.94134,55.80266],[12.94115,55.80231],[12.94064,55.80204],[12.94041,55.80192],[12.94026,55.80166],[12.9406,55.8017],[12.94129,55.80169],[12.94169,55.80163],[12.94223,55.80179],[12.94267,55.80185],[12.94332,55.8018],[12.94394,55.80182],[12.94468,55.80183],[12.94535,55.80169],[12.94604,55.8017],[12.94653,55.80172],[12.94687,55.80168],[12.94705,55.80144],[12.94765,55.80106],[12.94804,55.80071],[12.94798,55.80032],[12.94873,55.80004],[12.94932,55.79988],[12.94926,55.79946],[12.94909,55.79932],[12.94885,55.79919],[12.94827,55.79905],[12.94774,55.79883],[12.94718,55.79863],[12.94669,55.79828],[12.94594,55.79817],[12.94507,55.798],[12.94446,55.79783],[12.94399,55.79773],[12.94391,55.79799],[12.94396,55.7985],[12.94396,55.79896],[12.94416,55.79913],[12.94459,55.79933],[12.94511,55.79961],[12.94521,55.79979],[12.94554,55.80011],[12.94573,55.80016],[12.94502,55.80005],[12.94531,55.80014],[12.9459,55.80043],[12.9462,55.80073],[12.94704,55.801],[12.94777,55.80132],[12.94822,55.80156],[12.94875,55.80189],[12.94926,55.80219],[12.94964,55.80255],[12.95064,55.80257],[12.95164,55.80261],[12.95265,55.80264],[12.95306,55.80284],[12.95334,55.80312],[12.95352,55.80333],[12.95382,55.80356],[12.95399,55.80378],[12.9543,55.80385],[12.95479,55.80401],[12.955,55.80411],[12.95469,55.80403],[12.95416,55.80383],[12.95357,55.80412],[12.95291,55.80457],[12.95248,55.80493],[12.95273,55.80514],[12.95224,55.80508],[12.95149,55.805],[12.95087,55.8049],[12.95034,55.80453],[12.94951,55.80441],[12.94892,55.80414],[12.94798,55.80411],[12.9472,55.80405],[12.94708,55.80409],[12.94711,55.8041],[12.94733,55.80399],[12.94754,55.80377],[12.94731,55.80337],[12.94684,55.80306],[12.94659,55.80274],[12.94617,55.80245],[12.94594,55.80223],[12.94586,55.80192],[12.94585,55.80169],[12.94544,55.80147],[12.94536,55.80124],[12.94534,55.80091],[12.94505,55.80074],[12.94433,55.80074],[12.94435,55.80062],[12.94469,55.80021],[12.94488,55.79975],[12.94514,55.79937],[12.94545,55.79898],[12.94563,55.79858],[12.94628,55.79835],[12.94641,55.79803],[12.94656,55.79759],[12.94685,55.79751],[12.94767,55.79757],[12.94838,55.79795],[12.94907,55.7983],[12.94993,55.79866],[12.9507,55.799],[12.95141,55.79931],[12.95214,55.79964],[12.95205,55.8],[12.95156,55.80024],[12.9515,55.80059],[12.9518,55.80078],[12.95189,55.80074],[12.95127,55.80085],[12.95072,55.80096],[12.95023,55.80115],[12.94996,55.80127],[12.94942,55.80135],[12.94909,55.80133],[12.94856,55.80136],[12.94811,55.80123],[12.94737,55.80104],[12.94657,55.80075],[12.94563,55.80076],[12.94522,55.80128],[12.94491,55.80141],[12.9443,55.80139],[12.9435,55.80144],[12.94283,55.80135],[12.94208,55.80143],[12.94133,55.80125],[12.94084,55.8013],[12.94042,55.80153],[12.9402,55.80169],[12.9402,55.80185],[12.94048,55.80222],[12.94065,55.80271],[12.94024,55.80298],[12.93987,55.80344],[12.94066,55.80374],[12.94107,55.80387],[12.94112,55.80411],[12.94085,55.80444],[12.94088,55.8045],[12.9413,55.8048],[12.94188,55.8051],[12.94244,55.80548],[12.9434,55.80555],[12.9443,55.80557],[12.94527,55.80561],[12.94616,55.80562],[12.9471,55.80562],[12.94746,55.80582],[12.94794,55.80604],[12.94808,55.80609],[12.94755,55.80575],[12.94763,55.80545],[12.94825,55.80506],[12.94847,55.80459],[12.94776,55.80436],[12.9472,55.80405],[12.94714,55.80406],[12.9472,55.80407],[12.94727,55.80412],[12.9473,55.80405]]}}