{"type":"Feature","properties":{},"geometry":{"type":"LineString","coordinates":[[13.20239,55.54956],[13.20305,55.54926],[13.20367,55.54915],[13.20433,55.54907],[13.20505,55.54907],[13.20569,55.54902],[13.20633,55.54908],[13.20707,55.54913],[13.20781,55.54921],[13.20858,55.54925],[13.20927,55.54928],[13.20989,55.54933],[13.21041,55.54934],[13.21082,55.54911],[13.21125,55.54884],[13.21135,55.54852],[13.21163,55.54852],[13.21217,55.54851],[13.21254,55.54851],[13.21319,55.54846],[13.2137,55.54844],[13.21433,55.54835],[13.21504,55.5483],[13.21549,55.5483],[13.21595,55.54843],[13.2164,55.54844],[13.21671,55.5484],[13.21721,55.54833],[13.21775,55.54834],[13.21808,55.54829],[13.21827,55.54833],[13.2185,55.54842],[13.21862,55.54835],[13.21869,55.54807],[13.21857,55.54787],[13.21852,55.54761],[13.21837,55.5473],[13.21825,55.54705],[13.21824,55.54694],[13.21805,55.54681],[13.21799,55.54658],[13.21795,55.54626],[13.21774,55.54605],[13.21768,55.54585],[13.21734,55.54567],[13.21718,55.54556],[13.21675,55.54551],[13.21656,55.54558],[13.21661,55.54552],[13.2165,55.5455],[13.21603,55.54574],[13.21557,55.54576],[13.21511,55.54576],[13.21478,55.54578],[13.21442,55.54587],[13.21403,55.54599],[13.21419,55.54609],[13.21454,55.54634],[13.21485,55.54652],[13.21525,55.54675],[13.21562,55.54704],[13.21601,55.5473],[13.21648,55.54752],[13.21664,55.54744],[13.21685,55.54706],[13.21732,55.54678],[13.21774,55.54673],[13.21798,55.54657],[13.21831,55.54648],[13.21853,55.54618],[13.2189,55.54592],[13.21904,55.54566],[13.21924,55.54544],[13.21912,55.54512],[13.21907,55.54489],[13.21921,55.54472],[13.21887,55.54472],[13.21894,55.5448],[13.21902,55.54502],[13.21949,55.54518],[13.21978,55.54505],[13.21985,55.54474],[13.2196,55.54447],[13.21944,55.5443],[13.21932,55.54407],[13.2195,55.54375],[13.21991,55.54348],[13.22019,55.54311],[13.22062,55.54297],[13.22092,55.54285],[13.22128,55.54276],[13.22155,55.54251],[13.22189,55.54222],[13.22209,55.54204],[13.22245,55.54196],[13.22272,55.54185],[13.22292,55.5416],[13.22319,55.54147],[13.22334,55.54134],[13.22344,55.54117],[13.2234,55.541],[13.22332,55.54081],[13.22285,55.54059],[13.22242,55.5404],[13.22207,55.54025],[13.22158,55.5401],[13.22106,55.54025],[13.22056,55.54038],[13.2205,55.54011],[13.22047,55.53982],[13.22048,55.53957],[13.22026,55.53938],[13.22028,55.53936],[13.22015,55.53936],[13.22018,55.53942],[13.2202,55.53941],[13.22005,55.5394],[13.22015,55.53945],[13.22007,55.53951],[13.21976,55.53944],[13.21945,55.5394],[13.21902,55.53937],[13.21841,55.53922],[13.21795,55.53913],[13.21755,55.53921],[13.21704,55.53921],[13.21677,55.53918],[13.21631,55.53927],[13.21588,55.53934],[13.21553,55.5394],[13.21543,55.53956],[13.21527,55.53988],[13.21517,55.54017],[13.21499,55.5404],[13.21487,55.54076],[13.21502,55.54108],[13.21519,55.54144],[13.2155,55.54173],[13.21549,55.54187],[13.2151,55.54218],[13.21493,55.54224],[13.21492,55.54215],[13.21439,55.54207],[13.21393,55.54206],[13.21336,55.54209],[13.21283,55.54216],[13.21262,55.54209],[13.21221,55.54194],[13.21182,55.54168],[13.21135,55.54146],[13.21114,55.54118],[13.2111,55.54101],[13.21095,55.54104],[13.21076,55.54121],[13.21046,55.5415],[13.21013,55.54169],[13.2098,55.54178],[13.20959,55.54192],[13.20942,55.54217],[13.20922,55.54236],[13.20893,55.5425],[13.20865,55.54261],[13.20846,55.5427],[13.20836,55.54299],[13.20825,55.5433],[13.20803,55.54363],[13.20753,55.54371],[13.20711,55.54362],[13.20656,55.54358],[13.20613,55.54365],[13.2061,55.54373],[13.20613,55.54371],[13.20614,55.5437],[13.20615,55.54372],[13.20614,55.54368],[13.20602,55.54363],[13.20594,55.54351],[13.20553,55.54353],[13.20559,55.5438],[13.20598,55.54411],[13.20637,55.54439],[13.20661,55.54476],[13.20668,55.5451],[13.20646,55.54525],[13.20628,55.54549],[13.20658,55.54575],[13.20705,55.54574],[13.2075,55.546],[13.20746,55.54628],[13.20746,55.54644],[13.20747,55.54666],[13.2074,55.5469],[13.20702,55.54721],[13.20667,55.54763],[13.20617,55.54795],[13.20582,55.54832],[13.2051,55.54847],[13.20445,55.54872],[13.20386,55.54894],[13.20264,55.54941]]}}