{"type":"Feature","properties":{},"geometry":{"type":"LineString","coordinates":[[12.96975,55.59677],[12.96934,55.59662],[12.96889,55.5969],[12.96847,55.59721],[12.96795,55.5973],[12.96732,55.59718],[12.96664,55.59709],[12.96613,55.59725],[12.96571,55.59752],[12.96523,55.59776],[12.96479,55.59801],[12.96433,55.59832],[12.96392,55.5986],[12.96353,55.59887],[12.963,55.59877],[12.96243,55.59859],[12.96185,55.5984],[12.96145,55.59873],[12.96095,55.5989],[12.96048,55.5989],[12.95993,55.59868],[12.9594,55.59853],[12.95886,55.59847],[12.95861,55.59883],[12.95825,55.59919],[12.95754,55.5991],[12.95692,55.59909],[12.95624,55.59893],[12.95558,55.5987],[12.955,55.59848],[12.9544,55.59827],[12.95387,55.59817],[12.95342,55.59792],[12.9528,55.59771],[12.95221,55.59749],[12.95161,55.59726],[12.95105,55.59705],[12.95045,55.59684],[12.94988,55.59663],[12.94933,55.59639],[12.94881,55.59613],[12.94815,55.59602],[12.94762,55.59582],[12.94717,55.59551],[12.9465,55.59538],[12.94594,55.59518],[12.94536,55.59503],[12.94474,55.59485],[12.94413,55.59463],[12.94355,55.59437],[12.943,55.59408],[12.94253,55.59381],[12.94203,55.59353],[12.94148,55.59323],[12.94105,55.59298],[12.94058,55.59274],[12.9401,55.59249],[12.93963,55.59223],[12.93912,55.59192],[12.93858,55.59188],[12.93794,55.59208],[12.93735,55.59229],[12.93674,55.59252],[12.93616,55.59274],[12.93556,55.59299],[12.93494,55.59323],[12.93446,55.59349],[12.93378,55.59365],[12.93343,55.59387],[12.93319,55.59402],[12.93266,55.5942],[12.93215,55.59442],[12.93221,55.59473],[12.93275,55.59493],[12.93327,55.59466],[12.93374,55.59453],[12.93437,55.59461],[12.93505,55.59457],[12.93573,55.59461],[12.93643,55.59457],[12.93705,55.59454],[12.93768,55.59447],[12.93831,55.59438],[12.93896,55.59434],[12.93954,55.59443],[12.94007,55.59465],[12.94029,55.59494],[12.94045,55.59532],[12.94045,55.59569],[12.94013,55.59603],[12.93979,55.59638],[12.9394,55.59667],[12.93906,55.597],[12.93877,55.59731],[12.93836,55.59759],[12.93776,55.59778],[12.93835,55.5978],[12.93898,55.59783],[12.93964,55.59783],[12.94028,55.59777],[12.94094,55.59771],[12.94153,55.59765],[12.94216,55.59759],[12.94277,55.59759],[12.94342,55.59763],[12.94403,55.59767],[12.94465,55.59768],[12.94524,55.5977],[12.94588,55.59773],[12.94652,55.59777],[12.94716,55.59791],[12.94788,55.59801],[12.94851,55.59819],[12.94914,55.59832],[12.94984,55.59829],[12.95051,55.59828],[12.95123,55.59829],[12.95191,55.59835],[12.95257,55.59838],[12.95322,55.59843],[12.95377,55.59862],[12.95382,55.59895],[12.95433,55.59913],[12.95484,55.5993],[12.95537,55.59949],[12.95594,55.59964],[12.95653,55.59981],[12.9572,55.59992],[12.95781,55.60009],[12.95842,55.60026],[12.95899,55.60041],[12.95953,55.60058],[12.95981,55.60091],[12.96018,55.60115],[12.96077,55.60129],[12.96137,55.60147],[12.96195,55.60165],[12.96254,55.60184],[12.96307,55.60203],[12.9636,55.60217],[12.96419,55.60231],[12.96473,55.6025],[12.96527,55.60264],[12.96584,55.60284],[12.96632,55.60305],[12.96678,55.60331],[12.96732,55.60348],[12.96777,55.60368],[12.96835,55.60388],[12.96887,55.6041],[12.96933,55.60437],[12.96982,55.60456],[12.9703,55.60481],[12.9706,55.60516],[12.97106,55.60545],[12.97147,55.60576],[12.97183,55.60609],[12.9722,55.60642],[12.97236,55.60681],[12.97242,55.60717],[12.97245,55.60754],[12.97243,55.60793],[12.97242,55.60833],[12.97219,55.60868],[12.97202,55.6091],[12.97203,55.60948],[12.97221,55.60984],[12.97276,55.60992],[12.97301,55.60954],[12.9733,55.60917],[12.97334,55.60879],[12.97362,55.60841],[12.97417,55.60815],[12.97485,55.608],[12.97551,55.60777],[12.97611,55.60753],[12.97642,55.60715],[12.97667,55.60678],[12.97713,55.60648],[12.97772,55.60621],[12.9776,55.60583],[12.97783,55.60546],[12.9784,55.60534],[12.97864,55.60499],[12.97864,55.60466],[12.97807,55.60436],[12.97749,55.6041],[12.97679,55.60398],[12.97608,55.60393],[12.9754,55.60382],[12.97474,55.60356],[12.9741,55.60336],[12.97342,55.60325],[12.97278,55.60305],[12.97223,55.60279],[12.97153,55.60261],[12.97084,55.60252],[12.97031,55.60226],[12.96965,55.60217],[12.96892,55.60178]]}}