{"type":"Feature","properties":{},"geometry":{"type":"LineString","coordinates":[[13.46774,55.50801],[13.46736,55.50868],[13.4676,55.50932],[13.46796,55.50963],[13.46749,55.50912],[13.46771,55.50816],[13.46821,55.50725],[13.46891,55.50652],[13.4699,55.50576],[13.4692,55.50543],[13.46852,55.5054],[13.46782,55.50509],[13.46763,55.50485],[13.46836,55.50464],[13.46924,55.50449],[13.47039,55.50451],[13.47143,55.50488],[13.47274,55.50485],[13.47331,55.50418],[13.47396,55.5034],[13.4735,55.50317],[13.47288,55.50333],[13.47215,55.50335],[13.47237,55.50297],[13.47262,55.50224],[13.47258,55.50161],[13.47242,55.50096],[13.47214,55.50038],[13.47212,55.49984],[13.47176,55.49902],[13.47167,55.4982],[13.47134,55.49744],[13.47115,55.49725],[13.47084,55.49697],[13.47091,55.49656],[13.47002,55.4968],[13.46972,55.49692],[13.469,55.49703],[13.46796,55.49716],[13.46781,55.49789],[13.46796,55.49851],[13.4677,55.49893],[13.46766,55.49974],[13.46762,55.50053],[13.46759,55.50131],[13.46756,55.50204],[13.46778,55.50261],[13.468,55.50305],[13.4686,55.50302],[13.46915,55.50284],[13.46948,55.50281],[13.47001,55.50307],[13.46994,55.5034],[13.46979,55.5034],[13.4703,55.5031],[13.47079,55.50288],[13.47113,55.50345],[13.47129,55.50399],[13.47053,55.50484],[13.47022,55.50559],[13.47046,55.50588],[13.46987,55.50582],[13.46886,55.50658],[13.46812,55.50739],[13.46791,55.50806],[13.46742,55.50853],[13.46676,55.50921],[13.46577,55.50982],[13.46541,55.51039],[13.46586,55.51091],[13.46655,55.51117],[13.46708,55.51158],[13.46796,55.51189],[13.46866,55.51205],[13.46948,55.51219],[13.47067,55.51226],[13.47118,55.51251],[13.47164,55.51293],[13.47219,55.51324],[13.47223,55.51331],[13.47121,55.5136],[13.4704,55.51357],[13.46919,55.51343],[13.46797,55.51351],[13.46689,55.51381],[13.4663,55.51434],[13.46514,55.51452],[13.46438,55.5145],[13.46408,55.51423],[13.46387,55.51442],[13.46376,55.51492],[13.46395,55.51506],[13.46473,55.51495],[13.46561,55.51521],[13.46568,55.51565],[13.46576,55.51608],[13.46581,55.51654],[13.46518,55.51693],[13.46445,55.51697],[13.46375,55.51684],[13.46312,55.51677],[13.46208,55.51702],[13.46093,55.51726],[13.46058,55.51717],[13.46037,55.51694],[13.46037,55.51645],[13.46035,55.51606],[13.4607,55.5158],[13.46022,55.51565],[13.45994,55.51515],[13.46022,55.51469],[13.46089,55.51476],[13.46179,55.51474],[13.46258,55.51456],[13.46347,55.51448],[13.46394,55.51441],[13.4639,55.51415],[13.46333,55.51374],[13.46296,55.51312],[13.46246,55.51262],[13.46193,55.51244],[13.46155,55.5124],[13.46147,55.51215],[13.46148,55.51196],[13.46177,55.51176],[13.46253,55.51162],[13.46327,55.51128],[13.46455,55.5108],[13.46522,55.51011],[13.46578,55.50938],[13.46708,55.50913],[13.46759,55.50834],[13.46794,55.50805],[13.46748,55.50849],[13.46765,55.50931],[13.46828,55.50989],[13.46829,55.51053],[13.4681,55.51088],[13.46791,55.51144],[13.46862,55.5118],[13.46864,55.51218],[13.46857,55.51265],[13.46848,55.51306],[13.46863,55.51334],[13.46889,55.51374],[13.46934,55.51424],[13.46949,55.51481],[13.46952,55.5155],[13.46963,55.5161],[13.46963,55.51638],[13.46952,55.51667],[13.46999,55.51659],[13.46966,55.51684],[13.46921,55.51701],[13.46979,55.51685],[13.47066,55.51675],[13.47169,55.51607],[13.47202,55.51524],[13.47207,55.51445],[13.47268,55.51426],[13.47333,55.51394],[13.47298,55.51342],[13.47246,55.51298],[13.47186,55.51252],[13.47128,55.51249],[13.47084,55.51248],[13.47013,55.51283],[13.46928,55.51303],[13.4686,55.51345],[13.46761,55.51356],[13.46659,55.514],[13.4661,55.51444],[13.46486,55.51461],[13.46415,55.51492],[13.46348,55.51469],[13.46344,55.51446],[13.46341,55.51386],[13.46338,55.51328],[13.46384,55.51275],[13.46325,55.51258],[13.46273,55.51241],[13.46196,55.51243],[13.46169,55.51206],[13.46153,55.51163],[13.46197,55.51109],[13.46236,55.5107],[13.46247,55.51029],[13.46278,55.50996],[13.46322,55.50989],[13.46381,55.5095],[13.46406,55.50935],[13.4644,55.50908],[13.46492,55.50891],[13.46551,55.50933],[13.46694,55.50917],[13.46752,55.50841],[13.46796,55.508],[13.46819,55.50793],[13.46821,55.50791],[13.46806,55.50795]]}}