{"type":"Feature","properties":{},"geometry":{"type":"LineString","coordinates":[[12.97082,55.59764],[12.97089,55.59782],[12.97075,55.59808],[12.97071,55.59829],[12.97056,55.59855],[12.97047,55.59882],[12.97034,55.59909],[12.97021,55.59934],[12.97006,55.5996],[12.96995,55.59989],[12.96981,55.60014],[12.96965,55.60042],[12.9695,55.6007],[12.96928,55.60094],[12.96914,55.60122],[12.96916,55.60149],[12.96889,55.60173],[12.96895,55.60198],[12.9694,55.6021],[12.96985,55.6022],[12.97033,55.60224],[12.97074,55.60246],[12.97123,55.60259],[12.97174,55.60264],[12.9722,55.60278],[12.97265,55.60295],[12.97301,55.60315],[12.97352,55.60327],[12.97404,55.60333],[12.97449,55.60346],[12.97498,55.60361],[12.97539,55.60379],[12.9759,55.60392],[12.97638,55.60394],[12.97692,55.60397],[12.97744,55.60407],[12.97785,55.60426],[12.97828,55.60444],[12.97866,55.60464],[12.97871,55.60488],[12.97851,55.60516],[12.97827,55.6054],[12.9779,55.60559],[12.97764,55.60586],[12.97774,55.60616],[12.97735,55.60637],[12.97694,55.60653],[12.97647,55.6067],[12.976,55.60685],[12.9755,55.60701],[12.97496,55.60712],[12.97441,55.6072],[12.97391,55.60727],[12.97338,55.60738],[12.97326,55.6077],[12.97307,55.60799],[12.97269,55.60822],[12.97268,55.60856],[12.97266,55.60886],[12.97272,55.60915],[12.97301,55.60938],[12.97284,55.60967],[12.97259,55.60993],[12.9722,55.60978],[12.97205,55.60949],[12.97204,55.60921],[12.97206,55.60892],[12.97218,55.60864],[12.9724,55.60837],[12.97243,55.60807],[12.97245,55.60779],[12.97247,55.60752],[12.97242,55.60725],[12.97245,55.60695],[12.97236,55.60665],[12.9722,55.60637],[12.972,55.6061],[12.97171,55.60583],[12.97138,55.60561],[12.97099,55.60538],[12.97062,55.60514],[12.97024,55.60491],[12.96985,55.6047],[12.96945,55.60449],[12.96911,55.60429],[12.96865,55.60412],[12.96818,55.60396],[12.96769,55.60382],[12.96727,55.6036],[12.9669,55.60338],[12.96652,55.60316],[12.96617,55.60296],[12.96571,55.60279],[12.96524,55.60264],[12.96477,55.60248],[12.9643,55.60231],[12.96379,55.6022],[12.96338,55.60208],[12.96295,55.60192],[12.96242,55.6018],[12.96194,55.60164],[12.96145,55.60148],[12.96097,55.60133],[12.96052,55.60117],[12.96027,55.60092],[12.95986,55.6007],[12.95941,55.60051],[12.95894,55.60038],[12.95852,55.60026],[12.95813,55.60016],[12.95772,55.60004],[12.9573,55.59991],[12.95684,55.59983],[12.95641,55.59976],[12.95594,55.59961],[12.95544,55.59949],[12.95494,55.59933],[12.9545,55.59916],[12.954,55.59902],[12.95351,55.59894],[12.95302,55.59882],[12.95262,55.5986],[12.95236,55.59834],[12.95184,55.5983],[12.95127,55.59827],[12.95071,55.59826],[12.95015,55.59829],[12.94958,55.59827],[12.94906,55.59826],[12.94855,55.5984],[12.94809,55.59852],[12.94757,55.59843],[12.94704,55.59829],[12.94651,55.59818],[12.94597,55.59807],[12.94545,55.59795],[12.94496,55.59787],[12.94443,55.5978],[12.94386,55.59773],[12.9433,55.59765],[12.94275,55.59757],[12.94216,55.59757],[12.94164,55.5976],[12.94108,55.59766],[12.94051,55.59773],[12.93994,55.59777],[12.93939,55.59781],[12.93884,55.59782],[12.93831,55.59778],[12.93782,55.59776],[12.93797,55.59754],[12.93844,55.5974],[12.93873,55.59716],[12.93883,55.59699],[12.93912,55.59676],[12.9394,55.59658],[12.93975,55.59639],[12.94017,55.59623],[12.94058,55.59605],[12.94102,55.59589],[12.94149,55.59577],[12.94196,55.59567],[12.9424,55.59555],[12.94289,55.59543],[12.9434,55.59536],[12.94393,55.5953],[12.94444,55.59522],[12.94494,55.59512],[12.94538,55.59507],[12.94577,55.59513],[12.94624,55.59529],[12.94676,55.59543],[12.94722,55.59555],[12.94754,55.59578],[12.94802,55.59596],[12.94848,55.59608],[12.94895,55.5962],[12.94931,55.59642],[12.94975,55.59656],[12.95019,55.59672],[12.95067,55.59689],[12.95105,55.59707],[12.9515,55.59723],[12.95196,55.59737],[12.95242,55.59755],[12.95285,55.59773],[12.95331,55.59788],[12.95376,55.59803],[12.95397,55.59818],[12.95437,55.59827],[12.95487,55.59844],[12.95534,55.5986],[12.95583,55.59878],[12.95631,55.59894],[12.95679,55.59905],[12.95737,55.59906],[12.95791,55.59918],[12.95839,55.5991],[12.95867,55.59881],[12.95879,55.59849]]}}