{"type":"Feature","properties":{},"geometry":{"type":"LineString","coordinates":[[13.21054,55.55335],[13.21059,55.55333],[13.21076,55.55335],[13.21113,55.55329],[13.2123,55.55347],[13.21316,55.55388],[13.21403,55.55337],[13.21496,55.55298],[13.21577,55.55282],[13.21663,55.55265],[13.2176,55.55245],[13.21877,55.55242],[13.21974,55.55238],[13.22063,55.55244],[13.22015,55.55266],[13.22085,55.55299],[13.222,55.55293],[13.22257,55.55335],[13.22353,55.5536],[13.22439,55.55391],[13.22549,55.55396],[13.22639,55.55412],[13.22745,55.55409],[13.22816,55.55399],[13.22775,55.55429],[13.22806,55.55483],[13.22806,55.55525],[13.22781,55.55545],[13.22691,55.55541],[13.22608,55.55572],[13.22574,55.55615],[13.22535,55.55642],[13.22464,55.55674],[13.22413,55.55708],[13.22372,55.55716],[13.22316,55.55721],[13.22267,55.55726],[13.22215,55.55716],[13.22179,55.55702],[13.22103,55.55674],[13.22041,55.55651],[13.21996,55.55633],[13.2193,55.5562],[13.21862,55.55597],[13.21823,55.55561],[13.21776,55.55568],[13.21754,55.55617],[13.21723,55.55661],[13.21713,55.55701],[13.21659,55.55735],[13.21605,55.55721],[13.21527,55.55709],[13.21448,55.5568],[13.21412,55.55655],[13.21378,55.5562],[13.21371,55.5558],[13.21395,55.55563],[13.21441,55.55551],[13.21498,55.55541],[13.21506,55.55508],[13.21462,55.55466],[13.21383,55.5543],[13.21306,55.55391],[13.21239,55.5534],[13.21126,55.5532],[13.21073,55.55332],[13.21015,55.55352],[13.20952,55.55394],[13.20914,55.55431],[13.20894,55.55473],[13.20861,55.55502],[13.20813,55.55539],[13.20858,55.55546],[13.20947,55.55558],[13.21032,55.55558],[13.21106,55.55605],[13.21192,55.55659],[13.21285,55.5571],[13.21263,55.55753],[13.21269,55.55813],[13.21284,55.55863],[13.21193,55.55844],[13.21107,55.55871],[13.21008,55.55893],[13.20926,55.55872],[13.20856,55.55875],[13.20757,55.55864],[13.20688,55.55901],[13.20608,55.55913],[13.20544,55.55913],[13.20488,55.55953],[13.20411,55.55967],[13.20352,55.55952],[13.20285,55.5593],[13.20232,55.55901],[13.20278,55.55901],[13.20358,55.55889],[13.20422,55.55874],[13.2044,55.55824],[13.20457,55.55773],[13.20496,55.55759],[13.20457,55.55713],[13.20394,55.55669],[13.20328,55.55644],[13.20276,55.55593],[13.20258,55.55551],[13.20254,55.55515],[13.20242,55.55488],[13.2026,55.55438],[13.20294,55.55388],[13.2031,55.55342],[13.20379,55.55293],[13.20402,55.55233],[13.20442,55.55206],[13.20533,55.552],[13.20598,55.55197],[13.20696,55.55201],[13.20769,55.55198],[13.20877,55.55203],[13.20965,55.55193],[13.21041,55.55188],[13.21088,55.5518],[13.21094,55.55191],[13.21099,55.55233],[13.21085,55.55281],[13.21067,55.55331],[13.21082,55.55336],[13.21112,55.55325],[13.21133,55.55258],[13.21114,55.55217],[13.21101,55.55187],[13.21101,55.55183],[13.21168,55.55182],[13.21241,55.5514],[13.21346,55.55138],[13.21444,55.55118],[13.21545,55.55097],[13.21622,55.55095],[13.2166,55.5509],[13.21694,55.55053],[13.21752,55.55001],[13.21789,55.54953],[13.21818,55.54893],[13.21791,55.54852],[13.21744,55.54833],[13.21705,55.54801],[13.21666,55.54778],[13.21649,55.54748],[13.21604,55.54707],[13.21574,55.54671],[13.21553,55.54638],[13.21538,55.54607],[13.21496,55.54582],[13.21439,55.54561],[13.214,55.54558],[13.21436,55.54598],[13.21447,55.54607],[13.2143,55.546],[13.21389,55.54588],[13.21343,55.5454],[13.2132,55.54483],[13.21323,55.54418],[13.21301,55.5439],[13.21264,55.54415],[13.21254,55.54456],[13.21179,55.54453],[13.21095,55.54436],[13.21017,55.54435],[13.20927,55.54445],[13.20865,55.54461],[13.20836,55.545],[13.2083,55.54563],[13.208,55.54586],[13.20775,55.54604],[13.20769,55.54629],[13.20755,55.54648],[13.20756,55.54687],[13.20696,55.54736],[13.20726,55.5478],[13.20736,55.54807],[13.20775,55.54813],[13.2088,55.54798],[13.20939,55.54822],[13.20996,55.54846],[13.21052,55.54863],[13.21103,55.54863],[13.2116,55.54864],[13.21217,55.5485],[13.2117,55.54878],[13.2117,55.54942],[13.21163,55.54986],[13.21123,55.55019],[13.21074,55.55051],[13.21016,55.5509],[13.20975,55.55103],[13.20941,55.55159],[13.20907,55.5521],[13.20911,55.55231],[13.2098,55.55278],[13.21072,55.55334]]}}