{"type":"Feature","properties":{},"geometry":{"type":"LineString","coordinates":[[14.21195,55.83768],[14.2122,55.83775],[14.21277,55.8376],[14.21327,55.83746],[14.2137,55.83741],[14.21414,55.83716],[14.21451,55.83696],[14.21462,55.83671],[14.2147,55.83653],[14.21461,55.83628],[14.21431,55.83605],[14.21426,55.83573],[14.21438,55.83549],[14.21459,55.83535],[14.21471,55.83529],[14.21483,55.83514],[14.21524,55.83487],[14.21554,55.83461],[14.21588,55.83436],[14.21605,55.83421],[14.21595,55.83415],[14.2159,55.83403],[14.2159,55.83391],[14.21601,55.83393],[14.21608,55.83386],[14.21581,55.83391],[14.21567,55.83406],[14.2155,55.83411],[14.21548,55.83429],[14.21537,55.83429],[14.2153,55.83416],[14.21519,55.83397],[14.2152,55.83371],[14.2153,55.83356],[14.21571,55.8333],[14.21567,55.83303],[14.21612,55.83274],[14.21648,55.83238],[14.21657,55.8321],[14.21639,55.83188],[14.21619,55.83155],[14.21627,55.83139],[14.21625,55.83121],[14.21608,55.831],[14.21622,55.8308],[14.21638,55.83055],[14.21657,55.83022],[14.21656,55.83007],[14.2165,55.82997],[14.21609,55.82982],[14.21596,55.82973],[14.2157,55.82977],[14.21564,55.82998],[14.21556,55.83007],[14.21517,55.83016],[14.21478,55.83018],[14.21434,55.83018],[14.21371,55.83018],[14.21318,55.83022],[14.21258,55.8304],[14.21213,55.8305],[14.21172,55.83058],[14.21132,55.83071],[14.21113,55.8308],[14.21075,55.831],[14.2104,55.83119],[14.21034,55.83132],[14.21013,55.83149],[14.20977,55.83164],[14.20941,55.83176],[14.20945,55.83205],[14.20998,55.83216],[14.2102,55.83251],[14.21038,55.83288],[14.21074,55.83307],[14.21114,55.83325],[14.21154,55.83345],[14.2118,55.83369],[14.21176,55.83396],[14.21173,55.83418],[14.2118,55.83423],[14.21197,55.83401],[14.21223,55.834],[14.21245,55.83398],[14.21275,55.83383],[14.21307,55.83359],[14.21294,55.83324],[14.21274,55.83287],[14.21285,55.8327],[14.21298,55.83256],[14.21328,55.83248],[14.21359,55.83254],[14.21383,55.83254],[14.21407,55.83242],[14.2145,55.83217],[14.2148,55.83215],[14.2149,55.83216],[14.21529,55.83211],[14.21586,55.83192],[14.21624,55.83196],[14.21666,55.83197],[14.21741,55.83195],[14.2178,55.83191],[14.21833,55.83196],[14.21864,55.83205],[14.21898,55.83192],[14.21901,55.8317],[14.21885,55.83161],[14.21898,55.8316],[14.21913,55.83165],[14.21965,55.83182],[14.21967,55.83213],[14.21958,55.83236],[14.21959,55.83255],[14.21932,55.83272],[14.21926,55.83293],[14.2197,55.83303],[14.22008,55.83303],[14.22062,55.83303],[14.22097,55.83319],[14.22082,55.83331],[14.22076,55.83345],[14.2211,55.83346],[14.22143,55.83339],[14.22167,55.83338],[14.22171,55.83344],[14.22182,55.83363],[14.22194,55.83383],[14.222,55.83402],[14.22209,55.83423],[14.22217,55.83443],[14.22225,55.8346],[14.22229,55.83474],[14.2222,55.83478],[14.22191,55.83484],[14.22156,55.83486],[14.2212,55.83488],[14.22099,55.83487],[14.22066,55.83489],[14.22028,55.83493],[14.21995,55.83501],[14.21966,55.83508],[14.21934,55.83513],[14.21897,55.83519],[14.21879,55.83536],[14.2187,55.83555],[14.21866,55.83575],[14.21863,55.83595],[14.21859,55.83614],[14.2185,55.83631],[14.21846,55.83649],[14.21867,55.83666],[14.21884,55.83681],[14.219,55.83699],[14.21899,55.83719],[14.21892,55.83736],[14.21884,55.83756],[14.21873,55.83775],[14.21865,55.83793],[14.21861,55.83813],[14.21865,55.83833],[14.21862,55.8385],[14.21844,55.83869],[14.21846,55.83888],[14.21866,55.83908],[14.21892,55.83923],[14.21889,55.83942],[14.21898,55.83958],[14.21899,55.83973],[14.21913,55.8399],[14.2191,55.84006],[14.21879,55.84014],[14.2185,55.84024],[14.21826,55.84031],[14.21799,55.84041],[14.21773,55.84053],[14.21758,55.84062],[14.21733,55.84072],[14.21748,55.84088],[14.21772,55.84112],[14.21786,55.84133],[14.21772,55.84145],[14.21766,55.84167],[14.21763,55.84187],[14.21753,55.84202],[14.21741,55.84217],[14.21739,55.84237],[14.21733,55.84258],[14.21724,55.84276],[14.21717,55.84293],[14.21713,55.84306],[14.21689,55.84316],[14.21659,55.84315],[14.21633,55.8432],[14.2161,55.84325],[14.21592,55.84328],[14.21568,55.84323],[14.21549,55.84311],[14.21527,55.84309],[14.21502,55.84333]]}}