{"type":"Feature","properties":{},"geometry":{"type":"LineString","coordinates":[[12.9702,55.59915],[12.97018,55.59919],[12.97018,55.59923],[12.97015,55.59934],[12.97009,55.59941],[12.97003,55.59951],[12.97001,55.59963],[12.96998,55.59973],[12.96991,55.59984],[12.96988,55.59995],[12.96985,55.60003],[12.96983,55.60012],[12.96979,55.60022],[12.96974,55.60031],[12.96968,55.60041],[12.96964,55.60052],[12.9696,55.60059],[12.96953,55.60066],[12.96946,55.60076],[12.9694,55.60083],[12.9693,55.60093],[12.96927,55.60102],[12.96927,55.6011],[12.96921,55.60121],[12.96918,55.60132],[12.96917,55.6014],[12.9692,55.60151],[12.9691,55.6016],[12.96899,55.60166],[12.9689,55.60175],[12.96885,55.60185],[12.96879,55.60194],[12.96872,55.60204],[12.96864,55.60214],[12.96857,55.60222],[12.96847,55.60232],[12.96837,55.6024],[12.96825,55.60244],[12.96808,55.6024],[12.96791,55.60236],[12.96776,55.6023],[12.96763,55.60225],[12.96748,55.60221],[12.9673,55.60218],[12.96715,55.60213],[12.96697,55.60208],[12.9668,55.60203],[12.96667,55.60198],[12.96651,55.60193],[12.96632,55.60188],[12.9662,55.60185],[12.96601,55.60179],[12.96586,55.60173],[12.96571,55.60169],[12.96555,55.60165],[12.96539,55.6016],[12.96524,55.60157],[12.96509,55.60152],[12.96492,55.60147],[12.96478,55.60144],[12.96462,55.60139],[12.96442,55.60134],[12.96427,55.6013],[12.96407,55.60125],[12.96389,55.60121],[12.96376,55.60117],[12.96359,55.60112],[12.96342,55.60106],[12.96327,55.60103],[12.9631,55.60098],[12.96292,55.60093],[12.96281,55.60089],[12.9626,55.60084],[12.96243,55.6008],[12.96229,55.60075],[12.9621,55.6007],[12.96191,55.60065],[12.96178,55.60061],[12.96162,55.60056],[12.96145,55.60051],[12.96129,55.60046],[12.96114,55.60042],[12.96096,55.60038],[12.96078,55.60032],[12.96064,55.60028],[12.96046,55.60023],[12.96028,55.60017],[12.96013,55.60013],[12.96003,55.60007],[12.96009,55.59997],[12.96015,55.5999],[12.96,55.59984],[12.95978,55.59979],[12.95961,55.59975],[12.95942,55.59969],[12.95924,55.59964],[12.9591,55.59959],[12.95892,55.59954],[12.95875,55.59949],[12.95862,55.59945],[12.95846,55.5994],[12.9584,55.59929],[12.95834,55.59922],[12.95813,55.59918],[12.95792,55.59919],[12.95776,55.59916],[12.95758,55.5991],[12.9574,55.59905],[12.95725,55.59906],[12.9571,55.59912],[12.95691,55.59914],[12.95674,55.5991],[12.95655,55.59903],[12.95637,55.59898],[12.95622,55.59894],[12.95605,55.59888],[12.95588,55.59882],[12.95573,55.59876],[12.95557,55.59868],[12.95539,55.59862],[12.95523,55.59857],[12.95511,55.59853],[12.95494,55.59847],[12.95479,55.59843],[12.95463,55.59839],[12.95447,55.59833],[12.95432,55.59826],[12.95419,55.59821],[12.95409,55.59812],[12.95415,55.59801],[12.9542,55.59793],[12.95427,55.59783],[12.95437,55.59773],[12.95445,55.59766],[12.95455,55.59757],[12.95466,55.59748],[12.95474,55.5974],[12.95485,55.59731],[12.95496,55.59722],[12.95507,55.59715],[12.95522,55.59709],[12.95538,55.59704],[12.95551,55.59699],[12.95566,55.59694],[12.95583,55.59686],[12.95596,55.5968],[12.95612,55.59673],[12.95628,55.59665],[12.95639,55.59661],[12.95654,55.59656],[12.95669,55.5965],[12.95681,55.59647],[12.95696,55.59641],[12.95711,55.59635],[12.95723,55.5963],[12.9573,55.59621],[12.95741,55.59613],[12.95754,55.59608],[12.95767,55.59601],[12.95776,55.59597],[12.95787,55.59594],[12.95794,55.59592],[12.95804,55.59589],[12.95815,55.59587],[12.95824,55.59585],[12.95836,55.59582],[12.95847,55.59578],[12.95857,55.59576],[12.95872,55.59573],[12.95886,55.5957],[12.95902,55.59566],[12.95921,55.59561],[12.95939,55.59558],[12.95954,55.59554],[12.95972,55.5955],[12.95989,55.59545],[12.96002,55.59542],[12.96019,55.59539],[12.96036,55.59535],[12.96049,55.59531],[12.96066,55.59525],[12.9608,55.59518],[12.96094,55.59514],[12.96112,55.59512],[12.96133,55.59511],[12.96146,55.59508],[12.96167,55.59505],[12.96186,55.59499],[12.96201,55.59496],[12.96219,55.59492],[12.96236,55.59487],[12.96249,55.59484],[12.96267,55.5948],[12.96285,55.59476],[12.963,55.59473],[12.96318,55.59469],[12.96336,55.59464],[12.9635,55.59461],[12.96367,55.59456],[12.96392,55.59452]]}}