{"type":"Feature","properties":{},"geometry":{"type":"LineString","coordinates":[[13.39026,55.90344],[13.3895,55.90397],[13.38861,55.90405],[13.38806,55.90402],[13.38748,55.90448],[13.38701,55.90508],[13.38624,55.90545],[13.38531,55.90586],[13.38435,55.90626],[13.38347,55.90645],[13.38315,55.90598],[13.38243,55.90571],[13.38172,55.90555],[13.38085,55.90542],[13.37977,55.9058],[13.37881,55.90624],[13.37784,55.90649],[13.37698,55.90684],[13.37606,55.90704],[13.37552,55.90719],[13.37488,55.90739],[13.37452,55.90749],[13.37402,55.90772],[13.37346,55.90804],[13.37297,55.90824],[13.37243,55.90853],[13.37218,55.90849],[13.37184,55.90811],[13.37145,55.90783],[13.37108,55.90751],[13.3706,55.90707],[13.37039,55.90662],[13.37024,55.90634],[13.37077,55.90595],[13.37124,55.90604],[13.37183,55.90626],[13.37272,55.90631],[13.37365,55.90634],[13.37452,55.90604],[13.37535,55.90633],[13.3763,55.90626],[13.37747,55.90603],[13.37856,55.90573],[13.37937,55.90524],[13.38007,55.90481],[13.38088,55.90494],[13.38109,55.90493],[13.38025,55.90449],[13.38089,55.90413],[13.38199,55.90388],[13.38294,55.90362],[13.38347,55.90318],[13.38373,55.90274],[13.38436,55.90232],[13.38497,55.90197],[13.38558,55.90169],[13.38611,55.90145],[13.38658,55.9014],[13.38719,55.90146],[13.38784,55.90173],[13.38901,55.9022],[13.38976,55.90274],[13.39026,55.90337],[13.39017,55.90338],[13.38981,55.90275],[13.38929,55.90226],[13.38856,55.90193],[13.38795,55.90168],[13.38743,55.9015],[13.38706,55.90137],[13.38657,55.90133],[13.38593,55.90135],[13.38501,55.90148],[13.38415,55.90183],[13.38342,55.90205],[13.3828,55.90166],[13.38249,55.90176],[13.38208,55.90198],[13.38172,55.90224],[13.38152,55.90262],[13.38083,55.90319],[13.38022,55.90358],[13.38016,55.90411],[13.38029,55.90466],[13.38099,55.90503],[13.38073,55.90501],[13.38012,55.90475],[13.37933,55.90518],[13.37855,55.90566],[13.37739,55.90598],[13.37626,55.90618],[13.37518,55.90613],[13.37412,55.90598],[13.37332,55.90626],[13.3727,55.90626],[13.37198,55.90623],[13.37162,55.90609],[13.37193,55.9063],[13.3724,55.90648],[13.37274,55.90673],[13.3734,55.90703],[13.37406,55.90735],[13.37434,55.90771],[13.37468,55.90802],[13.37509,55.90809],[13.3758,55.90808],[13.37637,55.90791],[13.37714,55.90764],[13.37782,55.90741],[13.37893,55.90741],[13.37929,55.90735],[13.37998,55.90735],[13.38088,55.9074],[13.3816,55.90721],[13.38213,55.90698],[13.38278,55.90663],[13.38322,55.90623],[13.38337,55.90595],[13.38328,55.90643],[13.38433,55.90632],[13.38521,55.90592],[13.38605,55.90555],[13.38693,55.90522],[13.38741,55.90458],[13.38794,55.90416],[13.38882,55.90404],[13.38978,55.90369],[13.39024,55.9034],[13.38964,55.90377],[13.38985,55.90436],[13.38956,55.90496],[13.38881,55.90544],[13.38817,55.90563],[13.38748,55.90564],[13.38689,55.90566],[13.38634,55.90582],[13.38571,55.90595],[13.38514,55.906],[13.38431,55.90628],[13.38347,55.90641],[13.38282,55.90638],[13.3821,55.90642],[13.38135,55.90633],[13.38043,55.90649],[13.37979,55.90646],[13.37952,55.90627],[13.37911,55.90614],[13.37822,55.90641],[13.37723,55.90675],[13.37622,55.90704],[13.37558,55.90714],[13.37502,55.90732],[13.37466,55.90752],[13.37447,55.90775],[13.37422,55.90806],[13.37343,55.90828],[13.37294,55.90826],[13.37265,55.9081],[13.37227,55.90788],[13.3716,55.90758],[13.37092,55.90729],[13.37053,55.90693],[13.37029,55.90657],[13.37054,55.90654],[13.3711,55.90652],[13.37182,55.90622],[13.37268,55.90626],[13.37354,55.90647],[13.37412,55.90603],[13.37508,55.90611],[13.37602,55.90626],[13.37656,55.90604],[13.37641,55.90559],[13.37675,55.9054],[13.37749,55.90539],[13.37795,55.90505],[13.3783,55.90481],[13.37842,55.90447],[13.3791,55.90437],[13.37943,55.90421],[13.37982,55.90374],[13.38064,55.90339],[13.38169,55.90322],[13.383,55.90303],[13.38399,55.90261],[13.38454,55.90215],[13.38524,55.90186],[13.38556,55.90195],[13.38627,55.90203],[13.387,55.90218],[13.38791,55.90204],[13.38893,55.90219],[13.38979,55.90273],[13.39036,55.90334],[13.3904,55.90331],[13.39043,55.9033],[13.39054,55.90328],[13.39054,55.90327],[13.39019,55.90344],[13.39047,55.90325]]}}