{"type":"Feature","properties":{},"geometry":{"type":"LineString","coordinates":[[12.05442,57.84266],[12.05425,57.84266],[12.05367,57.84254],[12.05335,57.84249],[12.05315,57.84244],[12.05291,57.84224],[12.05325,57.84213],[12.05375,57.84184],[12.0542,57.84154],[12.05451,57.8412],[12.05452,57.8408],[12.05452,57.84053],[12.05449,57.84021],[12.05429,57.83997],[12.05416,57.83969],[12.0538,57.83944],[12.05359,57.8392],[12.0535,57.83899],[12.05326,57.8388],[12.05293,57.83864],[12.05265,57.83854],[12.05227,57.83832],[12.05229,57.83818],[12.05219,57.83792],[12.052,57.83776],[12.0519,57.83758],[12.05199,57.83737],[12.05197,57.83716],[12.05177,57.83694],[12.05158,57.83682],[12.05137,57.83657],[12.05118,57.83634],[12.05104,57.83615],[12.05109,57.83587],[12.05119,57.83564],[12.05141,57.83543],[12.05165,57.83521],[12.05187,57.8351],[12.05207,57.83497],[12.05232,57.83475],[12.05219,57.83452],[12.05209,57.83456],[12.05224,57.83444],[12.05257,57.83429],[12.05277,57.83428],[12.05292,57.83427],[12.05319,57.83418],[12.05343,57.83405],[12.05368,57.83404],[12.05398,57.83401],[12.05392,57.83412],[12.05398,57.83433],[12.05435,57.83444],[12.05466,57.83456],[12.05504,57.83468],[12.05535,57.8348],[12.05562,57.8349],[12.05602,57.83509],[12.05629,57.83517],[12.05671,57.83525],[12.05712,57.83517],[12.05747,57.83517],[12.05776,57.83529],[12.05806,57.83541],[12.05811,57.83548],[12.05822,57.8356],[12.05823,57.83577],[12.05809,57.83595],[12.05814,57.83613],[12.05831,57.83629],[12.05829,57.83646],[12.05822,57.83654],[12.05773,57.83657],[12.05743,57.83675],[12.05725,57.83701],[12.05695,57.83717],[12.0569,57.83735],[12.05689,57.83756],[12.05673,57.83777],[12.05667,57.83796],[12.05657,57.83822],[12.05652,57.83848],[12.05652,57.83867],[12.05662,57.83887],[12.05679,57.83906],[12.05689,57.83923],[12.05709,57.83933],[12.05701,57.83953],[12.05687,57.83967],[12.05709,57.83985],[12.05711,57.84003],[12.05714,57.84017],[12.05725,57.84035],[12.05734,57.84067],[12.05728,57.84087],[12.05701,57.84105],[12.0569,57.84137],[12.05652,57.84161],[12.05612,57.84176],[12.05563,57.84197],[12.05544,57.84215],[12.05546,57.84241],[12.05541,57.84259],[12.05529,57.84289],[12.05538,57.84309],[12.05565,57.84328],[12.05567,57.84346],[12.05556,57.8437],[12.05546,57.84394],[12.05522,57.84428],[12.05505,57.84449],[12.05496,57.84475],[12.05485,57.84503],[12.0548,57.84522],[12.05502,57.84544],[12.05495,57.84565],[12.055,57.84582],[12.05523,57.84601],[12.05545,57.84618],[12.0556,57.84635],[12.05579,57.84653],[12.05596,57.84672],[12.05593,57.84691],[12.05581,57.84708],[12.05606,57.84725],[12.05606,57.84739],[12.05607,57.84755],[12.05599,57.84768],[12.05601,57.84787],[12.05611,57.84802],[12.05609,57.84812],[12.05629,57.84829],[12.05632,57.84836],[12.05656,57.84857],[12.05683,57.8487],[12.05712,57.84897],[12.05733,57.8491],[12.05712,57.84908],[12.05685,57.84912],[12.05662,57.84927],[12.05645,57.84941],[12.0562,57.84947],[12.05612,57.84961],[12.05602,57.84984],[12.05596,57.85],[12.05578,57.85007],[12.05567,57.85016],[12.05548,57.85031],[12.05524,57.85045],[12.05511,57.85066],[12.05493,57.85087],[12.05479,57.85102],[12.0546,57.85134],[12.0542,57.85161],[12.05399,57.85146],[12.05352,57.85126],[12.05258,57.85105],[12.05175,57.85121],[12.05129,57.8515],[12.05087,57.85181],[12.05052,57.85197],[12.05033,57.85211],[12.0501,57.85223],[12.04976,57.85241],[12.04955,57.85259],[12.04935,57.8529],[12.0494,57.8532],[12.04937,57.8532],[12.04925,57.85305],[12.04888,57.85337],[12.04863,57.85355],[12.04821,57.85383],[12.04801,57.85363],[12.04761,57.85318],[12.04738,57.85268],[12.04636,57.85261],[12.04538,57.85274],[12.0447,57.85282],[12.04473,57.85308],[12.04486,57.85329],[12.04471,57.85354],[12.04438,57.85362],[12.04421,57.85376],[12.04408,57.85392],[12.04384,57.85391],[12.04356,57.85393],[12.04327,57.854],[12.04316,57.85392],[12.04296,57.85392],[12.04272,57.85396],[12.04256,57.85412],[12.04208,57.85422],[12.04183,57.85428],[12.04143,57.85435],[12.04057,57.85447],[12.0399,57.85447],[12.03937,57.85434],[12.03888,57.85463],[12.03812,57.85452],[12.0383,57.85501]]}}