{"type":"Feature","properties":{},"geometry":{"type":"LineString","coordinates":[[12.96045,55.59786],[12.9604,55.59784],[12.96031,55.59782],[12.96023,55.59779],[12.96018,55.59777],[12.9601,55.59774],[12.96003,55.5977],[12.95996,55.59767],[12.95991,55.59764],[12.95984,55.59761],[12.95977,55.59758],[12.95971,55.59756],[12.95963,55.59753],[12.95956,55.59751],[12.95948,55.59748],[12.95942,55.59746],[12.95934,55.59744],[12.95926,55.59741],[12.95922,55.59739],[12.95914,55.59736],[12.95909,55.59732],[12.95908,55.59728],[12.95908,55.59724],[12.9591,55.59718],[12.95914,55.59714],[12.95921,55.59711],[12.95927,55.5971],[12.95936,55.59709],[12.95944,55.59707],[12.9595,55.59707],[12.95958,55.59705],[12.95967,55.59703],[12.95975,55.59701],[12.9598,55.59699],[12.95988,55.59698],[12.95997,55.59696],[12.96004,55.59695],[12.96013,55.59692],[12.96021,55.59689],[12.9603,55.59686],[12.96038,55.59685],[12.96047,55.59683],[12.96057,55.59682],[12.96064,55.5968],[12.96072,55.59679],[12.96079,55.59677],[12.96085,55.59675],[12.9609,55.59673],[12.96096,55.59671],[12.96105,55.59668],[12.96113,55.59668],[12.96118,55.59668],[12.96129,55.59667],[12.96137,55.59666],[12.96143,55.59665],[12.96153,55.59665],[12.96162,55.59663],[12.96169,55.59661],[12.96175,55.59659],[12.96183,55.59657],[12.96191,55.59656],[12.96197,55.59655],[12.96205,55.59653],[12.96213,55.59651],[12.9622,55.59649],[12.96224,55.59646],[12.96227,55.59641],[12.96231,55.59636],[12.96231,55.59632],[12.96229,55.59627],[12.96228,55.59622],[12.96227,55.59617],[12.96226,55.59613],[12.96225,55.59608],[12.96223,55.59605],[12.9622,55.596],[12.96219,55.59596],[12.96218,55.5959],[12.96215,55.59585],[12.96213,55.59583],[12.96212,55.59578],[12.96208,55.59574],[12.96202,55.59571],[12.96197,55.59568],[12.9619,55.59564],[12.96183,55.59561],[12.96178,55.59558],[12.96172,55.59554],[12.96166,55.59551],[12.96161,55.59547],[12.96156,55.59545],[12.96151,55.59541],[12.96148,55.59537],[12.96147,55.59533],[12.96147,55.59528],[12.96145,55.59523],[12.96142,55.59519],[12.96138,55.59516],[12.96131,55.59513],[12.96124,55.59513],[12.96116,55.59512],[12.96109,55.59511],[12.96101,55.5951],[12.96094,55.59507],[12.96089,55.59505],[12.96089,55.59505],[12.96095,55.59507],[12.96103,55.59509],[12.96109,55.5951],[12.96117,55.59512],[12.96123,55.59511],[12.96129,55.59512],[12.96139,55.59516],[12.96146,55.59521],[12.96152,55.59525],[12.96157,55.59526],[12.96164,55.59526],[12.96171,55.59528],[12.96176,55.59527],[12.96186,55.59524],[12.96197,55.5952],[12.96207,55.59518],[12.96214,55.59517],[12.96223,55.59514],[12.96232,55.59513],[12.96242,55.59511],[12.96249,55.59509],[12.96257,55.59506],[12.96265,55.59504],[12.96271,55.59503],[12.96279,55.59501],[12.96286,55.59499],[12.96294,55.59497],[12.96301,55.59495],[12.9631,55.59493],[12.96317,55.59492],[12.96323,55.59491],[12.96332,55.59489],[12.9634,55.59486],[12.96349,55.59484],[12.96355,55.59483],[12.96364,55.5948],[12.96369,55.59478],[12.96373,55.59476],[12.96382,55.59475],[12.96389,55.59474],[12.964,55.59471],[12.96408,55.59469],[12.96417,55.59467],[12.96425,55.59465],[12.96434,55.59463],[12.9644,55.59462],[12.96449,55.5946],[12.96457,55.59458],[12.96463,55.59456],[12.96471,55.59454],[12.96479,55.59453],[12.96487,55.5945],[12.96493,55.59449],[12.96501,55.59447],[12.96507,55.59446],[12.96513,55.59445],[12.96521,55.59443],[12.9653,55.59441],[12.96537,55.59439],[12.96544,55.59438],[12.96554,55.59436],[12.96562,55.59436],[12.96568,55.59437],[12.96575,55.59438],[12.96585,55.59438],[12.96594,55.59439],[12.96598,55.5944],[12.96607,55.59442],[12.96617,55.59444],[12.96624,55.59446],[12.96626,55.59449],[12.96628,55.59454],[12.96632,55.5946],[12.96633,55.59463],[12.96639,55.59467],[12.96647,55.59471],[12.96653,55.59475],[12.96658,55.59477],[12.96665,55.59479],[12.96669,55.59481],[12.96673,55.59483],[12.96679,55.59486],[12.96685,55.59489],[12.96691,55.59493],[12.96694,55.59497],[12.96696,55.59501],[12.967,55.59504],[12.96703,55.59506],[12.96706,55.59508],[12.96707,55.5951],[12.96707,55.59511],[12.96707,55.59512],[12.96708,55.59513],[12.96708,55.59517]]}}