{"type":"Feature","properties":{},"geometry":{"type":"LineString","coordinates":[[12.97011,55.59758],[12.97005,55.59756],[12.96989,55.59752],[12.96968,55.59748],[12.96953,55.59745],[12.96931,55.59741],[12.96913,55.59738],[12.96893,55.59735],[12.96875,55.59738],[12.96854,55.59738],[12.96841,55.59735],[12.96822,55.59737],[12.9681,55.59745],[12.968,55.59754],[12.96789,55.59765],[12.96775,55.59775],[12.96758,55.59785],[12.96745,55.59796],[12.96726,55.59808],[12.96709,55.59818],[12.96691,55.5983],[12.96677,55.5984],[12.96659,55.59851],[12.96644,55.59862],[12.96626,55.59875],[12.96609,55.59886],[12.96591,55.59896],[12.96571,55.59909],[12.9655,55.59916],[12.96532,55.59929],[12.96519,55.5994],[12.965,55.59947],[12.96478,55.5994],[12.96455,55.59929],[12.96435,55.5992],[12.96409,55.59912],[12.96386,55.59904],[12.96362,55.59896],[12.96337,55.59893],[12.96316,55.59886],[12.96293,55.59875],[12.96271,55.59867],[12.96248,55.59859],[12.96228,55.5985],[12.96203,55.59842],[12.96182,55.59843],[12.96166,55.59858],[12.9615,55.5987],[12.96132,55.59884],[12.96119,55.59896],[12.96104,55.59909],[12.96088,55.59919],[12.96064,55.59915],[12.96039,55.59905],[12.96017,55.59896],[12.95992,55.59885],[12.95971,55.59876],[12.95946,55.59866],[12.95924,55.59859],[12.95869,55.59855],[12.95867,55.59862],[12.95856,55.59881],[12.95843,55.59899],[12.95828,55.59917],[12.95794,55.59919],[12.95768,55.59915],[12.95739,55.59906],[12.95714,55.59907],[12.95686,55.59909],[12.95664,55.59903],[12.95637,55.59895],[12.95613,55.59887],[12.95585,55.59878],[12.95559,55.59868],[12.95529,55.59858],[12.95507,55.5985],[12.95483,55.59843],[12.95457,55.59835],[12.95432,55.59828],[12.95406,55.59819],[12.95387,55.59818],[12.95376,55.59805],[12.95353,55.59797],[12.95329,55.59787],[12.95308,55.59777],[12.95281,55.59768],[12.95257,55.59759],[12.95227,55.5975],[12.95204,55.5974],[12.95179,55.59731],[12.9515,55.59724],[12.9513,55.59716],[12.95102,55.59705],[12.95081,55.59696],[12.95051,55.59685],[12.95027,55.59678],[12.95002,55.59666],[12.9498,55.59656],[12.94952,55.59646],[12.94932,55.59636],[12.94911,55.59626],[12.94898,55.59619],[12.94886,55.59613],[12.94867,55.59608],[12.94846,55.59607],[12.94821,55.59602],[12.94793,55.59592],[12.94765,55.59581],[12.94745,55.59571],[12.94728,55.59556],[12.94705,55.59547],[12.94671,55.59542],[12.94643,55.59536],[12.94619,55.59528],[12.94596,55.59517],[12.94584,55.59505],[12.94586,55.59489],[12.94592,55.59475],[12.94607,55.59461],[12.94628,55.59449],[12.94653,55.59434],[12.94676,55.59422],[12.94702,55.59408],[12.94724,55.59397],[12.94749,55.59387],[12.94773,55.5938],[12.94797,55.5937],[12.94828,55.59366],[12.94854,55.59368],[12.94879,55.59377],[12.94903,55.59385],[12.94931,55.59397],[12.94954,55.59406],[12.94982,55.59417],[12.95001,55.59428],[12.95026,55.59443],[12.95053,55.59451],[12.95079,55.5946],[12.95099,55.59469],[12.95118,55.5948],[12.9514,55.59494],[12.95161,55.59505],[12.95185,55.59519],[12.9521,55.59531],[12.95241,55.59541],[12.9526,55.59553],[12.95288,55.59563],[12.95311,55.59572],[12.95339,55.59584],[12.95365,55.59593],[12.95393,55.59605],[12.95417,55.59616],[12.95438,55.59627],[12.95462,55.59643],[12.95483,55.59656],[12.95506,55.59671],[12.95525,55.59684],[12.95544,55.59698],[12.95571,55.59692],[12.95596,55.59679],[12.95614,55.5967],[12.95627,55.59664],[12.95639,55.59659],[12.95653,55.59655],[12.95668,55.59651],[12.95681,55.59647],[12.95697,55.59643],[12.9571,55.59639],[12.95726,55.59634],[12.9574,55.5963],[12.95752,55.59625],[12.95761,55.59615],[12.95772,55.59605],[12.95788,55.59597],[12.95813,55.5959],[12.95844,55.59583],[12.95871,55.59575],[12.95903,55.59569],[12.9593,55.59564],[12.95961,55.59558],[12.95988,55.59552],[12.96019,55.59545],[12.96046,55.59539],[12.96075,55.59527],[12.961,55.59517],[12.96133,55.59513],[12.96163,55.59507],[12.96195,55.59498],[12.96224,55.59491],[12.96252,55.59485],[12.96284,55.59478],[12.96314,55.5947],[12.96348,55.59461],[12.96377,55.59455],[12.96411,55.59447],[12.96439,55.5944],[12.96473,55.59432],[12.96501,55.59425],[12.96533,55.59417],[12.96565,55.59398]]}}