{"type":"Feature","properties":{},"geometry":{"type":"LineString","coordinates":[[12.9694,55.59663],[12.96928,55.59673],[12.96913,55.5969],[12.96887,55.59704],[12.96857,55.59718],[12.96835,55.59731],[12.96813,55.59746],[12.96793,55.59762],[12.9677,55.59776],[12.96751,55.5979],[12.96726,55.59804],[12.96701,55.59819],[12.9668,55.59834],[12.96659,55.5985],[12.96637,55.59866],[12.96613,55.59881],[12.9659,55.59896],[12.96568,55.59912],[12.96543,55.59927],[12.96521,55.59942],[12.96499,55.59946],[12.96474,55.59936],[12.96444,55.59925],[12.96411,55.59912],[12.96383,55.59903],[12.96356,55.59895],[12.96326,55.59885],[12.96295,55.59874],[12.96266,55.59862],[12.96236,55.59852],[12.96206,55.59843],[12.96175,55.59847],[12.96154,55.59864],[12.96134,55.5988],[12.96103,55.59887],[12.96081,55.59901],[12.96052,55.59895],[12.96023,55.59885],[12.95995,55.59872],[12.95967,55.59859],[12.95936,55.59847],[12.95908,55.59835],[12.95881,55.59823],[12.95851,55.59812],[12.95818,55.598],[12.95785,55.59786],[12.95755,55.59774],[12.9573,55.59758],[12.95706,55.59743],[12.95684,55.59727],[12.9566,55.59711],[12.95638,55.59693],[12.95617,55.59676],[12.95597,55.59661],[12.95571,55.59649],[12.95541,55.59638],[12.95509,55.59626],[12.95479,55.59614],[12.95446,55.59601],[12.95414,55.59588],[12.95381,55.59575],[12.95347,55.5956],[12.95317,55.59547],[12.95286,55.59532],[12.95254,55.59518],[12.95224,55.59503],[12.95193,55.59489],[12.95159,55.59474],[12.9513,55.59459],[12.951,55.59443],[12.95071,55.59429],[12.95041,55.59415],[12.95009,55.59402],[12.94976,55.59389],[12.94943,55.59378],[12.9491,55.59365],[12.94877,55.59353],[12.94844,55.59343],[12.94811,55.59329],[12.94779,55.59317],[12.94746,55.59305],[12.94715,55.59291],[12.94686,55.59277],[12.94656,55.59263],[12.94627,55.59248],[12.94598,55.59235],[12.94567,55.5922],[12.94536,55.59205],[12.94508,55.59191],[12.94479,55.59176],[12.94453,55.59161],[12.94423,55.59145],[12.94396,55.59129],[12.9437,55.59114],[12.94339,55.59106],[12.9431,55.59092],[12.9428,55.59077],[12.94249,55.59061],[12.94222,55.59046],[12.9419,55.59037],[12.9415,55.59034],[12.94107,55.59044],[12.94068,55.59052],[12.94034,55.59063],[12.94002,55.59076],[12.93967,55.59088],[12.93931,55.59099],[12.939,55.59113],[12.93871,55.59126],[12.9384,55.59139],[12.93841,55.59154],[12.93875,55.59172],[12.93905,55.59192],[12.93935,55.59209],[12.93963,55.59224],[12.93992,55.5924],[12.94019,55.59256],[12.94049,55.5927],[12.94077,55.59286],[12.94104,55.59302],[12.94132,55.59318],[12.9416,55.59332],[12.94188,55.59347],[12.94216,55.59364],[12.94243,55.5938],[12.94271,55.59395],[12.94298,55.5941],[12.94327,55.59425],[12.94356,55.59439],[12.94385,55.59452],[12.94414,55.59465],[12.94444,55.59478],[12.94477,55.5949],[12.94511,55.59503],[12.94531,55.59523],[12.94565,55.59535],[12.94598,55.59547],[12.94633,55.59559],[12.94668,55.59571],[12.947,55.59585],[12.94732,55.59598],[12.94768,55.59608],[12.94801,55.59621],[12.94834,55.59632],[12.94867,55.59645],[12.94899,55.59657],[12.94932,55.59668],[12.94968,55.5968],[12.95002,55.59694],[12.95036,55.59707],[12.95069,55.59718],[12.95102,55.59729],[12.95136,55.59742],[12.95169,55.59753],[12.95201,55.59765],[12.95235,55.59777],[12.9527,55.5979],[12.95303,55.59803],[12.95336,55.59815],[12.95369,55.59827],[12.95401,55.59838],[12.95436,55.59852],[12.9547,55.59866],[12.95505,55.59877],[12.95537,55.59889],[12.95572,55.599],[12.95606,55.59911],[12.95645,55.59922],[12.95682,55.59933],[12.95717,55.59944],[12.95752,55.59952],[12.95787,55.59962],[12.95824,55.59973],[12.9586,55.59983],[12.95897,55.59994],[12.95932,55.60004],[12.9597,55.60015],[12.96008,55.60025],[12.96048,55.60036],[12.96087,55.60048],[12.96125,55.60059],[12.96165,55.6007],[12.96203,55.6008],[12.9624,55.60091],[12.96278,55.60102],[12.96315,55.60113],[12.96348,55.60122],[12.96382,55.60131],[12.96415,55.60141],[12.96452,55.60143],[12.96485,55.6015],[12.96521,55.60161],[12.96558,55.6017],[12.96594,55.6018],[12.9663,55.60191],[12.96665,55.60201],[12.96702,55.60211],[12.96738,55.6022],[12.96771,55.6023],[12.96837,55.60244]]}}