{"type":"Feature","properties":{},"geometry":{"type":"LineString","coordinates":[[12.98382,55.59839],[12.98365,55.59853],[12.98379,55.59871],[12.9842,55.59876],[12.98459,55.59873],[12.98494,55.59877],[12.98518,55.59879],[12.98546,55.59884],[12.9855,55.59901],[12.9856,55.59919],[12.98595,55.59927],[12.98615,55.59942],[12.98631,55.5996],[12.98657,55.59975],[12.98667,55.59996],[12.98677,55.60015],[12.98689,55.60032],[12.98706,55.60049],[12.98717,55.60067],[12.98729,55.60086],[12.98741,55.60104],[12.98767,55.60115],[12.988,55.60102],[12.98827,55.60085],[12.98857,55.60071],[12.98891,55.60068],[12.98916,55.6008],[12.98909,55.601],[12.98901,55.60119],[12.98918,55.60138],[12.98953,55.60149],[12.98993,55.6015],[12.9903,55.60142],[12.99068,55.60137],[12.99106,55.6014],[12.99141,55.60147],[12.99175,55.60153],[12.99208,55.6016],[12.99225,55.60171],[12.99215,55.60181],[12.99197,55.60198],[12.9918,55.60214],[12.99151,55.60215],[12.99119,55.60208],[12.99081,55.60204],[12.99046,55.60212],[12.99016,55.60226],[12.98995,55.60244],[12.98972,55.60261],[12.98951,55.6028],[12.9895,55.60297],[12.98957,55.60316],[12.98946,55.60336],[12.98946,55.60353],[12.98922,55.60356],[12.98886,55.60348],[12.9885,55.60342],[12.98814,55.60336],[12.9878,55.60329],[12.98745,55.60326],[12.9871,55.60331],[12.98673,55.60335],[12.98639,55.60343],[12.98619,55.60361],[12.98605,55.60382],[12.98592,55.60402],[12.98581,55.60422],[12.98567,55.60441],[12.98535,55.60452],[12.98503,55.60461],[12.98467,55.60464],[12.98428,55.60463],[12.98392,55.60467],[12.9836,55.60472],[12.98341,55.60455],[12.98314,55.6044],[12.98286,55.60425],[12.98259,55.60412],[12.98227,55.60403],[12.982,55.60388],[12.98167,55.60393],[12.98139,55.60407],[12.98111,55.60423],[12.98086,55.6044],[12.98064,55.60456],[12.98043,55.60467],[12.98026,55.60457],[12.98001,55.60454],[12.97989,55.60463],[12.97976,55.60475],[12.97943,55.60482],[12.97907,55.60476],[12.97876,55.60479],[12.97858,55.60498],[12.97835,55.60512],[12.97799,55.60505],[12.97763,55.60496],[12.97729,55.60486],[12.97697,55.60475],[12.97667,55.60463],[12.97629,55.60452],[12.9759,55.60445],[12.97555,55.60436],[12.97523,55.60426],[12.97491,55.60416],[12.97457,55.60406],[12.97422,55.60398],[12.97391,55.60386],[12.97357,55.60374],[12.97324,55.60364],[12.97289,55.60355],[12.97253,55.60346],[12.97215,55.6034],[12.97179,55.60333],[12.97144,55.60323],[12.97108,55.60312],[12.97073,55.60303],[12.97037,55.60294],[12.97002,55.60284],[12.96969,55.60273],[12.96941,55.60259],[12.96907,55.60249],[12.96873,55.6024],[12.96837,55.60241],[12.96802,55.60234],[12.96768,55.60226],[12.96732,55.60218],[12.96698,55.60206],[12.96664,55.60195],[12.96629,55.60186],[12.96595,55.60176],[12.96559,55.60166],[12.96523,55.60157],[12.96487,55.60148],[12.96452,55.60138],[12.96419,55.60127],[12.96383,55.60117],[12.96349,55.60107],[12.96315,55.60096],[12.9628,55.60087],[12.96246,55.60077],[12.9621,55.60067],[12.96173,55.60056],[12.96138,55.60047],[12.96101,55.60038],[12.96065,55.60028],[12.96029,55.60019],[12.96004,55.60006],[12.96009,55.59986],[12.9597,55.59977],[12.95936,55.59967],[12.95903,55.59956],[12.95865,55.59947],[12.95838,55.59934],[12.95814,55.59918],[12.95774,55.59914],[12.95739,55.59906],[12.95703,55.59909],[12.95666,55.59904],[12.9563,55.59894],[12.95596,55.59884],[12.95564,55.5987],[12.95529,55.5986],[12.95499,55.59848],[12.95465,55.59837],[12.95431,55.59825],[12.95406,55.59813],[12.95422,55.59791],[12.95441,55.59771],[12.95462,55.59752],[12.95483,55.59734],[12.95505,55.59716],[12.95535,55.59704],[12.95567,55.59692],[12.95596,55.59679],[12.95626,55.59665],[12.9566,55.59658],[12.95688,55.59648],[12.95716,55.59636],[12.95747,55.59629],[12.95779,55.5962],[12.95813,55.59612],[12.95847,55.59604],[12.95886,55.59595],[12.9592,55.59585],[12.95956,55.59578],[12.95993,55.59573],[12.9603,55.59568],[12.96066,55.59558],[12.96101,55.59548],[12.96135,55.59546],[12.96163,55.5956],[12.96188,55.59579],[12.96217,55.5959],[12.9625,55.59598],[12.96283,55.59607],[12.96316,55.59615],[12.96351,55.59607],[12.96392,55.59604],[12.96464,55.5959]]}}