{"type":"Feature","properties":{},"geometry":{"type":"LineString","coordinates":[[11.88543,57.7236],[11.88537,57.72356],[11.88498,57.72336],[11.88464,57.7231],[11.88426,57.72301],[11.88383,57.72288],[11.88335,57.72275],[11.88306,57.72261],[11.88272,57.72247],[11.88239,57.7224],[11.88199,57.72241],[11.88156,57.72235],[11.88114,57.72242],[11.88078,57.72221],[11.88067,57.72181],[11.88065,57.72145],[11.88066,57.7211],[11.88041,57.72093],[11.87996,57.72082],[11.87954,57.72071],[11.87929,57.7206],[11.87895,57.72044],[11.87855,57.72038],[11.87825,57.72037],[11.87779,57.72038],[11.87736,57.72038],[11.87701,57.72039],[11.87679,57.72046],[11.87634,57.72045],[11.8759,57.72042],[11.87571,57.72051],[11.87555,57.72045],[11.87526,57.72045],[11.8751,57.72041],[11.87483,57.72048],[11.87447,57.72053],[11.87416,57.72041],[11.87384,57.72028],[11.87353,57.7203],[11.87325,57.7204],[11.87298,57.72042],[11.87274,57.7205],[11.87238,57.72056],[11.8721,57.72062],[11.87189,57.72055],[11.87184,57.72043],[11.87175,57.72027],[11.87168,57.72008],[11.87154,57.71989],[11.87154,57.7197],[11.8713,57.71955],[11.87128,57.7194],[11.87133,57.71916],[11.87137,57.71899],[11.8715,57.71883],[11.87156,57.7186],[11.87154,57.7184],[11.87148,57.71822],[11.87139,57.71825],[11.87107,57.7183],[11.87081,57.71837],[11.87049,57.71835],[11.87022,57.71846],[11.86976,57.71851],[11.86941,57.71867],[11.86912,57.71866],[11.86891,57.7187],[11.86875,57.71875],[11.86883,57.71883],[11.86879,57.71907],[11.86883,57.71915],[11.86874,57.7192],[11.86857,57.7194],[11.86848,57.7196],[11.86859,57.71981],[11.86885,57.71988],[11.86893,57.72],[11.86875,57.72014],[11.8686,57.72029],[11.86853,57.72042],[11.86864,57.72058],[11.86864,57.72078],[11.86869,57.72095],[11.86875,57.72113],[11.86883,57.72129],[11.86884,57.72138],[11.86895,57.72146],[11.86903,57.72158],[11.86909,57.72172],[11.86919,57.72182],[11.86925,57.72193],[11.86926,57.72203],[11.86925,57.7221],[11.86958,57.72219],[11.86978,57.7223],[11.86988,57.72245],[11.86998,57.72265],[11.86987,57.72278],[11.86981,57.72284],[11.86986,57.72292],[11.86976,57.72303],[11.86984,57.7232],[11.86989,57.72334],[11.86999,57.72343],[11.87011,57.72345],[11.87017,57.72349],[11.87022,57.72372],[11.87051,57.72379],[11.87054,57.7239],[11.87109,57.72393],[11.8715,57.72391],[11.87192,57.7239],[11.87209,57.72401],[11.87237,57.7241],[11.87265,57.72423],[11.87282,57.72429],[11.87284,57.72439],[11.87295,57.72447],[11.8729,57.72451],[11.873,57.72457],[11.87318,57.72457],[11.87332,57.72466],[11.87352,57.72478],[11.87359,57.72501],[11.87407,57.72529],[11.87477,57.72547],[11.87517,57.72556],[11.87537,57.72554],[11.87561,57.72554],[11.87575,57.7254],[11.87592,57.72528],[11.87595,57.72514],[11.87609,57.72499],[11.87637,57.72506],[11.8765,57.7252],[11.87668,57.72531],[11.8767,57.72534],[11.87671,57.72535],[11.87693,57.72541],[11.87691,57.7256],[11.87701,57.72582],[11.8772,57.72598],[11.87733,57.726],[11.87759,57.72588],[11.87766,57.72578],[11.87735,57.7259],[11.877,57.72599],[11.87687,57.72609],[11.87678,57.72632],[11.87671,57.7265],[11.87654,57.72654],[11.87625,57.72657],[11.87616,57.72678],[11.87605,57.72692],[11.87643,57.72694],[11.87674,57.7269],[11.87696,57.72699],[11.87712,57.72707],[11.87734,57.72715],[11.87752,57.72723],[11.87771,57.72738],[11.87792,57.72748],[11.87818,57.72752],[11.87819,57.72768],[11.87816,57.72782],[11.87826,57.72798],[11.87818,57.72811],[11.87819,57.72823],[11.87819,57.72834],[11.87807,57.72848],[11.87805,57.72858],[11.87828,57.72876],[11.87854,57.72876],[11.87874,57.72873],[11.87915,57.72866],[11.87938,57.7286],[11.87948,57.72859],[11.87969,57.7285],[11.87996,57.72848],[11.88025,57.7285],[11.88048,57.72842],[11.88061,57.72837],[11.88064,57.7282],[11.88069,57.72803],[11.88053,57.72789],[11.88056,57.72801],[11.88065,57.72819],[11.88064,57.72834],[11.88077,57.72859],[11.88103,57.72887],[11.88158,57.72903],[11.88188,57.72908],[11.88221,57.72906],[11.88258,57.72898],[11.88336,57.72906],[11.88414,57.72928],[11.88436,57.72974],[11.88467,57.73014],[11.88559,57.73014],[11.88484,57.73034]]}}