{"type":"Feature","properties":{},"geometry":{"type":"LineString","coordinates":[[12.96976,55.59677],[12.96938,55.59664],[12.96897,55.59686],[12.96862,55.59713],[12.96827,55.59736],[12.96788,55.59764],[12.96748,55.5979],[12.96706,55.59817],[12.96667,55.59847],[12.96623,55.59874],[12.96579,55.59903],[12.9654,55.59931],[12.96496,55.59941],[12.96435,55.59926],[12.9638,55.59905],[12.96322,55.59889],[12.96268,55.59869],[12.96209,55.59848],[12.96161,55.59857],[12.96117,55.5988],[12.96071,55.599],[12.96019,55.59884],[12.95963,55.59874],[12.95911,55.59853],[12.95834,55.59837],[12.95767,55.59807],[12.95717,55.59782],[12.95657,55.59756],[12.95599,55.59733],[12.95547,55.59705],[12.95511,55.59675],[12.95467,55.59647],[12.95421,55.59618],[12.95367,55.59594],[12.95311,55.5957],[12.95256,55.5955],[12.952,55.59526],[12.95151,55.59496],[12.95107,55.59469],[12.9505,55.59445],[12.94994,55.59421],[12.94937,55.59398],[12.9488,55.59377],[12.94816,55.59366],[12.94754,55.59385],[12.947,55.59407],[12.94649,55.59436],[12.94599,55.59464],[12.94556,55.59493],[12.94507,55.59497],[12.94451,55.59477],[12.94391,55.59452],[12.94338,55.59427],[12.94286,55.594],[12.94237,55.59373],[12.94187,55.59345],[12.94138,55.59314],[12.94085,55.59289],[12.94036,55.59261],[12.93989,55.59233],[12.93943,55.59206],[12.93892,55.5918],[12.93836,55.59195],[12.93777,55.59215],[12.93725,55.59238],[12.93665,55.59257],[12.93609,55.59282],[12.93554,55.59304],[12.93493,55.5933],[12.93439,55.59353],[12.93371,55.59366],[12.93343,55.59389],[12.93311,55.59406],[12.93255,55.59424],[12.93209,55.59445],[12.93231,55.59477],[12.93283,55.5949],[12.93328,55.59466],[12.9338,55.59455],[12.93447,55.5946],[12.93515,55.5946],[12.9358,55.59468],[12.93651,55.59463],[12.93718,55.59456],[12.93781,55.59452],[12.93846,55.59438],[12.93912,55.59437],[12.93973,55.59452],[12.94017,55.59474],[12.94033,55.59512],[12.94048,55.59551],[12.9402,55.59585],[12.93985,55.59619],[12.93951,55.59652],[12.93906,55.59682],[12.93877,55.59713],[12.93843,55.59744],[12.93783,55.59764],[12.93811,55.59777],[12.93877,55.59781],[12.9394,55.59781],[12.94004,55.59777],[12.94073,55.59773],[12.94137,55.59766],[12.94206,55.59757],[12.94271,55.59756],[12.9434,55.59759],[12.9441,55.59763],[12.94477,55.59766],[12.9455,55.5977],[12.94618,55.59772],[12.94689,55.5978],[12.9475,55.59798],[12.94813,55.59809],[12.94881,55.59823],[12.94946,55.59827],[12.95019,55.59827],[12.95088,55.59825],[12.95156,55.59827],[12.95225,55.59833],[12.95266,55.59858],[12.95315,55.59885],[12.95369,55.59901],[12.95424,55.5992],[12.95478,55.59939],[12.95532,55.59957],[12.9559,55.59975],[12.95641,55.59994],[12.95695,55.60013],[12.95751,55.60029],[12.95806,55.60044],[12.9587,55.60051],[12.95931,55.60056],[12.95977,55.60078],[12.96004,55.60107],[12.96062,55.60123],[12.96119,55.6014],[12.96173,55.60157],[12.96231,55.60175],[12.96287,55.60191],[12.96338,55.60209],[12.96393,55.60222],[12.96454,55.60237],[12.96507,55.60258],[12.96564,55.60275],[12.9662,55.60297],[12.96665,55.60322],[12.96724,55.60342],[12.9677,55.60365],[12.96825,55.60383],[12.96882,55.60404],[12.96926,55.60429],[12.96974,55.60452],[12.97023,55.60473],[12.97063,55.60497],[12.97104,55.60524],[12.97146,55.60548],[12.9717,55.60584],[12.97202,55.60618],[12.97227,55.60654],[12.97243,55.60694],[12.97243,55.60732],[12.97245,55.60774],[12.97243,55.60813],[12.97231,55.60852],[12.9721,55.60887],[12.97203,55.60926],[12.9721,55.60965],[12.97243,55.60996],[12.97288,55.60972],[12.97316,55.60938],[12.97338,55.60902],[12.97343,55.60864],[12.9738,55.60831],[12.97442,55.6081],[12.97506,55.60791],[12.97571,55.60768],[12.97622,55.60739],[12.97647,55.60701],[12.9768,55.60665],[12.97728,55.60638],[12.97753,55.60599],[12.97787,55.60565],[12.97837,55.60542],[12.97864,55.60502],[12.97864,55.60464],[12.97805,55.60436],[12.97748,55.60411],[12.97674,55.60398],[12.97604,55.60393],[12.97535,55.60381],[12.97475,55.60355],[12.97411,55.60336],[12.97336,55.60326],[12.97273,55.60304],[12.97215,55.60278],[12.97144,55.60263],[12.97076,55.60251],[12.97018,55.60224],[12.96884,55.60192]]}}